<?xml version="1.0" encoding="UTF-8"?>
<osm version="0.6" generator="osmapis">
	<node lat="61.79860000230512" lon="6.164127784968617" id="-35345">
		<tag k="bridge" v="yes" />
		<tag k="layer" v="1" />
		<tag k="name" v="Slagstad" />
		<tag k="ssr:stedsnr" v="229740" />
	</node>
	<node lat="61.812847222375495" lon="6.081083334609389" id="-35346">
		<tag k="bridge" v="yes" />
		<tag k="layer" v="1" />
		<tag k="name" v="Jupevik" />
		<tag k="ssr:stedsnr" v="229717" />
	</node>
	<node lat="61.78415277484021" lon="6.1838611042523235" id="-35347">
		<tag k="bridge" v="yes" />
		<tag k="layer" v="1" />
		<tag k="name" v="Haugselva" />
		<tag k="ssr:stedsnr" v="229719" />
	</node>
	<node lat="61.63238611403608" lon="6.066416673979755" id="-35348">
		<tag k="name" v="Vonaskaret" />
		<tag k="natural" v="valley" />
		<tag k="place" v="locality" />
		<tag k="ssr:stedsnr" v="9222" />
	</node>
	<node lat="61.626630554306715" lon="5.893733326646285" id="-35349">
		<tag k="name" v="Stordalen" />
		<tag k="natural" v="valley" />
		<tag k="place" v="locality" />
		<tag k="ssr:stedsnr" v="9225" />
	</node>
	<node lat="61.653124997476624" lon="5.671027774792964" id="-35350">
		<tag k="fixme" v="consider natural=peak for the most distinct mountains in the district" />
		<tag k="name" v="Britelia" />
		<tag k="natural" v="hill" />
		<tag k="place" v="locality" />
		<tag k="ssr:stedsnr" v="9702" />
	</node>
	<node lat="61.65366944237747" lon="5.83613056053005" id="-35351">
		<tag k="name" v="Fjellvatnet" />
		<tag k="natural" v="water" />
		<tag k="ssr:stedsnr" v="9704" />
	</node>
	<node lat="61.66437499726879" lon="5.79588610348172" id="-35352">
		<tag k="name" v="Øykjevika" />
		<tag k="natural" v="bay" />
		<tag k="ssr:stedsnr" v="9696" />
	</node>
	<node lat="61.67294444774712" lon="6.650524993265355" id="-35353">
		<tag k="fixme" v="consider natural=peak for the most distinct mountains in the district" />
		<tag k="name" v="Veslenibba" />
		<tag k="natural" v="hill" />
		<tag k="place" v="locality" />
		<tag k="ssr:stedsnr" v="9915" />
	</node>
	<node lat="61.65424999613956" lon="6.597375007847515" id="-35354">
		<tag k="name" v="Steinbotnen" />
		<tag k="natural" v="valley" />
		<tag k="place" v="locality" />
		<tag k="ssr:stedsnr" v="9918" />
	</node>
	<node lat="61.71443055281366" lon="6.359111102259836" id="-35355">
		<tag k="alt_name" v="Restølen" />
		<tag k="historic" v="shieling" />
		<tag k="name" v="Restøylen" />
		<tag k="place" v="isolated_dwelling" />
		<tag k="ssr:stedsnr" v="10102" />
	</node>
	<node lat="61.618216669679505" lon="6.345505558609846" id="-35356">
		<tag k="name" v="Kattadalen" />
		<tag k="natural" v="valley" />
		<tag k="place" v="locality" />
		<tag k="ssr:stedsnr" v="10038" />
	</node>
	<node lat="61.710200004356714" lon="6.482116668383215" id="-35357">
		<tag k="name" v="Skorvevatnet" />
		<tag k="natural" v="water" />
		<tag k="ssr:stedsnr" v="10093" />
	</node>
	<node lat="61.79136388490313" lon="6.354827778005528" id="-35358">
		<tag k="fixme" v="consider natural=peak for the most distinct mountains in the district" />
		<tag k="name" v="Frøyseteggene" />
		<tag k="natural" v="hill" />
		<tag k="place" v="locality" />
		<tag k="ssr:stedsnr" v="10098" />
	</node>
	<node lat="61.68658610947102" lon="6.063538880226591" id="-35359">
		<tag k="name" v="Skartjønna" />
		<tag k="natural" v="water" />
		<tag k="ssr:stedsnr" v="10299" />
	</node>
	<node lat="61.755327776079" lon="6.327636110461217" id="-35360">
		<tag k="name" v="Brendene" />
		<tag k="place" v="isolated_dwelling" />
		<tag k="ssr:stedsnr" v="10137" />
	</node>
	<node lat="61.765577781903865" lon="6.379752783984926" id="-35361">
		<tag k="historic" v="shieling" />
		<tag k="name" v="Kålsstøylen" />
		<tag k="place" v="isolated_dwelling" />
		<tag k="ssr:stedsnr" v="10140" />
	</node>
	<node lat="61.764955554706205" lon="6.317397226767961" id="-35362">
		<tag k="name" v="Kolbakkane" />
		<tag k="natural" v="slope" />
		<tag k="place" v="locality" />
		<tag k="ssr:stedsnr" v="10186" />
	</node>
	<node lat="61.7466111139021" lon="6.3761944397679065" id="-35363">
		<tag k="alt_name" v="Sagefloten" />
		<tag k="name" v="Sagerfloten" />
		<tag k="place" v="farm" />
		<tag k="ssr:stedsnr" v="10142" />
	</node>
	<node lat="61.67317222051714" lon="6.010438881509473" id="-35364">
		<tag k="name" v="Skjenstogrova" />
		<tag k="ssr:stedsnr" v="10318" />
		<tag k="waterway" v="stream" />
	</node>
	<node lat="61.684080552168595" lon="6.067786106713946" id="-35365">
		<tag k="fixme" v="consider natural=peak for the most distinct mountains in the district" />
		<tag k="name" v="Høgeholten" />
		<tag k="natural" v="hill" />
		<tag k="place" v="locality" />
		<tag k="ssr:stedsnr" v="10324" />
	</node>
	<node lat="61.7198361095932" lon="5.94863055941369" id="-35366">
		<tag k="fixme" v="consider natural=peak for the most distinct mountains in the district" />
		<tag k="name" v="Storeskoregga" />
		<tag k="natural" v="hill" />
		<tag k="place" v="locality" />
		<tag k="ssr:stedsnr" v="10327" />
	</node>
	<node lat="61.724322226398684" lon="6.045402784702454" id="-35367">
		<tag k="name" v="Klypet" />
		<tag k="natural" v="valley" />
		<tag k="place" v="locality" />
		<tag k="ssr:stedsnr" v="10330" />
	</node>
	<node lat="61.73464166354685" lon="6.103475004759785" id="-35368">
		<tag k="name" v="Vesledalen" />
		<tag k="natural" v="valley" />
		<tag k="place" v="locality" />
		<tag k="ssr:stedsnr" v="10334" />
	</node>
	<node lat="61.71239444415673" lon="6.103613896258514" id="-35369">
		<tag k="name" v="Botnen" />
		<tag k="natural" v="valley" />
		<tag k="place" v="locality" />
		<tag k="ssr:stedsnr" v="10338" />
	</node>
	<node lat="61.70967778171943" lon="6.010183328888173" id="-35370">
		<tag k="name" v="Styggelia" />
		<tag k="natural" v="slope" />
		<tag k="place" v="locality" />
		<tag k="ssr:stedsnr" v="10340" />
	</node>
	<node lat="61.85883611032482" lon="5.908955550497021" id="-35371">
		<tag k="name" v="Kabuneset" />
		<tag k="natural" v="cape" />
		<tag k="ssr:stedsnr" v="10643" />
	</node>
	<node lat="61.8460833304007" lon="6.080661107723351" id="-35372">
		<tag k="name" v="Anda" />
		<tag k="natural" v="cape" />
		<tag k="ssr:stedsnr" v="10681" />
	</node>
	<node lat="61.83200475953439" lon="6.179634088703115" id="-35373">
		<tag k="fixme" v="consider place=hamlet" />
		<tag k="name" v="Rye" />
		<tag k="place" v="farm" />
		<tag k="ssr:stedsnr" v="10709" />
	</node>
	<node lat="61.79895555944884" lon="6.046791668453106" id="-35374">
		<tag k="name" v="Breielva" />
		<tag k="ssr:stedsnr" v="10736" />
		<tag k="waterway" v="stream" />
	</node>
	<node lat="61.787056185046424" lon="6.21873873225209" id="-35375">
		<tag k="fixme" v="consider place=hamlet" />
		<tag k="name" v="Engeset" />
		<tag k="old_name" v="Austrheim" />
		<tag k="place" v="farm" />
		<tag k="ssr:stedsnr" v="10739" />
	</node>
	<node lat="61.77237499596894" lon="5.995066675013733" id="-35376">
		<tag k="name" v="Skaret" />
		<tag k="natural" v="valley" />
		<tag k="place" v="locality" />
		<tag k="ssr:stedsnr" v="10744" />
	</node>
	<node lat="61.725761114707986" lon="6.162905560278733" id="-35377">
		<tag k="name" v="Langedalen" />
		<tag k="natural" v="valley" />
		<tag k="place" v="locality" />
		<tag k="ssr:stedsnr" v="21492" />
	</node>
	<node lat="61.72071666361171" lon="5.8180416748909805" id="-35378">
		<tag k="name" v="Vesleheia" />
		<tag k="natural" v="hill" />
		<tag k="place" v="locality" />
		<tag k="ssr:stedsnr" v="32207" />
	</node>
	<node lat="61.724044446342" lon="5.826991661298792" id="-35379">
		<tag k="name" v="Brekkerabben" />
		<tag k="natural" v="hill" />
		<tag k="place" v="locality" />
		<tag k="ssr:stedsnr" v="32208" />
	</node>
	<node lat="61.71996666948705" lon="5.825786115937456" id="-35380">
		<tag k="name" v="Rakelsteinen" />
		<tag k="natural" v="stone" />
		<tag k="ssr:stedsnr" v="32212" />
	</node>
	<node lat="61.66713888989748" lon="5.854927771264618" id="-35381">
		<tag k="name" v="Skarholten" />
		<tag k="natural" v="hill" />
		<tag k="place" v="locality" />
		<tag k="ssr:stedsnr" v="32308" />
	</node>
	<node lat="61.681413892163256" lon="5.909349995014739" id="-35382">
		<tag k="name" v="Nonskaret" />
		<tag k="natural" v="valley" />
		<tag k="place" v="locality" />
		<tag k="ssr:stedsnr" v="32312" />
	</node>
	<node lat="61.66775555130702" lon="5.887683332950562" id="-35383">
		<tag k="name" v="Storelia" />
		<tag k="natural" v="slope" />
		<tag k="place" v="locality" />
		<tag k="ssr:stedsnr" v="32319" />
	</node>
	<node lat="61.74744444143408" lon="5.88199166406125" id="-35384">
		<tag k="name" v="Skora" />
		<tag k="place" v="locality" />
		<tag k="ssr:stedsnr" v="32343" />
	</node>
	<node lat="61.74247222356591" lon="5.909363892290785" id="-35385">
		<tag k="fixme" v="consider natural=peak for the most distinct mountains in the district" />
		<tag k="name" v="Bygnarabben" />
		<tag k="natural" v="hill" />
		<tag k="place" v="locality" />
		<tag k="ssr:stedsnr" v="32346" />
	</node>
	<node lat="61.82303610788601" lon="6.042136105113143" id="-35386">
		<tag k="name" v="Raudsteindalen" />
		<tag k="natural" v="valley" />
		<tag k="place" v="locality" />
		<tag k="ssr:stedsnr" v="32349" />
	</node>
	<node lat="61.6899861121671" lon="5.847452778513156" id="-35387">
		<tag k="name" v="Øykjelimyra" />
		<tag k="natural" v="wetland" />
		<tag k="ssr:stedsnr" v="32283" />
	</node>
	<node lat="61.68518333011616" lon="5.919033334285222" id="-35388">
		<tag k="name" v="Åsen" />
		<tag k="place" v="farm" />
		<tag k="ssr:stedsnr" v="32294" />
	</node>
	<node lat="61.68086944762019" lon="5.810977776146304" id="-35389">
		<tag k="name" v="Einamyra" />
		<tag k="natural" v="wetland" />
		<tag k="ssr:stedsnr" v="32298" />
	</node>
	<node lat="61.657419441879924" lon="5.9600333420524265" id="-35390">
		<tag k="name" v="Jøsophjellen" />
		<tag k="place" v="locality" />
		<tag k="ssr:stedsnr" v="32416" />
	</node>
	<node lat="61.64890278176257" lon="6.050216671025576" id="-35391">
		<tag k="name" v="Kannarhaugen" />
		<tag k="natural" v="hill" />
		<tag k="place" v="locality" />
		<tag k="ssr:stedsnr" v="32422" />
	</node>
	<node lat="61.6400833298949" lon="6.012061110269325" id="-35392">
		<tag k="name" v="Skråberga" />
		<tag k="natural" v="hill" />
		<tag k="place" v="locality" />
		<tag k="ssr:stedsnr" v="32431" />
	</node>
	<node lat="61.7554305534392" lon="6.584105557874101" id="-35393">
		<tag k="name" v="Akslene" />
		<tag k="natural" v="hill" />
		<tag k="place" v="locality" />
		<tag k="ssr:stedsnr" v="32491" />
	</node>
	<node lat="61.63892500058958" lon="5.6771611059612095" id="-35394">
		<tag k="fixme" v="consider natural=peak for the most distinct mountains in the district" />
		<tag k="name" v="Grøneliholten" />
		<tag k="natural" v="hill" />
		<tag k="place" v="locality" />
		<tag k="ssr:stedsnr" v="32494" />
	</node>
	<node lat="61.75108055366446" lon="6.592033326776516" id="-35395">
		<tag k="name" v="Timbrevadrinden" />
		<tag k="natural" v="hill" />
		<tag k="place" v="locality" />
		<tag k="ssr:stedsnr" v="32498" />
	</node>
	<node lat="61.64029166337211" lon="5.877452774571267" id="-35396">
		<tag k="name" v="Revaskarmyra" />
		<tag k="natural" v="wetland" />
		<tag k="ssr:stedsnr" v="32600" />
	</node>
	<node lat="61.63237222573579" lon="5.875883328472899" id="-35397">
		<tag k="name" v="Skadhammaren" />
		<tag k="natural" v="hill" />
		<tag k="place" v="locality" />
		<tag k="ssr:stedsnr" v="32605" />
	</node>
	<node lat="61.630983330056196" lon="5.874411118418227" id="-35398">
		<tag k="name" v="Nonsskaret" />
		<tag k="natural" v="valley" />
		<tag k="place" v="locality" />
		<tag k="ssr:stedsnr" v="32606" />
	</node>
	<node lat="61.6385972209115" lon="5.838850004127808" id="-35399">
		<tag k="name" v="Storeskora" />
		<tag k="place" v="locality" />
		<tag k="ssr:stedsnr" v="32611" />
	</node>
	<node lat="61.627616665607476" lon="5.758377772846751" id="-35400">
		<tag k="name" v="Sandsteinurene" />
		<tag k="natural" v="scree" />
		<tag k="ssr:stedsnr" v="32670" />
	</node>
	<node lat="61.63524166391559" lon="5.776616659657108" id="-35401">
		<tag k="name" v="Griseryggen" />
		<tag k="natural" v="ridge" />
		<tag k="place" v="locality" />
		<tag k="ssr:stedsnr" v="32675" />
	</node>
	<node lat="61.622116669885685" lon="5.843908337782689" id="-35402">
		<tag k="name" v="Hyskredene" />
		<tag k="natural" v="scree" />
		<tag k="place" v="locality" />
		<tag k="ssr:stedsnr" v="32615" />
	</node>
	<node lat="61.64713889040493" lon="5.877133340797521" id="-35403">
		<tag k="fixme" v="consider natural=peak for the most distinct mountains in the district" />
		<tag k="name" v="Høgefjellet" />
		<tag k="natural" v="hill" />
		<tag k="place" v="locality" />
		<tag k="ssr:stedsnr" v="32620" />
	</node>
	<node lat="61.65906944700315" lon="5.886652786679585" id="-35404">
		<tag k="name" v="Tverrlia" />
		<tag k="natural" v="slope" />
		<tag k="place" v="locality" />
		<tag k="ssr:stedsnr" v="32621" />
	</node>
	<node lat="61.65842500379295" lon="5.874408340429801" id="-35405">
		<tag k="name" v="Botnaheiane" />
		<tag k="natural" v="hill" />
		<tag k="place" v="locality" />
		<tag k="ssr:stedsnr" v="32622" />
	</node>
	<node lat="61.6611222249351" lon="5.910194442538152" id="-35406">
		<tag k="name" v="Sagelihaugen" />
		<tag k="natural" v="hill" />
		<tag k="place" v="locality" />
		<tag k="ssr:stedsnr" v="32624" />
	</node>
	<node lat="61.7695722261701" lon="6.149813885339282" id="-35407">
		<tag k="name" v="Fugledalen" />
		<tag k="natural" v="valley" />
		<tag k="place" v="locality" />
		<tag k="ssr:stedsnr" v="33013" />
	</node>
	<node lat="61.68333055580962" lon="6.140794450126629" id="-35408">
		<tag k="name" v="Gapehogane" />
		<tag k="natural" v="hill" />
		<tag k="place" v="locality" />
		<tag k="ssr:stedsnr" v="33112" />
	</node>
	<node lat="61.77107777525541" lon="6.106191671023254" id="-35409">
		<tag k="name" v="Gjerdgrova" />
		<tag k="ssr:stedsnr" v="33116" />
		<tag k="waterway" v="stream" />
	</node>
	<node lat="61.75408055726482" lon="6.294552781251269" id="-35410">
		<tag k="name" v="Egga" />
		<tag k="place" v="locality" />
		<tag k="ssr:stedsnr" v="33182" />
	</node>
	<node lat="61.756794442980485" lon="6.320686103213981" id="-35411">
		<tag k="name" v="Bergheimsgjølet" />
		<tag k="natural" v="gorge" />
		<tag k="ssr:stedsnr" v="33183" />
	</node>
	<node lat="61.74034721991381" lon="6.30524444457322" id="-35412">
		<tag k="name" v="Kuskreda" />
		<tag k="natural" v="scree" />
		<tag k="place" v="locality" />
		<tag k="ssr:stedsnr" v="33201" />
	</node>
	<node lat="61.808483329991596" lon="6.1866916665848795" id="-35413">
		<tag k="fixme" v="consider natural=peak for the most distinct mountains in the district" />
		<tag k="name" v="Almestølåsen" />
		<tag k="natural" v="hill" />
		<tag k="place" v="locality" />
		<tag k="ssr:stedsnr" v="33277" />
	</node>
	<node lat="61.75488611074317" lon="6.3862888818212165" id="-35414">
		<tag k="name" v="Tikabakken" />
		<tag k="natural" v="slope" />
		<tag k="place" v="locality" />
		<tag k="ssr:stedsnr" v="33804" />
	</node>
	<node lat="61.75656388733035" lon="6.386736120337246" id="-35415">
		<tag k="name" v="Snøføk" />
		<tag k="place" v="locality" />
		<tag k="ssr:stedsnr" v="33807" />
	</node>
	<node lat="61.76384444126051" lon="6.388566664063144" id="-35416">
		<tag k="name" v="Høgsterotevadet" />
		<tag k="place" v="locality" />
		<tag k="ssr:stedsnr" v="33808" />
	</node>
	<node lat="61.76694444814985" lon="6.401286118223762" id="-35417">
		<tag k="name" v="Skjerdøla" />
		<tag k="ssr:stedsnr" v="33812" />
		<tag k="waterway" v="stream" />
	</node>
	<node lat="61.69261111119537" lon="6.518655551709135" id="-35418">
		<tag k="name" v="Svinegarden" />
		<tag k="place" v="locality" />
		<tag k="ssr:stedsnr" v="33816" />
	</node>
	<node lat="61.653933331703115" lon="6.526166661703861" id="-35419">
		<tag k="name" v="Buskregjølet" />
		<tag k="natural" v="gorge" />
		<tag k="ssr:stedsnr" v="33820" />
	</node>
	<node lat="61.69658889192908" lon="6.625613897898047" id="-35420">
		<tag k="name" v="Kvernabakkane" />
		<tag k="natural" v="slope" />
		<tag k="place" v="locality" />
		<tag k="ssr:stedsnr" v="33904" />
	</node>
	<node lat="61.67473055807351" lon="6.628786103395392" id="-35421">
		<tag k="name" v="Sjøndahaugen" />
		<tag k="natural" v="hill" />
		<tag k="place" v="locality" />
		<tag k="ssr:stedsnr" v="33914" />
	</node>
	<node lat="61.73695555208755" lon="6.5504416585249885" id="-35422">
		<tag k="name" v="Hattarsteinen" />
		<tag k="natural" v="stone" />
		<tag k="ssr:stedsnr" v="33921" />
	</node>
	<node lat="61.73339167030428" lon="6.581830563963795" id="-35423">
		<tag k="name" v="Småskorane" />
		<tag k="natural" v="ridge" />
		<tag k="place" v="locality" />
		<tag k="ssr:stedsnr" v="33924" />
	</node>
	<node lat="61.731244441925654" lon="6.589086105898847" id="-35424">
		<tag k="name" v="Sandkulen" />
		<tag k="natural" v="hill" />
		<tag k="place" v="locality" />
		<tag k="ssr:stedsnr" v="33926" />
	</node>
	<node lat="61.7321861151703" lon="6.477544446945869" id="-35425">
		<tag k="name" v="Høylomyrane" />
		<tag k="natural" v="wetland" />
		<tag k="ssr:stedsnr" v="33862" />
	</node>
	<node lat="61.8473027805708" lon="6.251711105777787" id="-35426">
		<tag k="name" v="Gjeddegrovvika" />
		<tag k="natural" v="bay" />
		<tag k="ssr:stedsnr" v="39964" />
	</node>
	<node lat="61.770961114668715" lon="6.221536101496918" id="-35428">
		<tag k="name" v="Ulvesbakken" />
		<tag k="place" v="quarter" />
		<tag k="ssr:stedsnr" v="59722" />
	</node>
	<node lat="61.74381666648096" lon="5.960569448517737" id="-35429">
		<tag k="name" v="Kyra" />
		<tag k="ssr:stedsnr" v="69407" />
		<tag k="waterway" v="stream" />
	</node>
	<node lat="61.73994166373529" lon="5.844594437526446" id="-35430">
		<tag k="name" v="Kvanngrøskaret" />
		<tag k="natural" v="valley" />
		<tag k="place" v="locality" />
		<tag k="ssr:stedsnr" v="69413" />
	</node>
	<node lat="61.72991944226425" lon="5.751055559650396" id="-35431">
		<tag k="name" v="Kvannbotnelva" />
		<tag k="ssr:stedsnr" v="69678" />
		<tag k="waterway" v="stream" />
	</node>
	<node lat="61.7355750021199" lon="5.816266665608322" id="-35432">
		<tag k="name" v="Lyselveskaret" />
		<tag k="natural" v="valley" />
		<tag k="place" v="locality" />
		<tag k="ssr:stedsnr" v="69681" />
	</node>
	<node lat="61.7171388888839" lon="5.822252776918267" id="-35433">
		<tag k="name" v="Hopselva" />
		<tag k="ssr:stedsnr" v="69689" />
		<tag k="waterway" v="river" />
	</node>
	<node lat="61.826105556342895" lon="6.260008335510766" id="-35434">
		<tag k="name" v="Leite" />
		<tag k="place" v="locality" />
		<tag k="ssr:stedsnr" v="70092" />
	</node>
	<node lat="61.64809722117669" lon="5.939294438510008" id="-35435">
		<tag k="name" v="Nobbedalen" />
		<tag k="natural" v="valley" />
		<tag k="place" v="locality" />
		<tag k="ssr:stedsnr" v="70274" />
	</node>
	<node lat="61.65652777395061" lon="6.132255558640943" id="-35436">
		<tag k="fixme" v="consider natural=peak for the most distinct mountains in the district" />
		<tag k="name" v="Blåfjellet" />
		<tag k="natural" v="hill" />
		<tag k="place" v="locality" />
		<tag k="ssr:stedsnr" v="70279" />
	</node>
	<node lat="61.849119448554426" lon="5.950091659677062" id="-35437">
		<tag k="name" v="Skjerdalssvora" />
		<tag k="ssr:stedsnr" v="70643" />
		<tag k="waterway" v="stream" />
	</node>
	<node lat="61.61180277879946" lon="6.352413894214846" id="-35438">
		<tag k="name" v="Vetledalen" />
		<tag k="natural" v="valley" />
		<tag k="place" v="locality" />
		<tag k="ssr:stedsnr" v="71029" />
	</node>
	<node lat="61.61949444427898" lon="6.390377777150239" id="-35439">
		<tag k="name" v="Raudskarnakken" />
		<tag k="natural" v="hill" />
		<tag k="place" v="locality" />
		<tag k="ssr:stedsnr" v="71031" />
	</node>
	<node lat="61.76306997517074" lon="6.131542409162114" id="-35440">
		<tag k="fixme" v="consider place=hamlet" />
		<tag k="name" v="Moane" />
		<tag k="place" v="farm" />
		<tag k="ssr:stedsnr" v="70770" />
	</node>
	<node lat="61.765183330128295" lon="6.278741659266616" id="-35441">
		<tag k="name" v="Røsskleivdalen" />
		<tag k="natural" v="valley" />
		<tag k="place" v="locality" />
		<tag k="ssr:stedsnr" v="71206" />
	</node>
	<node lat="61.6980750036875" lon="6.556733335172248" id="-35442">
		<tag k="name" v="Strandastøylen" />
		<tag k="place" v="locality" />
		<tag k="ssr:stedsnr" v="71071" />
	</node>
	<node lat="61.797402774754936" lon="6.244594451905988" id="-35443">
		<tag k="historic" v="shieling" />
		<tag k="name" v="Bergsstøylen" />
		<tag k="place" v="isolated_dwelling" />
		<tag k="ssr:stedsnr" v="71073" />
	</node>
	<node lat="61.69614079789733" lon="6.529513019693651" id="-35444">
		<tag k="fixme" v="consider place=hamlet" />
		<tag k="name" v="Gåsemyr" />
		<tag k="place" v="farm" />
		<tag k="ssr:stedsnr" v="71077" />
	</node>
	<node lat="61.76204444305767" lon="6.50386944004414" id="-35445">
		<tag k="name" v="Svoda" />
		<tag k="place" v="isolated_dwelling" />
		<tag k="ssr:stedsnr" v="71180" />
	</node>
	<node lat="61.67352500060531" lon="6.115213881801981" id="-35446">
		<tag k="alt_name" v="Smørauga" />
		<tag k="name" v="Smørauget" />
		<tag k="natural" v="hill" />
		<tag k="place" v="locality" />
		<tag k="ssr:stedsnr" v="71324" />
	</node>
	<node lat="61.7222583291166" lon="6.205266676236814" id="-35447">
		<tag k="fixme" v="consider natural=peak for the most distinct mountains in the district" />
		<tag k="name" v="Heia" />
		<tag k="natural" v="hill" />
		<tag k="place" v="locality" />
		<tag k="ssr:stedsnr" v="71407" />
	</node>
	<node lat="61.67629444276548" lon="5.694694439854909" id="-35448">
		<tag k="name" v="Storevasskaret" />
		<tag k="natural" v="valley" />
		<tag k="place" v="locality" />
		<tag k="ssr:stedsnr" v="80739" />
	</node>
	<node lat="61.70823888554994" lon="5.811941664411389" id="-35449">
		<tag k="name" v="Osefossen" />
		<tag k="natural" v="waterfall" />
		<tag k="ssr:stedsnr" v="80741" />
	</node>
	<node lat="61.66625833397391" lon="5.8124361143613195" id="-35450">
		<tag k="name" v="Gytta" />
		<tag k="ssr:stedsnr" v="80744" />
		<tag k="waterway" v="stream" />
	</node>
	<node lat="61.75954999899191" lon="6.374311117326614" id="-35451">
		<tag k="name" v="Kålsmyrane" />
		<tag k="natural" v="wetland" />
		<tag k="ssr:stedsnr" v="88571" />
	</node>
	<node lat="61.72383888933202" lon="5.907369439292416" id="-35452">
		<tag k="fixme" v="consider natural=peak for the most distinct mountains in the district" />
		<tag k="name" v="Laksegardfjellet" />
		<tag k="natural" v="hill" />
		<tag k="place" v="locality" />
		<tag k="ssr:stedsnr" v="93215" />
	</node>
	<node lat="61.707786111505136" lon="5.918188880864066" id="-35453">
		<tag k="name" v="Olarinden" />
		<tag k="natural" v="cliff" />
		<tag k="ssr:stedsnr" v="93223" />
	</node>
	<node lat="61.65848889042409" lon="5.947322227942969" id="-35454">
		<tag k="name" v="Gjengedalsfossen" />
		<tag k="natural" v="waterfall" />
		<tag k="ssr:stedsnr" v="93267" />
	</node>
	<node lat="61.68798055135687" lon="5.848188896901" id="-35455">
		<tag k="name" v="Øyrane" />
		<tag k="place" v="locality" />
		<tag k="ssr:stedsnr" v="93276" />
	</node>
	<node lat="61.69689166791394" lon="5.852975005573359" id="-35456">
		<tag k="name" v="Gjesdalen" />
		<tag k="natural" v="valley" />
		<tag k="place" v="locality" />
		<tag k="ssr:stedsnr" v="93281" />
	</node>
	<node lat="61.66508333723008" lon="6.006322222632295" id="-35457">
		<tag k="name" v="Bogane" />
		<tag k="natural" v="slope" />
		<tag k="place" v="locality" />
		<tag k="ssr:stedsnr" v="93416" />
	</node>
	<node lat="61.82927777477572" lon="5.977086103485819" id="-35458">
		<tag k="name" v="Svinehagen" />
		<tag k="place" v="locality" />
		<tag k="ssr:stedsnr" v="93427" />
	</node>
	<node lat="61.83228055755561" lon="6.009755551707757" id="-35459">
		<tag k="fixme" v="consider natural=peak for the most distinct mountains in the district" />
		<tag k="name" v="Stølsnakken" />
		<tag k="natural" v="hill" />
		<tag k="place" v="locality" />
		<tag k="ssr:stedsnr" v="93325" />
	</node>
	<node lat="61.642602774218794" lon="6.023466661115035" id="-35460">
		<tag k="name" v="Middagsdalen" />
		<tag k="natural" v="valley" />
		<tag k="place" v="locality" />
		<tag k="ssr:stedsnr" v="93373" />
	</node>
	<node lat="61.62374444760406" lon="5.817600005499399" id="-35461">
		<tag k="name" v="Gamle Kvanngrø" />
		<tag k="place" v="locality" />
		<tag k="ssr:stedsnr" v="93566" />
	</node>
	<node lat="61.65936111040579" lon="5.920636109641525" id="-35462">
		<tag k="name" v="Moldskarhaugen" />
		<tag k="natural" v="hill" />
		<tag k="place" v="locality" />
		<tag k="ssr:stedsnr" v="93578" />
	</node>
	<node lat="61.708430552890405" lon="5.790936105333982" id="-35463">
		<tag k="name" v="Halvrø" />
		<tag k="place" v="locality" />
		<tag k="ssr:stedsnr" v="93584" />
	</node>
	<node lat="61.71477222420664" lon="5.78705833669949" id="-35464">
		<tag k="name" v="Krokane" />
		<tag k="natural" v="hill" />
		<tag k="place" v="locality" />
		<tag k="ssr:stedsnr" v="93585" />
	</node>
	<node lat="61.71480277810199" lon="5.792802771123196" id="-35465">
		<tag k="name" v="Heilia" />
		<tag k="natural" v="slope" />
		<tag k="place" v="locality" />
		<tag k="ssr:stedsnr" v="93586" />
	</node>
	<node lat="61.73844444645345" lon="5.785044449260481" id="-35466">
		<tag k="fixme" v="consider natural=peak for the most distinct mountains in the district" />
		<tag k="name" v="Heifjellet" />
		<tag k="natural" v="hill" />
		<tag k="place" v="locality" />
		<tag k="ssr:stedsnr" v="93605" />
	</node>
	<node lat="61.67835555573747" lon="5.770219444275463" id="-35467">
		<tag k="name" v="Blåkinna" />
		<tag k="natural" v="hill" />
		<tag k="place" v="locality" />
		<tag k="ssr:stedsnr" v="93621" />
	</node>
	<node lat="61.675663893096285" lon="5.6980722261171834" id="-35468">
		<tag k="name" v="Storevasskaret" />
		<tag k="natural" v="valley" />
		<tag k="place" v="locality" />
		<tag k="ssr:stedsnr" v="93627" />
	</node>
	<node lat="61.65813611460284" lon="5.771494445419553" id="-35469">
		<tag k="name" v="Svoramyra" />
		<tag k="natural" v="wetland" />
		<tag k="ssr:stedsnr" v="93672" />
	</node>
	<node lat="61.645127775808916" lon="5.699647224055024" id="-35470">
		<tag k="historic" v="shieling" />
		<tag k="name" v="Reidarognen" />
		<tag k="place" v="isolated_dwelling" />
		<tag k="ssr:stedsnr" v="93678" />
	</node>
	<node lat="61.64359722243791" lon="5.741486116078642" id="-35471">
		<tag k="name" v="Stegane" />
		<tag k="natural" v="hill" />
		<tag k="place" v="locality" />
		<tag k="ssr:stedsnr" v="93682" />
	</node>
	<node lat="61.764905553609196" lon="6.163166665317131" id="-35472">
		<tag k="name" v="Veirevalsen" />
		<tag k="place" v="locality" />
		<tag k="ssr:stedsnr" v="94006" />
	</node>
	<node lat="61.8311222178428" lon="6.104869436548317" id="-35473">
		<tag k="fixme" v="consider natural=peak for the most distinct mountains in the district" />
		<tag k="name" v="Høgeberget" />
		<tag k="natural" v="hill" />
		<tag k="place" v="locality" />
		<tag k="ssr:stedsnr" v="94014" />
	</node>
	<node lat="61.76383889024522" lon="6.122836119552527" id="-35474">
		<tag k="name" v="Kvernhushaugen" />
		<tag k="natural" v="hill" />
		<tag k="place" v="locality" />
		<tag k="ssr:stedsnr" v="94016" />
	</node>
	<node lat="61.68310833356392" lon="6.11517222786287" id="-35475">
		<tag k="name" v="Måsevassøyna" />
		<tag k="natural" v="wetland" />
		<tag k="ssr:stedsnr" v="94112" />
	</node>
	<node lat="61.736738888410606" lon="6.0562194368472" id="-35476">
		<tag k="name" v="Reset" />
		<tag k="place" v="locality" />
		<tag k="ssr:stedsnr" v="94119" />
	</node>
	<node lat="61.703388888807396" lon="6.378900001204849" id="-35477">
		<tag k="name" v="Friarvika" />
		<tag k="natural" v="bay" />
		<tag k="ssr:stedsnr" v="94173" />
	</node>
	<node lat="61.688827774818904" lon="6.373236105770185" id="-35478">
		<tag k="name" v="Rabben" />
		<tag k="place" v="farm" />
		<tag k="ssr:stedsnr" v="94175" />
	</node>
	<node lat="61.69232778185476" lon="6.365155563119023" id="-35479">
		<tag k="name" v="Kandalshaugen" />
		<tag k="natural" v="hill" />
		<tag k="place" v="locality" />
		<tag k="ssr:stedsnr" v="94176" />
	</node>
	<node lat="61.7263972227783" lon="6.300680555350143" id="-35480">
		<tag k="historic" v="shieling" />
		<tag k="name" v="Systølen" />
		<tag k="place" v="isolated_dwelling" />
		<tag k="ssr:stedsnr" v="94205" />
	</node>
	<node lat="61.65825000245749" lon="6.4050166708450655" id="-35481">
		<tag k="name" v="Steinskreda" />
		<tag k="natural" v="scree" />
		<tag k="ssr:stedsnr" v="94274" />
	</node>
	<node lat="61.69475555714028" lon="6.116091668544602" id="-35482">
		<tag k="name" v="Berga" />
		<tag k="natural" v="hill" />
		<tag k="place" v="locality" />
		<tag k="ssr:stedsnr" v="94503" />
	</node>
	<node lat="61.84152777408439" lon="6.034319449745576" id="-35483">
		<tag k="name" v="Eikarnakken" />
		<tag k="natural" v="hill" />
		<tag k="place" v="locality" />
		<tag k="ssr:stedsnr" v="94511" />
	</node>
	<node lat="61.735511110909734" lon="6.465411119549781" id="-35484">
		<tag k="name" v="Breihaugen" />
		<tag k="natural" v="hill" />
		<tag k="place" v="locality" />
		<tag k="ssr:stedsnr" v="94804" />
	</node>
	<node lat="61.74269444850132" lon="6.4480777684532855" id="-35485">
		<tag k="name" v="Skrøppahaugen" />
		<tag k="natural" v="hill" />
		<tag k="place" v="locality" />
		<tag k="ssr:stedsnr" v="94813" />
	</node>
	<node lat="61.75691111156795" lon="6.306780558869167" id="-35486">
		<tag k="name" v="Stordagsletten" />
		<tag k="place" v="locality" />
		<tag k="ssr:stedsnr" v="94829" />
	</node>
	<node lat="61.69103611549827" lon="6.419336116963305" id="-35487">
		<tag k="name" v="Vesleandersslåttene" />
		<tag k="place" v="locality" />
		<tag k="ssr:stedsnr" v="94835" />
	</node>
	<node lat="61.654152776117996" lon="6.521955557100911" id="-35488">
		<tag k="fixme" v="consider natural=peak for the most distinct mountains in the district" />
		<tag k="name" v="Alskorane" />
		<tag k="natural" v="hill" />
		<tag k="place" v="locality" />
		<tag k="ssr:stedsnr" v="94839" />
	</node>
	<node lat="61.610116666273875" lon="5.671136112893061" id="-35489">
		<tag k="name" v="Sørevikskaret" />
		<tag k="natural" v="valley" />
		<tag k="place" v="locality" />
		<tag k="ssr:stedsnr" v="94913" />
	</node>
	<node lat="61.71763611041978" lon="6.618605558048635" id="-35490">
		<tag k="name" v="Yste Svoragrova" />
		<tag k="ssr:stedsnr" v="94915" />
		<tag k="waterway" v="stream" />
	</node>
	<node lat="61.739333332462515" lon="6.561741665975061" id="-35491">
		<tag k="name" v="Tjørnaholmen" />
		<tag k="natural" v="cape" />
		<tag k="ssr:stedsnr" v="94944" />
	</node>
	<node lat="61.73935833475204" lon="6.542183340307745" id="-35492">
		<tag k="name" v="Sameigna" />
		<tag k="ssr:stedsnr" v="94946" />
		<tag k="waterway" v="river" />
	</node>
	<node lat="61.72418610749775" lon="6.524708338558373" id="-35493">
		<tag k="name" v="Seljeflot" />
		<tag k="place" v="locality" />
		<tag k="ssr:stedsnr" v="94902" />
	</node>
	<node lat="61.737588890738785" lon="5.930847217200529" id="-35494">
		<tag k="name" v="Synhammaren" />
		<tag k="natural" v="hill" />
		<tag k="place" v="locality" />
		<tag k="ssr:stedsnr" v="100066" />
	</node>
	<node lat="61.73515555280522" lon="5.849005548178293" id="-35495">
		<tag k="name" v="Lyselva" />
		<tag k="ssr:stedsnr" v="251411" />
		<tag k="waterway" v="stream" />
	</node>
	<node lat="61.73736666450883" lon="5.9042333331233285" id="-35496">
		<tag k="name" v="Hopsvatnet" />
		<tag k="natural" v="water" />
		<tag k="ssr:stedsnr" v="251414" />
		<tag k="water" v="lake" />
	</node>
	<node lat="61.74527499557732" lon="6.063972222613469" id="-35497">
		<tag k="historic" v="shieling" />
		<tag k="name" v="Dalsbøen" />
		<tag k="place" v="isolated_dwelling" />
		<tag k="ssr:stedsnr" v="251417" />
	</node>
	<node lat="61.70698055907566" lon="5.841469434946933" id="-35498">
		<tag k="fixme" v="consider natural=peak for the most distinct mountains in the district" />
		<tag k="name" v="Blåfjellet" />
		<tag k="natural" v="hill" />
		<tag k="place" v="locality" />
		<tag k="ssr:stedsnr" v="251688" />
	</node>
	<node lat="61.71556111007816" lon="5.672183342018783" id="-35499">
		<tag k="name" v="Trongedalen" />
		<tag k="natural" v="valley" />
		<tag k="place" v="locality" />
		<tag k="ssr:stedsnr" v="251672" />
	</node>
	<node lat="61.720002775847576" lon="5.733966673132739" id="-35500">
		<tag k="name" v="Straumsbotnen" />
		<tag k="natural" v="valley" />
		<tag k="place" v="locality" />
		<tag k="ssr:stedsnr" v="251682" />
	</node>
	<node lat="61.687600001419796" lon="5.788919445814251" id="-35501">
		<tag k="name" v="Slåttestøylsvatnet" />
		<tag k="natural" v="water" />
		<tag k="ssr:stedsnr" v="251702" />
	</node>
	<node lat="61.679024998753725" lon="5.792950000052993" id="-35502">
		<tag k="name" v="Skogheim" />
		<tag k="place" v="farm" />
		<tag k="ssr:stedsnr" v="251710" />
	</node>
	<node lat="61.66536111134433" lon="5.732847219752604" id="-35503">
		<tag k="alt_name" v="Storevasshogen" />
		<tag k="name" v="Storevasshaugen" />
		<tag k="place" v="isolated_dwelling" />
		<tag k="ssr:stedsnr" v="251718" />
	</node>
	<node lat="61.61885000365824" lon="5.731050005340732" id="-35504">
		<tag k="name" v="Bjørkeneset" />
		<tag k="natural" v="cape" />
		<tag k="ssr:stedsnr" v="251761" />
	</node>
	<node lat="61.79749722290655" lon="6.318183338325441" id="-35505">
		<tag k="fixme" v="consider natural=peak for the most distinct mountains in the district" />
		<tag k="name" v="Svinestranda" />
		<tag k="natural" v="hill" />
		<tag k="place" v="locality" />
		<tag k="ssr:stedsnr" v="252085" />
	</node>
	<node lat="61.8347000023314" lon="6.252827771628938" id="-35506">
		<tag k="name" v="Grønlielva" />
		<tag k="ssr:stedsnr" v="252093" />
		<tag k="waterway" v="stream" />
	</node>
	<node lat="61.66721110851846" lon="6.498300000207922" id="-35507">
		<tag k="name" v="Lågeskaret" />
		<tag k="natural" v="valley" />
		<tag k="place" v="locality" />
		<tag k="ssr:stedsnr" v="252060" />
	</node>
	<node lat="61.67034444487559" lon="6.428161104148612" id="-35508">
		<tag k="fixme" v="consider place=hamlet" />
		<tag k="name" v="Årdal" />
		<tag k="place" v="village" />
		<tag k="ssr:stedsnr" v="252061" />
	</node>
	<node lat="61.75840277498808" lon="6.292002774912408" id="-35509">
		<tag k="fixme" v="consider natural=peak for the most distinct mountains in the district" />
		<tag k="name" v="Veten" />
		<tag k="natural" v="hill" />
		<tag k="place" v="locality" />
		<tag k="ssr:stedsnr" v="252102" />
	</node>
	<node lat="61.66904444398867" lon="6.1194694356301165" id="-35510">
		<tag k="fixme" v="consider natural=peak for the most distinct mountains in the district" />
		<tag k="name" v="Rantane" />
		<tag k="natural" v="hill" />
		<tag k="place" v="locality" />
		<tag k="ssr:stedsnr" v="252260" />
	</node>
	<node lat="61.64791944160346" lon="6.055188880741432" id="-35511">
		<tag k="name" v="Tverrelva" />
		<tag k="ssr:stedsnr" v="252270" />
		<tag k="waterway" v="stream" />
	</node>
	<node lat="61.64062777414796" lon="5.917163883468344" id="-35512">
		<tag k="alt_name" v="Rauhamrane" />
		<tag k="name" v="Raudhamrane" />
		<tag k="natural" v="hill" />
		<tag k="place" v="locality" />
		<tag k="ssr:stedsnr" v="252273" />
	</node>
	<node lat="61.65290277941749" lon="6.031372225711541" id="-35513">
		<tag k="fixme" v="consider natural=peak for the most distinct mountains in the district" />
		<tag k="name" v="Slettelvehamrane" />
		<tag k="natural" v="hill" />
		<tag k="place" v="locality" />
		<tag k="ssr:stedsnr" v="252277" />
	</node>
	<node lat="61.65150833596247" lon="5.906747223371498" id="-35514">
		<tag k="fixme" v="consider natural=peak for the most distinct mountains in the district" />
		<tag k="name" v="Holtane" />
		<tag k="natural" v="hill" />
		<tag k="place" v="locality" />
		<tag k="ssr:stedsnr" v="252288" />
	</node>
	<node lat="61.72731388722017" lon="5.86693055752085" id="-35515">
		<tag k="alt_name" v="Nonstua" />
		<tag k="name" v="Nonstuva" />
		<tag k="natural" v="hill" />
		<tag k="place" v="locality" />
		<tag k="ssr:stedsnr" v="252319" />
	</node>
	<node lat="61.723716671210724" lon="6.056177779112694" id="-35516">
		<tag k="name" v="Raudeholten" />
		<tag k="place" v="locality" />
		<tag k="ssr:stedsnr" v="252321" />
	</node>
	<node lat="61.73873055856296" lon="6.100513884788776" id="-35517">
		<tag k="name" v="Kyrrdalsvatna" />
		<tag k="natural" v="water" />
		<tag k="ssr:stedsnr" v="252329" />
		<tag k="water" v="lake" />
	</node>
	<node lat="61.74306666380894" lon="6.087677784914963" id="-35518">
		<tag k="name" v="Botnen" />
		<tag k="natural" v="valley" />
		<tag k="place" v="locality" />
		<tag k="ssr:stedsnr" v="129402" />
	</node>
	<node lat="61.74751666429157" lon="5.945380549962575" id="-35519">
		<tag k="name" v="Fureholmen" />
		<tag k="place" v="farm" />
		<tag k="ssr:stedsnr" v="129389" />
	</node>
	<node lat="61.653938885780946" lon="5.930158327537238" id="-35520">
		<tag k="fixme" v="consider natural=peak for the most distinct mountains in the district" />
		<tag k="name" v="Mjelleimsegga" />
		<tag k="natural" v="hill" />
		<tag k="place" v="locality" />
		<tag k="ssr:stedsnr" v="130275" />
	</node>
	<node lat="61.69566388938879" lon="6.648244447182235" id="-35521">
		<tag k="fixme" v="consider natural=peak for the most distinct mountains in the district" />
		<tag k="name" v="Dauremålet" />
		<tag k="natural" v="hill" />
		<tag k="place" v="locality" />
		<tag k="ssr:stedsnr" v="130906" />
	</node>
	<node lat="61.71913888497477" lon="6.574950005661334" id="-35522">
		<tag k="fixme" v="consider natural=peak for the most distinct mountains in the district" />
		<tag k="name" v="Vora" />
		<tag k="natural" v="hill" />
		<tag k="place" v="locality" />
		<tag k="ssr:stedsnr" v="131105" />
	</node>
	<node lat="61.72578333437252" lon="6.52323332942602" id="-35523">
		<tag k="alt_name" v="Bjørkelo" />
		<tag k="name" v="Åland" />
		<tag k="place" v="farm" />
		<tag k="ssr:stedsnr" v="131111" />
	</node>
	<node lat="61.73356131614257" lon="6.422234857852333" id="-35524">
		<tag k="fixme" v="consider place=hamlet" />
		<tag k="name" v="Råd" />
		<tag k="place" v="farm" />
		<tag k="ssr:stedsnr" v="131114" />
	</node>
	<node lat="61.73580946080516" lon="6.430834414374023" id="-35525">
		<tag k="fixme" v="consider place=hamlet" />
		<tag k="name" v="Joranger" />
		<tag k="place" v="farm" />
		<tag k="ssr:stedsnr" v="131115" />
	</node>
	<node lat="61.73921123223211" lon="6.4978846570444055" id="-35526">
		<tag k="fixme" v="consider place=hamlet" />
		<tag k="name" v="Kleppe" />
		<tag k="place" v="farm" />
		<tag k="ssr:stedsnr" v="131116" />
	</node>
	<node lat="61.73845000235901" lon="6.53058888355745" id="-35527">
		<tag k="name" v="Lonevatnet" />
		<tag k="natural" v="water" />
		<tag k="ssr:stedsnr" v="131120" />
	</node>
	<node lat="61.74038827887846" lon="6.468034028977128" id="-35528">
		<tag k="alt_name" v="Sætre øvre;Sætre nedre" />
		<tag k="fixme" v="consider place=hamlet" />
		<tag k="name" v="Sætre" />
		<tag k="place" v="farm" />
		<tag k="ssr:stedsnr" v="131123" />
	</node>
	<node lat="61.81873055106572" lon="6.22817221641464" id="-35529">
		<tag k="fixme" v="consider natural=peak for the most distinct mountains in the district" />
		<tag k="name" v="Haugsvarden" />
		<tag k="natural" v="hill" />
		<tag k="place" v="locality" />
		<tag k="ssr:stedsnr" v="131124" />
	</node>
	<node lat="61.77842777456396" lon="6.513311112503176" id="-35530">
		<tag k="name" v="Brekka" />
		<tag k="place" v="isolated_dwelling" />
		<tag k="ssr:stedsnr" v="131169" />
	</node>
	<node lat="61.76457499896932" lon="6.295686105532681" id="-35531">
		<tag k="name" v="Røsskleivvatnet" />
		<tag k="natural" v="water" />
		<tag k="ssr:stedsnr" v="131173" />
	</node>
	<node lat="61.77473611479384" lon="6.356236104413596" id="-35532">
		<tag k="name" v="Høgehaugen" />
		<tag k="natural" v="hill" />
		<tag k="place" v="locality" />
		<tag k="ssr:stedsnr" v="131174" />
	</node>
	<node lat="61.779233334428525" lon="6.348111102920805" id="-35533">
		<tag k="name" v="Fagredalen" />
		<tag k="natural" v="valley" />
		<tag k="place" v="locality" />
		<tag k="ssr:stedsnr" v="131176" />
	</node>
	<node lat="61.792652778252524" lon="6.714619448425241" id="-35534">
		<tag k="name" v="Blekkhuset" />
		<tag k="natural" v="water" />
		<tag k="ssr:stedsnr" v="131307" />
	</node>
	<node lat="61.78784444782055" lon="6.679619435199095" id="-35535">
		<tag k="name" v="Nørdrebotnen" />
		<tag k="natural" v="water" />
		<tag k="ssr:stedsnr" v="131314" />
	</node>
	<node lat="61.66724166775782" lon="5.874077772685153" id="-35536">
		<tag k="historic" v="shieling" />
		<tag k="name" v="Rongkleivstøylen" />
		<tag k="place" v="isolated_dwelling" />
		<tag k="ssr:stedsnr" v="131319" />
	</node>
	<node lat="61.67707777413539" lon="5.901994435655725" id="-35537">
		<tag k="name" v="Vesle Rongkleivvatnet" />
		<tag k="natural" v="water" />
		<tag k="ssr:stedsnr" v="131326" />
	</node>
	<node lat="61.67888611357047" lon="6.310577775130424" id="-35538">
		<tag k="name" v="Sørsendalen" />
		<tag k="natural" v="valley" />
		<tag k="place" v="locality" />
		<tag k="ssr:stedsnr" v="131072" />
	</node>
	<node lat="61.68711666237456" lon="6.559669451618431" id="-35539">
		<tag k="fixme" v="consider natural=peak for the most distinct mountains in the district" />
		<tag k="name" v="Daurmål" />
		<tag k="natural" v="hill" />
		<tag k="place" v="locality" />
		<tag k="ssr:stedsnr" v="131076" />
	</node>
	<node lat="61.683966668688505" lon="6.219224993080749" id="-35540">
		<tag k="fixme" v="consider natural=peak for the most distinct mountains in the district" />
		<tag k="name" v="Tverrfjellet" />
		<tag k="natural" v="hill" />
		<tag k="place" v="locality" />
		<tag k="ssr:stedsnr" v="131087" />
	</node>
	<node lat="61.70893473755792" lon="6.521058591064195" id="-35541">
		<tag k="fixme" v="consider place=hamlet" />
		<tag k="name" v="Hjelle" />
		<tag k="place" v="farm" />
		<tag k="ssr:stedsnr" v="131090" />
	</node>
	<node lat="61.78858610749861" lon="6.535711102171834" id="-35542">
		<tag k="name" v="Tverrelva" />
		<tag k="ssr:stedsnr" v="131209" />
		<tag k="waterway" v="stream" />
	</node>
	<node lat="61.67646666360395" lon="6.171730550163785" id="-35543">
		<tag k="name" v="Holtalega" />
		<tag k="place" v="locality" />
		<tag k="ssr:stedsnr" v="131279" />
	</node>
	<node lat="61.67840555669762" lon="6.094055555352091" id="-35544">
		<tag k="name" v="Storevika" />
		<tag k="natural" v="bay" />
		<tag k="ssr:stedsnr" v="131280" />
	</node>
	<node lat="61.838308331125205" lon="6.044794442026035" id="-35545">
		<tag k="name" v="Omnen" />
		<tag k="natural" v="valley" />
		<tag k="place" v="locality" />
		<tag k="ssr:stedsnr" v="252608" />
	</node>
	<node lat="61.84270000291095" lon="6.083358329284255" id="-35547">
		<tag k="fixme" v="consider natural=peak for the most distinct mountains in the district" />
		<tag k="name" v="Andåsen" />
		<tag k="natural" v="hill" />
		<tag k="place" v="locality" />
		<tag k="ssr:stedsnr" v="252616" />
	</node>
	<node lat="61.82384444117459" lon="6.033188886232267" id="-35548">
		<tag k="historic" v="shieling" />
		<tag k="name" v="Hestenesstøylen" />
		<tag k="place" v="isolated_dwelling" />
		<tag k="ssr:stedsnr" v="252641" />
	</node>
	<node lat="61.82877499590818" lon="6.156816657997816" id="-35549">
		<tag k="alt_name" v="Haugen" />
		<tag k="name" v="Bolberg" />
		<tag k="natural" v="hill" />
		<tag k="place" v="locality" />
		<tag k="ssr:stedsnr" v="252663" />
	</node>
	<node lat="61.83287221836595" lon="6.186802784223462" id="-35550">
		<tag k="name" v="Indrebø" />
		<tag k="place" v="farm" />
		<tag k="ssr:stedsnr" v="252665" />
	</node>
	<node lat="61.81706388526802" lon="6.05194722607311" id="-35551">
		<tag k="alt_name" v="Aksla" />
		<tag k="fixme" v="multiple name tags, choose one and add the other to alt_name; consider natural=peak for the most distinct mountains in the district" />
		<tag k="name" v="Nautefjellet;Akslene" />
		<tag k="natural" v="hill" />
		<tag k="place" v="locality" />
		<tag k="ssr:stedsnr" v="252672" />
	</node>
	<node lat="61.78371388780731" lon="6.184011119963811" id="-35552">
		<tag k="name" v="Døsen" />
		<tag k="place" v="farm" />
		<tag k="ssr:stedsnr" v="252712" />
	</node>
	<node lat="61.75058333592772" lon="6.042427771519762" id="-35553">
		<tag k="name" v="Veslevatnet" />
		<tag k="natural" v="water" />
		<tag k="ssr:stedsnr" v="131764" />
	</node>
	<node lat="61.765886113093785" lon="5.977413885545027" id="-35554">
		<tag k="name" v="Jonsoksvora" />
		<tag k="ssr:stedsnr" v="252714" />
		<tag k="waterway" v="stream" />
	</node>
	<node lat="61.75872222143602" lon="6.150861105586657" id="-35555">
		<tag k="name" v="Ospedalsmyra" />
		<tag k="natural" v="wetland" />
		<tag k="ssr:stedsnr" v="252729" />
	</node>
	<node lat="61.771889521414764" lon="6.1567306196891725" id="-35556">
		<tag k="alt_name" v="Gimmestad" />
		<tag k="amenity" v="place_of_worship" />
		<tag k="denomination" v="lutheran" />
		<tag k="name" v="Gimmestad kyrkje" />
		<tag k="old_name" v="Gjemmestad" />
		<tag k="religion" v="christian" />
		<tag k="ssr:stedsnr" v="252746" />
	</node>
	<node lat="61.749969445925515" lon="5.9467999907025915" id="-35557">
		<tag k="name" v="Gjerdvika" />
		<tag k="place" v="locality" />
		<tag k="ssr:stedsnr" v="252754" />
	</node>
	<node lat="61.75188797856192" lon="5.918869788626268" id="-35558">
		<tag k="name" v="Svarsåtelia" />
		<tag k="natural" v="slope" />
		<tag k="place" v="locality" />
		<tag k="ssr:stedsnr" v="252756" />
	</node>
	<node lat="61.76279167004638" lon="6.074341670252586" id="-35559">
		<tag k="name" v="Hestesteinen" />
		<tag k="natural" v="stone" />
		<tag k="ssr:stedsnr" v="252761" />
	</node>
	<node lat="61.727236108439676" lon="6.616191659086999" id="-35560">
		<tag k="name" v="Joelva" />
		<tag k="ssr:stedsnr" v="252877" />
		<tag k="waterway" v="stream" />
	</node>
	<node lat="61.72027777914855" lon="6.630280547612239" id="-35561">
		<tag k="name" v="Svoragrova" />
		<tag k="ssr:stedsnr" v="252885" />
		<tag k="waterway" v="stream" />
	</node>
	<node lat="61.693286108154716" lon="6.615033329828314" id="-35562">
		<tag k="name" v="Middagselva" />
		<tag k="ssr:stedsnr" v="252897" />
		<tag k="waterway" v="stream" />
	</node>
	<node lat="61.70027500225216" lon="6.587080556986746" id="-35563">
		<tag k="fixme" v="consider natural=peak for the most distinct mountains in the district" />
		<tag k="name" v="Styggefjellet" />
		<tag k="natural" v="hill" />
		<tag k="place" v="locality" />
		<tag k="ssr:stedsnr" v="253082" />
	</node>
	<node lat="61.69709166781673" lon="6.458652786450499" id="-35564">
		<tag k="fixme" v="consider natural=peak for the most distinct mountains in the district" />
		<tag k="name" v="Blåfjellet" />
		<tag k="natural" v="hill" />
		<tag k="place" v="locality" />
		<tag k="ssr:stedsnr" v="253090" />
	</node>
	<node lat="61.702080551519835" lon="6.428577771124132" id="-35565">
		<tag k="alt_name" v="Rådastølen;Seimsstøylen" />
		<tag k="historic" v="shieling" />
		<tag k="name" v="Rådastøylen" />
		<tag k="place" v="isolated_dwelling" />
		<tag k="ssr:stedsnr" v="253091" />
	</node>
	<node lat="61.69769166519386" lon="6.246724992254514" id="-35566">
		<tag k="name" v="Fagredalen" />
		<tag k="natural" v="valley" />
		<tag k="place" v="locality" />
		<tag k="ssr:stedsnr" v="253093" />
	</node>
	<node lat="61.75902777839849" lon="6.258377785488797" id="-35567">
		<tag k="alt_name" v="Jarbrugden" />
		<tag k="name" v="Jarbu" />
		<tag k="place" v="farm" />
		<tag k="ssr:stedsnr" v="253148" />
	</node>
	<node lat="61.758955616545286" lon="6.229595591365583" id="-35568">
		<tag k="fixme" v="consider place=hamlet" />
		<tag k="name" v="Søreide" />
		<tag k="place" v="farm" />
		<tag k="ssr:stedsnr" v="253151" />
	</node>
	<node lat="61.7595138869096" lon="6.242222228405517" id="-35569">
		<tag k="name" v="Leirbakken" />
		<tag k="place" v="farm" />
		<tag k="ssr:stedsnr" v="253154" />
	</node>
	<node lat="61.73890455945541" lon="6.399781414446757" id="-35570">
		<tag k="fixme" v="consider place=hamlet" />
		<tag k="name" v="Hetle" />
		<tag k="place" v="farm" />
		<tag k="ssr:stedsnr" v="253162" />
	</node>
	<node lat="61.74555000167869" lon="6.391874991015271" id="-35571">
		<tag k="name" v="Solheim" />
		<tag k="place" v="farm" />
		<tag k="ssr:stedsnr" v="253164" />
	</node>
	<node lat="61.70276110920891" lon="6.022983325909302" id="-35572">
		<tag k="name" v="Styggelivatnet" />
		<tag k="natural" v="water" />
		<tag k="ssr:stedsnr" v="253379" />
	</node>
	<node lat="61.82002499877753" lon="6.113125002547201" id="-35573">
		<tag k="name" v="Jørenvika" />
		<tag k="natural" v="bay" />
		<tag k="ssr:stedsnr" v="253698" />
	</node>
	<node lat="61.79110277852716" lon="6.193413887371924" id="-35574">
		<tag k="alt_name" v="Haugeli" />
		<tag k="name" v="Haugslia" />
		<tag k="place" v="farm" />
		<tag k="ssr:stedsnr" v="253768" />
	</node>
	<node lat="61.75790000039343" lon="5.9596416682370155" id="-35575">
		<tag k="name" v="Almen" />
		<tag k="natural" v="cape" />
		<tag k="ssr:stedsnr" v="253851" />
	</node>
	<node lat="61.81523055628572" lon="6.063811117462426" id="-35576">
		<tag k="name" v="Ramnegjølet" />
		<tag k="natural" v="valley" />
		<tag k="place" v="locality" />
		<tag k="ssr:stedsnr" v="141582" />
	</node>
	<node lat="61.80908888916093" lon="5.90679722424515" id="-35577">
		<tag k="name" v="Devonskaret" />
		<tag k="natural" v="valley" />
		<tag k="place" v="locality" />
		<tag k="ssr:stedsnr" v="141584" />
	</node>
	<node lat="61.7730972223442" lon="6.196791671148915" id="-35578">
		<tag k="name" v="Elvaneset" />
		<tag k="natural" v="cape" />
		<tag k="ssr:stedsnr" v="141587" />
	</node>
	<node lat="61.618494448266695" lon="5.696600007815111" id="-35579">
		<tag k="name" v="Vassendeholmen" />
		<tag k="place" v="islet" />
		<tag k="ssr:stedsnr" v="141690" />
	</node>
	<node lat="61.70265555139997" lon="5.817950008021067" id="-35580">
		<tag k="name" v="Bjørnebotnen" />
		<tag k="natural" v="valley" />
		<tag k="place" v="locality" />
		<tag k="ssr:stedsnr" v="141694" />
	</node>
	<node lat="61.73527500070683" lon="5.860127785769263" id="-35581">
		<tag k="name" v="Slettebakkane" />
		<tag k="natural" v="slope" />
		<tag k="place" v="locality" />
		<tag k="ssr:stedsnr" v="153364" />
	</node>
	<node lat="61.73398333727318" lon="5.8720027755878474" id="-35582">
		<tag k="name" v="Øyane" />
		<tag k="place" v="locality" />
		<tag k="ssr:stedsnr" v="153372" />
	</node>
	<node lat="61.820805554471086" lon="5.942766667748873" id="-35583">
		<tag k="historic" v="shieling" />
		<tag k="name" v="Gardstølen" />
		<tag k="place" v="isolated_dwelling" />
		<tag k="ssr:stedsnr" v="153382" />
	</node>
	<node lat="61.766780554613945" lon="5.941066675969659" id="-35584">
		<tag k="name" v="Teinegrova" />
		<tag k="ssr:stedsnr" v="153502" />
		<tag k="waterway" v="stream" />
	</node>
	<node lat="61.610691667284364" lon="5.735891669066979" id="-35585">
		<tag k="name" v="Vassenderyggen" />
		<tag k="natural" v="ridge" />
		<tag k="place" v="locality" />
		<tag k="ssr:stedsnr" v="153511" />
	</node>
	<node lat="61.662530555422656" lon="5.682530552427105" id="-35586">
		<tag k="name" v="Greftene" />
		<tag k="place" v="locality" />
		<tag k="ssr:stedsnr" v="153512" />
	</node>
	<node lat="61.65550555783959" lon="6.045630549815928" id="-35587">
		<tag k="name" v="Trengslene" />
		<tag k="place" v="locality" />
		<tag k="ssr:stedsnr" v="153455" />
	</node>
	<node lat="61.694261111303646" lon="5.93173889232072" id="-35588">
		<tag k="name" v="Godsvorhammaren" />
		<tag k="natural" v="hill" />
		<tag k="place" v="locality" />
		<tag k="ssr:stedsnr" v="153462" />
	</node>
	<node lat="61.64067499876987" lon="6.011411104729066" id="-35589">
		<tag k="name" v="Maristeinen" />
		<tag k="natural" v="stone" />
		<tag k="ssr:stedsnr" v="153468" />
	</node>
	<node lat="61.67138889156169" lon="5.8001583300598725" id="-35590">
		<tag k="fixme" v="consider natural=peak for the most distinct mountains in the district" />
		<tag k="name" v="Espesetåsen" />
		<tag k="natural" v="hill" />
		<tag k="place" v="locality" />
		<tag k="ssr:stedsnr" v="153705" />
	</node>
	<node lat="61.6787000000765" lon="5.796580564194101" id="-35591">
		<tag k="name" v="Heimeelva" />
		<tag k="ssr:stedsnr" v="153706" />
		<tag k="waterway" v="river" />
	</node>
	<node lat="61.67836944874449" lon="5.798025007021026" id="-35592">
		<tag k="name" v="Neskvia" />
		<tag k="place" v="locality" />
		<tag k="ssr:stedsnr" v="153707" />
	</node>
	<node lat="61.68054166234459" lon="5.693580553716829" id="-35593">
		<tag k="fixme" v="consider natural=peak for the most distinct mountains in the district" />
		<tag k="name" v="Hestefjellet" />
		<tag k="natural" v="hill" />
		<tag k="place" v="locality" />
		<tag k="ssr:stedsnr" v="153712" />
	</node>
	<node lat="61.660825002295" lon="5.77745833390059" id="-35594">
		<tag k="name" v="Nordvikane" />
		<tag k="natural" v="bay" />
		<tag k="ssr:stedsnr" v="153752" />
	</node>
	<node lat="61.64219999756795" lon="5.727738885294024" id="-35595">
		<tag k="name" v="Merkeelva" />
		<tag k="ssr:stedsnr" v="153760" />
		<tag k="waterway" v="stream" />
	</node>
	<node lat="61.611372224716966" lon="5.781852768464973" id="-35596">
		<tag k="fixme" v="consider natural=peak for the most distinct mountains in the district" />
		<tag k="name" v="Smylmedalsegga" />
		<tag k="natural" v="hill" />
		<tag k="place" v="locality" />
		<tag k="ssr:stedsnr" v="153766" />
	</node>
	<node lat="61.62072222650259" lon="5.850191660063497" id="-35597">
		<tag k="name" v="Vintragjelet" />
		<tag k="natural" v="valley" />
		<tag k="place" v="locality" />
		<tag k="ssr:stedsnr" v="153655" />
	</node>
	<node lat="61.63341944082254" lon="5.837011111903542" id="-35598">
		<tag k="name" v="Lykkjebardane" />
		<tag k="place" v="locality" />
		<tag k="ssr:stedsnr" v="153658" />
	</node>
	<node lat="61.81627499824222" lon="6.060641669236217" id="-35599">
		<tag k="name" v="Ramnegjølet" />
		<tag k="natural" v="gorge" />
		<tag k="ssr:stedsnr" v="154007" />
	</node>
	<node lat="61.84413888502743" lon="6.28176945422085" id="-35600">
		<tag k="name" v="Brattebakken" />
		<tag k="natural" v="slope" />
		<tag k="place" v="locality" />
		<tag k="ssr:stedsnr" v="154152" />
	</node>
	<node lat="61.66787777420955" lon="6.3870777718201674" id="-35601">
		<tag k="name" v="Vetleneset" />
		<tag k="natural" v="cape" />
		<tag k="ssr:stedsnr" v="154167" />
	</node>
	<node lat="61.65517499588514" lon="6.403986112843379" id="-35602">
		<tag k="fixme" v="consider natural=peak for the most distinct mountains in the district" />
		<tag k="name" v="Bjørnanakken" />
		<tag k="natural" v="hill" />
		<tag k="place" v="locality" />
		<tag k="ssr:stedsnr" v="154305" />
	</node>
	<node lat="61.805502782056436" lon="6.063786105584915" id="-35603">
		<tag k="name" v="Korsbakkmyra" />
		<tag k="natural" v="wetland" />
		<tag k="ssr:stedsnr" v="154056" />
	</node>
	<node lat="61.8010055581368" lon="6.057994445594448" id="-35604">
		<tag k="fixme" v="consider natural=peak for the most distinct mountains in the district" />
		<tag k="name" v="Tempelen" />
		<tag k="natural" v="hill" />
		<tag k="place" v="locality" />
		<tag k="ssr:stedsnr" v="154057" />
	</node>
	<node lat="61.79665833576537" lon="6.086066657381988" id="-35605">
		<tag k="fixme" v="consider natural=peak for the most distinct mountains in the district" />
		<tag k="name" v="Skorgefjellet" />
		<tag k="natural" v="hill" />
		<tag k="place" v="locality" />
		<tag k="ssr:stedsnr" v="154060" />
	</node>
	<node lat="61.79390555409585" lon="6.100005553852913" id="-35606">
		<tag k="name" v="Frua" />
		<tag k="place" v="locality" />
		<tag k="ssr:stedsnr" v="154062" />
	</node>
	<node lat="61.755288891228474" lon="6.317497225418043" id="-35607">
		<tag k="name" v="Sandvika" />
		<tag k="natural" v="bay" />
		<tag k="ssr:stedsnr" v="154203" />
	</node>
	<node lat="61.758719441719926" lon="6.323074992987665" id="-35608">
		<tag k="name" v="Kyrkjeteigen" />
		<tag k="natural" v="hill" />
		<tag k="place" v="locality" />
		<tag k="ssr:stedsnr" v="154210" />
	</node>
	<node lat="61.722011108774325" lon="6.4024527737202845" id="-35609">
		<tag k="name" v="Varden" />
		<tag k="natural" v="cape" />
		<tag k="ssr:stedsnr" v="154220" />
	</node>
	<node lat="61.67655277674505" lon="6.166172229617308" id="-35610">
		<tag k="name" v="Blåurbotnen" />
		<tag k="natural" v="valley" />
		<tag k="place" v="locality" />
		<tag k="ssr:stedsnr" v="154101" />
	</node>
	<node lat="61.656411109154654" lon="6.082138892821685" id="-35611">
		<tag k="fixme" v="consider natural=peak for the most distinct mountains in the district" />
		<tag k="name" v="Resholten" />
		<tag k="natural" v="hill" />
		<tag k="place" v="locality" />
		<tag k="ssr:stedsnr" v="154504" />
	</node>
	<node lat="61.8376138922991" lon="6.016758327288537" id="-35612">
		<tag k="name" v="Haugane" />
		<tag k="natural" v="hill" />
		<tag k="place" v="locality" />
		<tag k="ssr:stedsnr" v="154508" />
	</node>
	<node lat="61.76505555765247" lon="6.481352778008329" id="-35613">
		<tag k="name" v="Holeleitet" />
		<tag k="place" v="locality" />
		<tag k="ssr:stedsnr" v="154851" />
	</node>
	<node lat="61.75737221983301" lon="6.483988892047581" id="-35614">
		<tag k="name" v="Furehaugen" />
		<tag k="natural" v="hill" />
		<tag k="place" v="locality" />
		<tag k="ssr:stedsnr" v="154852" />
	</node>
	<node lat="61.750116668127944" lon="6.487166662368404" id="-35615">
		<tag k="name" v="Kviavollen" />
		<tag k="natural" v="slope" />
		<tag k="place" v="locality" />
		<tag k="ssr:stedsnr" v="154854" />
	</node>
	<node lat="61.751708330762966" lon="6.493202774368435" id="-35616">
		<tag k="name" v="Svehaugen" />
		<tag k="natural" v="slope" />
		<tag k="place" v="locality" />
		<tag k="ssr:stedsnr" v="154857" />
	</node>
	<node lat="61.72549722326828" lon="6.444461119297571" id="-35617">
		<tag k="name" v="Tungebakkgrova" />
		<tag k="ssr:stedsnr" v="154863" />
		<tag k="waterway" v="stream" />
	</node>
	<node lat="61.73392222322385" lon="6.513322227551972" id="-35618">
		<tag k="name" v="Furehaugane" />
		<tag k="natural" v="hill" />
		<tag k="place" v="locality" />
		<tag k="ssr:stedsnr" v="154865" />
	</node>
	<node lat="61.7139583297825" lon="6.61943333005779" id="-35619">
		<tag k="name" v="Labakken" />
		<tag k="natural" v="slope" />
		<tag k="place" v="locality" />
		<tag k="ssr:stedsnr" v="154902" />
	</node>
	<node lat="61.755802773346" lon="6.320927770891646" id="-35620">
		<tag k="layer" v="-1" />
		<tag k="name" v="Breimsfjell I" />
		<tag k="ssr:stedsnr" v="165110" />
		<tag k="tunnel" v="yes" />
	</node>
	<node lat="61.69988888968037" lon="6.531758326402245" id="-35621">
		<tag k="bridge" v="yes" />
		<tag k="layer" v="1" />
		<tag k="name" v="Gåsemyr" />
		<tag k="ssr:stedsnr" v="169708" />
	</node>
	<node lat="61.72863333788833" lon="6.483638890695439" id="-35622">
		<tag k="bridge" v="yes" />
		<tag k="layer" v="1" />
		<tag k="name" v="Skarveelva" />
		<tag k="ssr:stedsnr" v="169716" />
	</node>
	<node lat="61.744152778658936" lon="6.49145833150123" id="-35623">
		<tag k="bridge" v="yes" />
		<tag k="layer" v="1" />
		<tag k="name" v="Moldestad" />
		<tag k="ssr:stedsnr" v="169720" />
	</node>
	<node lat="61.64738611119105" lon="5.7038861185248475" id="-35624">
		<tag k="historic" v="shieling" />
		<tag k="name" v="Reidarrognen" />
		<tag k="place" v="isolated_dwelling" />
		<tag k="ssr:stedsnr" v="262765" />
	</node>
	<node lat="61.74684167116743" lon="6.152333334742486" id="-35625">
		<tag k="fixme" v="consider natural=peak for the most distinct mountains in the district" />
		<tag k="name" v="Arnestadfjellet" />
		<tag k="natural" v="hill" />
		<tag k="place" v="locality" />
		<tag k="ssr:stedsnr" v="190412" />
	</node>
	<node lat="61.73491944430924" lon="5.876386104368967" id="-35626">
		<tag k="fixme" v="consider place=hamlet" />
		<tag k="name" v="Hope" />
		<tag k="place" v="village" />
		<tag k="ssr:stedsnr" v="190415" />
	</node>
	<node lat="61.73879722605926" lon="6.049377775833524" id="-35627">
		<tag k="name" v="Traudalen" />
		<tag k="natural" v="valley" />
		<tag k="place" v="locality" />
		<tag k="ssr:stedsnr" v="190416" />
	</node>
	<node lat="61.63878055622856" lon="6.028816659521084" id="-35628">
		<tag k="fixme" v="multiple name tags, choose one and add the other to alt_name; consider natural=peak for the most distinct mountains in the district" />
		<tag k="name" v="Åstøylsfjellet;Steinbottsegga" />
		<tag k="natural" v="hill" />
		<tag k="place" v="locality" />
		<tag k="ssr:stedsnr" v="191223" />
	</node>
	<node lat="61.64564166250273" lon="5.945147213445991" id="-35629">
		<tag k="name" v="Nobbedalsvatnet" />
		<tag k="natural" v="water" />
		<tag k="ssr:stedsnr" v="191253" />
	</node>
	<node lat="61.644811113552365" lon="5.8510722247380045" id="-35630">
		<tag k="fixme" v="consider natural=peak for the most distinct mountains in the district" />
		<tag k="name" v="Eggene" />
		<tag k="natural" v="hill" />
		<tag k="place" v="locality" />
		<tag k="ssr:stedsnr" v="191258" />
	</node>
	<node lat="61.64281944574658" lon="5.931108339808288" id="-35631">
		<tag k="name" v="Medalen" />
		<tag k="natural" v="valley" />
		<tag k="place" v="locality" />
		<tag k="ssr:stedsnr" v="191259" />
	</node>
	<node lat="61.653716666224064" lon="6.139166661073572" id="-35632">
		<tag k="alt_name" v="Blåvatnet, in" />
		<tag k="name" v="Inste Blåvatnet" />
		<tag k="natural" v="water" />
		<tag k="ssr:stedsnr" v="191260" />
	</node>
	<node lat="61.653300002944356" lon="6.109052772949325" id="-35633">
		<tag k="name" v="Dalelva" />
		<tag k="ssr:stedsnr" v="191262" />
		<tag k="waterway" v="stream" />
	</node>
	<node lat="61.65458888562193" lon="5.964516670328618" id="-35634">
		<tag k="historic" v="shieling" />
		<tag k="name" v="Skitnestøylen" />
		<tag k="place" v="isolated_dwelling" />
		<tag k="ssr:stedsnr" v="191267" />
	</node>
	<node lat="61.72458888696206" lon="6.626655546879789" id="-35635">
		<tag k="name" v="Spirefossa" />
		<tag k="ssr:stedsnr" v="191864" />
		<tag k="waterway" v="river" />
	</node>
	<node lat="61.661100004182714" lon="6.513969444841094" id="-35636">
		<tag k="historic" v="shieling" />
		<tag k="name" v="Stokkestøylen" />
		<tag k="place" v="isolated_dwelling" />
		<tag k="ssr:stedsnr" v="263512" />
	</node>
	<node lat="61.67597778143757" lon="5.821816668131607" id="-35637">
		<tag k="name" v="Storegjølet" />
		<tag k="natural" v="valley" />
		<tag k="place" v="locality" />
		<tag k="ssr:stedsnr" v="209403" />
	</node>
	<node lat="61.67962777606661" lon="5.902136104507075" id="-35638">
		<tag k="name" v="Strupen" />
		<tag k="natural" v="ridge" />
		<tag k="place" v="locality" />
		<tag k="ssr:stedsnr" v="214329" />
	</node>
	<node lat="61.832142463624116" lon="5.995860569940434" id="-35639">
		<tag k="name" v="Langenesvika" />
		<tag k="natural" v="bay" />
		<tag k="ssr:stedsnr" v="214390" />
	</node>
	<node lat="61.65471111128343" lon="5.977830556633052" id="-35640">
		<tag k="name" v="Høgeteinhaugen" />
		<tag k="natural" v="hill" />
		<tag k="place" v="locality" />
		<tag k="ssr:stedsnr" v="214281" />
	</node>
	<node lat="61.6548694474696" lon="5.9418361047144765" id="-35641">
		<tag k="name" v="Vesleforbakksteinen" />
		<tag k="natural" v="stone" />
		<tag k="ssr:stedsnr" v="214285" />
	</node>
	<node lat="61.686086113959156" lon="5.83610277785789" id="-35642">
		<tag k="name" v="Fureneset" />
		<tag k="natural" v="cape" />
		<tag k="ssr:stedsnr" v="214286" />
	</node>
	<node lat="61.651047225498004" lon="5.990102780747753" id="-35643">
		<tag k="name" v="Skarhaugen" />
		<tag k="natural" v="hill" />
		<tag k="place" v="locality" />
		<tag k="ssr:stedsnr" v="214435" />
	</node>
	<node lat="61.67154444072415" lon="5.7922999918254865" id="-35644">
		<tag k="name" v="Sundet" />
		<tag k="natural" v="strait" />
		<tag k="ssr:stedsnr" v="214710" />
	</node>
	<node lat="61.681936114556166" lon="5.758158323709649" id="-35645">
		<tag k="name" v="Betane" />
		<tag k="natural" v="hill" />
		<tag k="place" v="locality" />
		<tag k="ssr:stedsnr" v="214726" />
	</node>
	<node lat="61.70875832913417" lon="5.793741676371928" id="-35646">
		<tag k="name" v="Neset" />
		<tag k="place" v="locality" />
		<tag k="ssr:stedsnr" v="214691" />
	</node>
	<node lat="61.716944446993125" lon="5.788130545952901" id="-35647">
		<tag k="name" v="Storestien" />
		<tag k="natural" v="slope" />
		<tag k="place" v="locality" />
		<tag k="ssr:stedsnr" v="214694" />
	</node>
	<node lat="61.76354444232601" lon="6.142166659371047" id="-35648">
		<tag k="name" v="Leitingshaugen" />
		<tag k="natural" v="hill" />
		<tag k="place" v="locality" />
		<tag k="ssr:stedsnr" v="215004" />
	</node>
	<node lat="61.76708888726135" lon="6.145852779146841" id="-35649">
		<tag k="name" v="Nygeilane" />
		<tag k="place" v="locality" />
		<tag k="ssr:stedsnr" v="215005" />
	</node>
	<node lat="61.828622220731596" lon="6.113836118086122" id="-35650">
		<tag k="name" v="Langhylla" />
		<tag k="place" v="locality" />
		<tag k="ssr:stedsnr" v="215011" />
	</node>
	<node lat="61.755838886475274" lon="6.102611118674658" id="-35651">
		<tag k="name" v="Steffamyra" />
		<tag k="natural" v="wetland" />
		<tag k="ssr:stedsnr" v="215112" />
	</node>
	<node lat="61.783941665346106" lon="6.084588884049829" id="-35652">
		<tag k="name" v="Bulegene" />
		<tag k="place" v="locality" />
		<tag k="ssr:stedsnr" v="215129" />
	</node>
	<node lat="61.78092500386382" lon="6.066044449414325" id="-35653">
		<tag k="name" v="Skinsthaugen" />
		<tag k="natural" v="hill" />
		<tag k="place" v="locality" />
		<tag k="ssr:stedsnr" v="215130" />
	</node>
	<node lat="61.73018610789762" lon="6.156636110775699" id="-35654">
		<tag k="name" v="Smalekvigrova" />
		<tag k="ssr:stedsnr" v="215073" />
		<tag k="waterway" v="stream" />
	</node>
	<node lat="61.66759999875865" lon="6.0839722168546135" id="-35655">
		<tag k="name" v="Strandaskaret" />
		<tag k="natural" v="valley" />
		<tag k="place" v="locality" />
		<tag k="ssr:stedsnr" v="215090" />
	</node>
	<node lat="61.673097220334455" lon="6.130263890330249" id="-35656">
		<tag k="name" v="Rantebotn" />
		<tag k="natural" v="valley" />
		<tag k="place" v="locality" />
		<tag k="ssr:stedsnr" v="215093" />
	</node>
	<node lat="61.7440777793921" lon="6.304813891357858" id="-35657">
		<tag k="name" v="Røyfloten" />
		<tag k="place" v="locality" />
		<tag k="ssr:stedsnr" v="215206" />
	</node>
	<node lat="61.757200000907744" lon="6.177811115649481" id="-35658">
		<tag k="name" v="Nilsgjølgrova" />
		<tag k="ssr:stedsnr" v="215225" />
		<tag k="waterway" v="stream" />
	</node>
	<node lat="61.754049997024985" lon="6.223363881305784" id="-35659">
		<tag k="fixme" v="consider highway=path" />
		<tag k="highway" v="track" />
		<tag k="name" v="Jardalsvegen" />
		<tag k="ssr:stedsnr" v="215229" />
	</node>
	<node lat="61.82296667091292" lon="6.185350007184468" id="-35660">
		<tag k="name" v="Bjørndalen" />
		<tag k="natural" v="valley" />
		<tag k="place" v="locality" />
		<tag k="ssr:stedsnr" v="215284" />
	</node>
	<node lat="61.65214722028473" lon="6.073397215830663" id="-35661">
		<tag k="name" v="Nobbedalen" />
		<tag k="natural" v="valley" />
		<tag k="place" v="locality" />
		<tag k="ssr:stedsnr" v="215489" />
	</node>
	<node lat="61.65632221788199" lon="6.092599995548546" id="-35662">
		<tag k="name" v="Risbotnelva" />
		<tag k="ssr:stedsnr" v="215498" />
		<tag k="waterway" v="river" />
	</node>
	<node lat="61.73521110685335" lon="6.454452773480812" id="-35663">
		<tag k="name" v="Kapellangarden" />
		<tag k="place" v="farm" />
		<tag k="ssr:stedsnr" v="215802" />
	</node>
	<node lat="61.66318889104344" lon="6.5280166738053245" id="-35664">
		<tag k="name" v="Nibbegjølet" />
		<tag k="natural" v="gorge" />
		<tag k="ssr:stedsnr" v="215806" />
	</node>
	<node lat="61.76052777851341" lon="6.406433336960485" id="-35665">
		<tag k="name" v="Tverrabakkane" />
		<tag k="natural" v="slope" />
		<tag k="place" v="locality" />
		<tag k="ssr:stedsnr" v="215824" />
	</node>
	<node lat="61.75698333328746" lon="6.313547221761502" id="-35666">
		<tag k="name" v="Nedstealteret" />
		<tag k="natural" v="hill" />
		<tag k="place" v="locality" />
		<tag k="ssr:stedsnr" v="215826" />
	</node>
	<node lat="61.72416111459769" lon="6.5045194420003485" id="-35667">
		<tag k="name" v="Teitaøya" />
		<tag k="place" v="locality" />
		<tag k="ssr:stedsnr" v="215889" />
	</node>
	<node lat="61.708524999447285" lon="6.517991668350461" id="-35668">
		<tag k="name" v="Ospehaugane" />
		<tag k="natural" v="hill" />
		<tag k="place" v="locality" />
		<tag k="ssr:stedsnr" v="215892" />
	</node>
	<node lat="61.713294447943625" lon="6.505808333770114" id="-35669">
		<tag k="name" v="Svåragrova" />
		<tag k="ssr:stedsnr" v="215894" />
		<tag k="waterway" v="stream" />
	</node>
	<node lat="61.694177777094474" lon="6.522288886984757" id="-35670">
		<tag k="name" v="Gåsemyrfossen" />
		<tag k="natural" v="waterfall" />
		<tag k="ssr:stedsnr" v="215786" />
	</node>
	<node lat="61.61406666745411" lon="5.680211112494621" id="-35671">
		<tag k="name" v="Øyane" />
		<tag k="place" v="island" />
		<tag k="ssr:stedsnr" v="215905" />
	</node>
	<node lat="61.74308055874081" lon="6.552708336192127" id="-35672">
		<tag k="name" v="Løkane" />
		<tag k="place" v="locality" />
		<tag k="ssr:stedsnr" v="215922" />
	</node>
	<node lat="61.73339722662288" lon="5.916316669182016" id="-35673">
		<tag k="name" v="Åvågen" />
		<tag k="natural" v="bay" />
		<tag k="ssr:stedsnr" v="270810" />
	</node>
	<node lat="61.695208332077875" lon="6.369336111443135" id="-35675">
		<tag k="bridge" v="yes" />
		<tag k="layer" v="1" />
		<tag k="name" v="Kandal Ytre" />
		<tag k="ssr:stedsnr" v="229729" />
	</node>
	<node lat="61.75583888765041" lon="6.153852779379201" id="-35676">
		<tag k="fixme" v="consider natural=peak for the most distinct mountains in the district" />
		<tag k="name" v="Arnestadnakken" />
		<tag k="natural" v="hill" />
		<tag k="place" v="locality" />
		<tag k="ssr:stedsnr" v="452356" />
	</node>
	<node lat="61.750291664778416" lon="6.359941672052181" id="-35677">
		<tag k="name" v="Styggemarka" />
		<tag k="natural" v="slope" />
		<tag k="place" v="locality" />
		<tag k="ssr:stedsnr" v="452643" />
	</node>
	<node lat="61.70468888544566" lon="6.25962777222676" id="-35678">
		<tag k="name" v="Lisbetdalen" />
		<tag k="natural" v="valley" />
		<tag k="place" v="locality" />
		<tag k="ssr:stedsnr" v="253103" />
	</node>
	<node lat="61.735161114633044" lon="6.585566657706371" id="-35679">
		<tag k="name" v="Sanddalsvatnet" />
		<tag k="natural" v="water" />
		<tag k="ssr:stedsnr" v="253108" />
		<tag k="water" v="lake" />
	</node>
	<node lat="61.71873611487753" lon="6.2748861167078065" id="-35680">
		<tag k="name" v="Vardevatnet" />
		<tag k="natural" v="water" />
		<tag k="ssr:stedsnr" v="253114" />
	</node>
	<node lat="61.72650277781458" lon="6.316688889553004" id="-35681">
		<tag k="fixme" v="consider natural=peak for the most distinct mountains in the district" />
		<tag k="name" v="Ryssdalshornet" />
		<tag k="natural" v="hill" />
		<tag k="place" v="locality" />
		<tag k="ssr:stedsnr" v="253122" />
	</node>
	<node lat="61.733827782101166" lon="6.36156389033182" id="-35682">
		<tag k="name" v="Breimsvatnet" />
		<tag k="natural" v="water" />
		<tag k="ssr:stedsnr" v="253123" />
		<tag k="water" v="lake" />
	</node>
	<node lat="61.73851389085628" lon="6.451886106786137" id="-35683">
		<tag k="name" v="Nyland" />
		<tag k="place" v="farm" />
		<tag k="ssr:stedsnr" v="253129" />
	</node>
	<node lat="61.7454062659122" lon="6.5449085898276245" id="-35684">
		<tag k="fixme" v="consider place=hamlet" />
		<tag k="name" v="Torheim" />
		<tag k="place" v="farm" />
		<tag k="ssr:stedsnr" v="253140" />
	</node>
	<node lat="61.73252500279858" lon="6.292888886694217" id="-35685">
		<tag k="historic" v="shieling" />
		<tag k="name" v="Ryssdalsstøylen" />
		<tag k="place" v="isolated_dwelling" />
		<tag k="ssr:stedsnr" v="253141" />
	</node>
	<node lat="61.6847142622387" lon="6.375184628745176" id="-35686">
		<tag k="fixme" v="consider place=hamlet" />
		<tag k="name" v="Skarstein" />
		<tag k="place" v="farm" />
		<tag k="ssr:stedsnr" v="253079" />
	</node>
	<node lat="61.65973888664124" lon="5.846677775996126" id="-35687">
		<tag k="name" v="Blånipa" />
		<tag k="natural" v="hill" />
		<tag k="place" v="locality" />
		<tag k="ssr:stedsnr" v="253338" />
	</node>
	<node lat="61.69670833666121" lon="6.115508328227326" id="-35688">
		<tag k="name" v="Haugen" />
		<tag k="place" v="locality" />
		<tag k="ssr:stedsnr" v="253397" />
	</node>
	<node lat="61.67913888871137" lon="5.8812694466272895" id="-35689">
		<tag k="name" v="Pøylene" />
		<tag k="natural" v="wetland" />
		<tag k="ssr:stedsnr" v="253400" />
	</node>
	<node lat="61.817344447731365" lon="6.188316674177316" id="-35690">
		<tag k="fixme" v="consider natural=peak for the most distinct mountains in the district" />
		<tag k="name" v="Tystadfjellet" />
		<tag k="natural" v="hill" />
		<tag k="place" v="locality" />
		<tag k="ssr:stedsnr" v="253706" />
	</node>
	<node lat="61.80159166552518" lon="5.926238892705977" id="-35691">
		<tag k="name" v="Skjerdalsvatnet" />
		<tag k="natural" v="water" />
		<tag k="ssr:stedsnr" v="253722" />
	</node>
	<node lat="61.79239444431386" lon="5.963483336706015" id="-35692">
		<tag k="name" v="Uraneset" />
		<tag k="natural" v="cape" />
		<tag k="ssr:stedsnr" v="253724" />
	</node>
	<node lat="61.789308332236565" lon="6.008250008475429" id="-35693">
		<tag k="fixme" v="consider natural=peak for the most distinct mountains in the district" />
		<tag k="name" v="Jura" />
		<tag k="natural" v="hill" />
		<tag k="place" v="locality" />
		<tag k="ssr:stedsnr" v="253734" />
	</node>
	<node lat="61.794686112540596" lon="6.08489165731142" id="-35694">
		<tag k="fixme" v="consider natural=peak for the most distinct mountains in the district" />
		<tag k="name" v="Åsvedkammen" />
		<tag k="natural" v="hill" />
		<tag k="place" v="locality" />
		<tag k="ssr:stedsnr" v="253745" />
	</node>
	<node lat="61.70675833266789" lon="5.822916670670645" id="-35695">
		<tag k="name" v="Storehaugen" />
		<tag k="natural" v="hill" />
		<tag k="place" v="locality" />
		<tag k="ssr:stedsnr" v="457242" />
	</node>
	<node lat="61.794241671130216" lon="5.917516665224215" id="-35696">
		<tag k="name" v="Botnen" />
		<tag k="natural" v="valley" />
		<tag k="place" v="locality" />
		<tag k="ssr:stedsnr" v="457255" />
	</node>
	<node lat="61.83119166886889" lon="6.020755555420721" id="-35697">
		<tag k="name" v="Høydalskvilet" />
		<tag k="place" v="locality" />
		<tag k="ssr:stedsnr" v="457385" />
	</node>
	<node lat="61.67584722431668" lon="5.864983336570379" id="-35698">
		<tag k="fixme" v="consider natural=peak for the most distinct mountains in the district" />
		<tag k="name" v="Kvitefjellet" />
		<tag k="natural" v="hill" />
		<tag k="place" v="locality" />
		<tag k="ssr:stedsnr" v="457325" />
	</node>
	<node lat="61.67697778085066" lon="5.858602769275604" id="-35699">
		<tag k="name" v="Ramsgrø" />
		<tag k="place" v="locality" />
		<tag k="ssr:stedsnr" v="457326" />
	</node>
	<node lat="61.728158332333" lon="5.851302778814002" id="-35700">
		<tag k="name" v="Tunga" />
		<tag k="place" v="locality" />
		<tag k="ssr:stedsnr" v="457347" />
	</node>
	<node lat="61.74044722557555" lon="5.9077472292008055" id="-35701">
		<tag k="name" v="Kammane" />
		<tag k="natural" v="ridge" />
		<tag k="place" v="locality" />
		<tag k="ssr:stedsnr" v="457355" />
	</node>
	<node lat="61.65055555949214" lon="5.9528777866731" id="-35702">
		<tag k="name" v="Grønskredene" />
		<tag k="natural" v="scree" />
		<tag k="place" v="locality" />
		<tag k="ssr:stedsnr" v="457429" />
	</node>
	<node lat="61.64716666522288" lon="5.9688027694092085" id="-35703">
		<tag k="name" v="Storegrova" />
		<tag k="ssr:stedsnr" v="457430" />
		<tag k="waterway" v="stream" />
	</node>
	<node lat="61.696077780643265" lon="6.043644436710915" id="-35704">
		<tag k="name" v="Vistølelva" />
		<tag k="ssr:stedsnr" v="457457" />
		<tag k="waterway" v="river" />
	</node>
	<node lat="61.759308332868265" lon="5.965405562014461" id="-35705">
		<tag k="name" v="Sessabakkane" />
		<tag k="natural" v="slope" />
		<tag k="place" v="locality" />
		<tag k="ssr:stedsnr" v="457476" />
	</node>
	<node lat="61.60908889289694" lon="5.7199527689566025" id="-35706">
		<tag k="name" v="Fenene" />
		<tag k="place" v="locality" />
		<tag k="ssr:stedsnr" v="457486" />
	</node>
	<node lat="61.75403055111632" lon="6.576741660170682" id="-35707">
		<tag k="name" v="Skylhamrane" />
		<tag k="natural" v="hill" />
		<tag k="place" v="locality" />
		<tag k="ssr:stedsnr" v="457494" />
	</node>
	<node lat="61.62719722352069" lon="5.670772213376885" id="-35708">
		<tag k="fixme" v="consider natural=peak for the most distinct mountains in the district" />
		<tag k="name" v="Setråsen" />
		<tag k="natural" v="hill" />
		<tag k="place" v="locality" />
		<tag k="ssr:stedsnr" v="457501" />
	</node>
	<node lat="61.76775833180043" lon="6.261547225099346" id="-35709">
		<tag k="name" v="Sagevadet" />
		<tag k="place" v="locality" />
		<tag k="ssr:stedsnr" v="458227" />
	</node>
	<node lat="61.769341670336544" lon="6.2817555573627795" id="-35710">
		<tag k="name" v="Breimfarhjellen" />
		<tag k="place" v="locality" />
		<tag k="ssr:stedsnr" v="458232" />
	</node>
	<node lat="61.63246111293351" lon="5.763972229415487" id="-35711">
		<tag k="name" v="Støylane" />
		<tag k="natural" v="slope" />
		<tag k="place" v="locality" />
		<tag k="ssr:stedsnr" v="262750" />
	</node>
	<node lat="61.62366666712724" lon="5.6842138888128115" id="-35712">
		<tag k="fixme" v="consider natural=peak for the most distinct mountains in the district" />
		<tag k="name" v="Alliåsen" />
		<tag k="natural" v="hill" />
		<tag k="place" v="locality" />
		<tag k="ssr:stedsnr" v="262752" />
	</node>
	<node lat="61.62007222201283" lon="5.674311102667315" id="-35713">
		<tag k="fixme" v="consider natural=peak for the most distinct mountains in the district" />
		<tag k="name" v="Eikåsen" />
		<tag k="natural" v="hill" />
		<tag k="place" v="locality" />
		<tag k="ssr:stedsnr" v="262754" />
	</node>
	<node lat="61.68162777388545" lon="5.794436113485233" id="-35714">
		<tag k="name" v="Hjellbakkane" />
		<tag k="natural" v="slope" />
		<tag k="place" v="locality" />
		<tag k="ssr:stedsnr" v="457672" />
	</node>
	<node lat="61.6851833320528" lon="5.7869833412502745" id="-35715">
		<tag k="name" v="Reset" />
		<tag k="place" v="locality" />
		<tag k="ssr:stedsnr" v="457678" />
	</node>
	<node lat="61.692736114938654" lon="5.800927780514973" id="-35716">
		<tag k="name" v="Fullskjegga" />
		<tag k="place" v="locality" />
		<tag k="ssr:stedsnr" v="457679" />
	</node>
	<node lat="61.701013886696664" lon="5.806816665627134" id="-35717">
		<tag k="name" v="Sprengkleivlia" />
		<tag k="natural" v="slope" />
		<tag k="place" v="locality" />
		<tag k="ssr:stedsnr" v="457682" />
	</node>
	<node lat="61.62198611475515" lon="5.759424996378238" id="-35718">
		<tag k="name" v="Bukkeskora" />
		<tag k="place" v="locality" />
		<tag k="ssr:stedsnr" v="457690" />
	</node>
	<node lat="61.64562777878607" lon="5.744125000129308" id="-35719">
		<tag k="name" v="Blånova" />
		<tag k="natural" v="ridge" />
		<tag k="place" v="locality" />
		<tag k="ssr:stedsnr" v="457726" />
	</node>
	<node lat="61.834994445437836" lon="5.940297217368232" id="-35720">
		<tag k="name" v="Kårnyken" />
		<tag k="natural" v="hill" />
		<tag k="place" v="locality" />
		<tag k="ssr:stedsnr" v="263584" />
	</node>
	<node lat="61.80489444046429" lon="5.9603805560552185" id="-35721">
		<tag k="fixme" v="consider natural=peak for the most distinct mountains in the district" />
		<tag k="name" v="Sausafjellet" />
		<tag k="natural" v="hill" />
		<tag k="place" v="locality" />
		<tag k="ssr:stedsnr" v="263591" />
	</node>
	<node lat="61.63994444053643" lon="5.856169439731792" id="-35722">
		<tag k="name" v="Vetane" />
		<tag k="place" v="locality" />
		<tag k="ssr:stedsnr" v="457611" />
	</node>
	<node lat="61.63375277984052" lon="5.8490999980427" id="-35723">
		<tag k="name" v="Småhillene" />
		<tag k="place" v="locality" />
		<tag k="ssr:stedsnr" v="457617" />
	</node>
	<node lat="61.65872222426033" lon="5.892641658723513" id="-35724">
		<tag k="name" v="Botnagrova" />
		<tag k="ssr:stedsnr" v="457621" />
		<tag k="waterway" v="stream" />
	</node>
	<node lat="61.634477775155396" lon="5.818072220926536" id="-35725">
		<tag k="fixme" v="consider natural=peak for the most distinct mountains in the district" />
		<tag k="name" v="Høgefjellet" />
		<tag k="natural" v="hill" />
		<tag k="place" v="locality" />
		<tag k="ssr:stedsnr" v="457622" />
	</node>
	<node lat="61.658388886048215" lon="5.92755833059601" id="-35726">
		<tag k="name" v="Langemyra" />
		<tag k="natural" v="wetland" />
		<tag k="ssr:stedsnr" v="457629" />
	</node>
	<node lat="61.654286112641515" lon="5.896025002233819" id="-35727">
		<tag k="name" v="Rombergreset" />
		<tag k="natural" v="ridge" />
		<tag k="place" v="locality" />
		<tag k="ssr:stedsnr" v="457633" />
	</node>
	<node lat="61.64377777827765" lon="5.8224777762345" id="-35728">
		<tag k="name" v="Langeberget" />
		<tag k="natural" v="hill" />
		<tag k="place" v="locality" />
		<tag k="ssr:stedsnr" v="457636" />
	</node>
	<node lat="61.64661388721391" lon="5.8300388883332825" id="-35729">
		<tag k="name" v="Fessene" />
		<tag k="place" v="locality" />
		<tag k="ssr:stedsnr" v="457640" />
	</node>
	<node lat="61.714213893088036" lon="5.769972214924604" id="-35730">
		<tag k="name" v="Hammaren" />
		<tag k="natural" v="hill" />
		<tag k="place" v="locality" />
		<tag k="ssr:stedsnr" v="457654" />
	</node>
	<node lat="61.708113888340776" lon="5.781788897432327" id="-35731">
		<tag k="name" v="Storeneset" />
		<tag k="natural" v="cape" />
		<tag k="ssr:stedsnr" v="457655" />
	</node>
	<node lat="61.66568889101096" lon="5.776775000147707" id="-35732">
		<tag k="name" v="Grønevika" />
		<tag k="natural" v="bay" />
		<tag k="ssr:stedsnr" v="457657" />
	</node>
	<node lat="61.76668610987802" lon="6.163163888816067" id="-35733">
		<tag k="name" v="Gjerdet" />
		<tag k="place" v="locality" />
		<tag k="ssr:stedsnr" v="458028" />
	</node>
	<node lat="61.75345277900674" lon="6.123647222287476" id="-35734">
		<tag k="name" v="Sælebota" />
		<tag k="place" v="locality" />
		<tag k="ssr:stedsnr" v="458033" />
	</node>
	<node lat="61.67188610969987" lon="6.174533325666647" id="-35735">
		<tag k="name" v="Holten" />
		<tag k="natural" v="hill" />
		<tag k="place" v="locality" />
		<tag k="ssr:stedsnr" v="458034" />
	</node>
	<node lat="61.84113055738903" lon="6.091488890674873" id="-35736">
		<tag k="name" v="Røssvika" />
		<tag k="natural" v="bay" />
		<tag k="ssr:stedsnr" v="458040" />
	</node>
	<node lat="61.747136112321584" lon="6.136313881202749" id="-35737">
		<tag k="name" v="Dammen" />
		<tag k="place" v="locality" />
		<tag k="ssr:stedsnr" v="458086" />
	</node>
	<node lat="61.74076944421975" lon="6.172936103347856" id="-35738">
		<tag k="fixme" v="consider natural=peak for the most distinct mountains in the district" />
		<tag k="name" v="Bjørnhamrane" />
		<tag k="natural" v="hill" />
		<tag k="place" v="locality" />
		<tag k="ssr:stedsnr" v="458050" />
	</node>
	<node lat="61.66381111129986" lon="6.208600007446818" id="-35739">
		<tag k="name" v="Blådalselva" />
		<tag k="ssr:stedsnr" v="458052" />
		<tag k="waterway" v="river" />
	</node>
	<node lat="61.75536666328818" lon="6.32146389212483" id="-35740">
		<tag k="name" v="Bergheimsvika" />
		<tag k="natural" v="bay" />
		<tag k="ssr:stedsnr" v="458187" />
	</node>
	<node lat="61.78521111507746" lon="6.08046944730834" id="-35741">
		<tag k="name" v="Berget" />
		<tag k="place" v="locality" />
		<tag k="ssr:stedsnr" v="458136" />
	</node>
	<node lat="61.78363333195291" lon="6.066880564863747" id="-35742">
		<tag k="name" v="Knausegrova" />
		<tag k="ssr:stedsnr" v="458137" />
		<tag k="waterway" v="stream" />
	</node>
	<node lat="61.67259166616949" lon="6.407955555782577" id="-35743">
		<tag k="name" v="Årdalselva" />
		<tag k="ssr:stedsnr" v="458144" />
		<tag k="waterway" v="river" />
	</node>
	<node lat="61.69482221797251" lon="6.40876945378564" id="-35744">
		<tag k="name" v="Geithillaren" />
		<tag k="natural" v="hill" />
		<tag k="place" v="locality" />
		<tag k="ssr:stedsnr" v="458157" />
	</node>
	<node lat="61.7622694475666" lon="6.323938897975658" id="-35745">
		<tag k="fixme" v="consider natural=peak for the most distinct mountains in the district" />
		<tag k="name" v="Lægdahamrana" />
		<tag k="natural" v="hill" />
		<tag k="place" v="locality" />
		<tag k="ssr:stedsnr" v="458192" />
	</node>
	<node lat="61.72027222659452" lon="6.3608916724169795" id="-35746">
		<tag k="name" v="Retelgrova" />
		<tag k="ssr:stedsnr" v="458200" />
		<tag k="waterway" v="stream" />
	</node>
	<node lat="61.752469448444465" lon="6.252477769477898" id="-35747">
		<tag k="name" v="Kvitegrova" />
		<tag k="ssr:stedsnr" v="458236" />
		<tag k="waterway" v="stream" />
	</node>
	<node lat="61.749363885415164" lon="6.228708329449077" id="-35748">
		<tag k="name" v="Fuglehaugane" />
		<tag k="natural" v="hill" />
		<tag k="place" v="locality" />
		<tag k="ssr:stedsnr" v="458239" />
	</node>
	<node lat="61.75419722145343" lon="6.185569445481018" id="-35749">
		<tag k="name" v="Sperremyra" />
		<tag k="natural" v="wetland" />
		<tag k="ssr:stedsnr" v="458243" />
	</node>
	<node lat="61.742366665914595" lon="6.2758361066570165" id="-35750">
		<tag k="name" v="Sageelva" />
		<tag k="ssr:stedsnr" v="458253" />
		<tag k="waterway" v="stream" />
	</node>
	<node lat="61.823755555215584" lon="6.189238889833057" id="-35751">
		<tag k="name" v="Mobakkane" />
		<tag k="natural" v="slope" />
		<tag k="place" v="locality" />
		<tag k="ssr:stedsnr" v="458286" />
	</node>
	<node lat="61.83093333676664" lon="6.198124992919925" id="-35752">
		<tag k="highway" v="path" />
		<tag k="name" v="Langeskorvegen" />
		<tag k="ssr:stedsnr" v="458287" />
	</node>
	<node lat="61.792716664952636" lon="5.962352787381704" id="-35753">
		<tag k="name" v="Bøasvora" />
		<tag k="ssr:stedsnr" v="458451" />
		<tag k="waterway" v="stream" />
	</node>
	<node lat="61.812508335139874" lon="5.938519446279623" id="-35754">
		<tag k="name" v="Mellomakslene" />
		<tag k="place" v="locality" />
		<tag k="ssr:stedsnr" v="458457" />
	</node>
	<node lat="61.83838888814999" lon="5.979452769709021" id="-35755">
		<tag k="name" v="Steinvika" />
		<tag k="natural" v="bay" />
		<tag k="ssr:stedsnr" v="458490" />
	</node>
	<node lat="61.798941670488546" lon="5.980402785946697" id="-35756">
		<tag k="name" v="Lindeneset" />
		<tag k="natural" v="cape" />
		<tag k="ssr:stedsnr" v="458493" />
	</node>
	<node lat="61.79268888912944" lon="5.9798888942509665" id="-35757">
		<tag k="name" v="Gjølsvorneset" />
		<tag k="natural" v="cape" />
		<tag k="ssr:stedsnr" v="458495" />
	</node>
	<node lat="61.66510000383413" lon="6.457322215179833" id="-35758">
		<tag k="name" v="Rindane" />
		<tag k="natural" v="hill" />
		<tag k="place" v="locality" />
		<tag k="ssr:stedsnr" v="458766" />
	</node>
	<node lat="61.66353055644678" lon="6.441758329628079" id="-35759">
		<tag k="name" v="Storemyra" />
		<tag k="natural" v="wetland" />
		<tag k="ssr:stedsnr" v="458767" />
	</node>
	<node lat="61.67650833066091" lon="6.42363056472678" id="-35760">
		<tag k="name" v="Beiteskorane" />
		<tag k="natural" v="slope" />
		<tag k="place" v="locality" />
		<tag k="ssr:stedsnr" v="458772" />
	</node>
	<node lat="61.693527776696385" lon="6.533472223155087" id="-35761">
		<tag k="name" v="Høgerinden" />
		<tag k="natural" v="hill" />
		<tag k="place" v="locality" />
		<tag k="ssr:stedsnr" v="458783" />
	</node>
	<node lat="61.69576111327912" lon="6.530805558694259" id="-35762">
		<tag k="name" v="Labakken" />
		<tag k="natural" v="slope" />
		<tag k="place" v="locality" />
		<tag k="ssr:stedsnr" v="458784" />
	</node>
	<node lat="61.74380277636543" lon="6.436944453916349" id="-35763">
		<tag k="name" v="Blåteigen" />
		<tag k="place" v="farm" />
		<tag k="ssr:stedsnr" v="458789" />
	</node>
	<node lat="61.668155558854295" lon="6.5253499989172195" id="-35764">
		<tag k="name" v="Breiskreda" />
		<tag k="natural" v="gorge" />
		<tag k="ssr:stedsnr" v="458791" />
	</node>
	<node lat="61.666669448220055" lon="6.525705548958846" id="-35765">
		<tag k="name" v="Langhamrane" />
		<tag k="natural" v="hill" />
		<tag k="place" v="locality" />
		<tag k="ssr:stedsnr" v="458793" />
	</node>
	<node lat="61.65852221860917" lon="6.513305563285451" id="-35766">
		<tag k="name" v="Soleiefloten" />
		<tag k="place" v="locality" />
		<tag k="ssr:stedsnr" v="458827" />
	</node>
	<node lat="61.76768976554192" lon="6.476046093812999" id="-35767">
		<tag k="historic" v="shieling" />
		<tag k="name" v="Fløtrastøylen" />
		<tag k="place" v="isolated_dwelling" />
		<tag k="ssr:stedsnr" v="270607" />
	</node>
	<node lat="61.76837777433186" lon="6.229461104959758" id="-35768">
		<tag k="name" v="Mona" />
		<tag k="place" v="locality" />
		<tag k="ssr:stedsnr" v="270608" />
	</node>
	<node lat="61.77210555757349" lon="6.509533336723492" id="-35769">
		<tag k="name" v="Klypedalen" />
		<tag k="natural" v="valley" />
		<tag k="place" v="locality" />
		<tag k="ssr:stedsnr" v="458838" />
	</node>
	<node lat="61.781788890106455" lon="6.226355552105477" id="-35770">
		<tag k="name" v="Utsikten" />
		<tag k="ssr:stedsnr" v="270707" />
		<tag k="tourism" v="attraction" />
	</node>
	<node lat="61.75981388938179" lon="6.5114138844847425" id="-35771">
		<tag k="name" v="Andershaugen" />
		<tag k="natural" v="slope" />
		<tag k="place" v="locality" />
		<tag k="ssr:stedsnr" v="458849" />
	</node>
	<node lat="61.830711108749206" lon="6.292233336680272" id="-35772">
		<tag k="name" v="Sløkjene" />
		<tag k="natural" v="valley" />
		<tag k="place" v="locality" />
		<tag k="ssr:stedsnr" v="270886" />
	</node>
	<node lat="61.743163884577896" lon="6.496591668370107" id="-35773">
		<tag k="name" v="Trollkonehola" />
		<tag k="natural" v="valley" />
		<tag k="place" v="locality" />
		<tag k="ssr:stedsnr" v="458885" />
	</node>
	<node lat="61.721361111117105" lon="6.526458331280634" id="-35774">
		<tag k="name" v="Steinrøysa" />
		<tag k="natural" v="stone" />
		<tag k="ssr:stedsnr" v="458887" />
	</node>
	<node lat="61.71519166633418" lon="6.5153861144355805" id="-35775">
		<tag k="name" v="Hanehaugane" />
		<tag k="natural" v="hill" />
		<tag k="place" v="locality" />
		<tag k="ssr:stedsnr" v="458899" />
	</node>
	<node lat="61.72564166934194" lon="6.609247212580416" id="-35776">
		<tag k="name" v="Kobberstadneset" />
		<tag k="natural" v="cape" />
		<tag k="ssr:stedsnr" v="458904" />
	</node>
	<node lat="61.71272778058497" lon="6.537502781617256" id="-35777">
		<tag k="name" v="Osphammaren" />
		<tag k="natural" v="hill" />
		<tag k="place" v="locality" />
		<tag k="ssr:stedsnr" v="458906" />
	</node>
	<node lat="61.61860277637845" lon="5.6513166712719505" id="-35778">
		<tag k="name" v="Nedstededalskleivane" />
		<tag k="natural" v="slope" />
		<tag k="place" v="locality" />
		<tag k="ssr:stedsnr" v="458907" />
	</node>
	<node lat="61.72315277672962" lon="5.837691663109605" id="-35779">
		<tag k="name" v="Brekkefossen" />
		<tag k="natural" v="waterfall" />
		<tag k="ssr:stedsnr" v="275212" />
	</node>
	<node lat="61.72476666751953" lon="5.857849991019381" id="-35780">
		<tag k="fixme" v="consider natural=peak for the most distinct mountains in the district" />
		<tag k="name" v="Kupefjellet" />
		<tag k="natural" v="hill" />
		<tag k="place" v="locality" />
		<tag k="ssr:stedsnr" v="275216" />
	</node>
	<node lat="61.848349999890814" lon="5.839636104669164" id="-35781">
		<tag k="alt_name" v="Sælebotneset" />
		<tag k="name" v="Fremsteneset" />
		<tag k="natural" v="cape" />
		<tag k="ssr:stedsnr" v="275271" />
	</node>
	<node lat="61.8525999986925" lon="5.9272194535717775" id="-35782">
		<tag k="name" v="Kvernhuselva" />
		<tag k="ssr:stedsnr" v="275276" />
		<tag k="waterway" v="stream" />
	</node>
	<node lat="61.856152773748306" lon="5.896186107617051" id="-35783">
		<tag k="name" v="Langedalen" />
		<tag k="natural" v="valley" />
		<tag k="place" v="locality" />
		<tag k="ssr:stedsnr" v="275283" />
	</node>
	<node lat="61.65304166564998" lon="6.010719446174239" id="-35784">
		<tag k="name" v="Greina" />
		<tag k="place" v="islet" />
		<tag k="ssr:stedsnr" v="275409" />
	</node>
	<node lat="61.66076666359087" lon="6.03175000797659" id="-35785">
		<tag k="name" v="Almbakkane" />
		<tag k="natural" v="slope" />
		<tag k="place" v="locality" />
		<tag k="ssr:stedsnr" v="275410" />
	</node>
	<node lat="61.69754999997332" lon="5.845077777072835" id="-35786">
		<tag k="fixme" v="consider natural=peak for the most distinct mountains in the district" />
		<tag k="name" v="Dyrkelholten" />
		<tag k="natural" v="hill" />
		<tag k="place" v="locality" />
		<tag k="ssr:stedsnr" v="275305" />
	</node>
	<node lat="61.69224166974932" lon="5.91170555092837" id="-35787">
		<tag k="name" v="Naustaksla" />
		<tag k="natural" v="hill" />
		<tag k="place" v="locality" />
		<tag k="ssr:stedsnr" v="275314" />
	</node>
	<node lat="61.681102774520404" lon="5.8463333247674125" id="-35788">
		<tag k="name" v="Langevassgrova" />
		<tag k="ssr:stedsnr" v="275322" />
		<tag k="waterway" v="river" />
	</node>
	<node lat="61.82821111012454" lon="5.997475005632506" id="-35789">
		<tag k="name" v="Rabbane" />
		<tag k="natural" v="hill" />
		<tag k="place" v="locality" />
		<tag k="ssr:stedsnr" v="275373" />
	</node>
	<node lat="61.64570555602312" lon="6.038341675627795" id="-35790">
		<tag k="name" v="Rabbane" />
		<tag k="natural" v="hill" />
		<tag k="place" v="locality" />
		<tag k="ssr:stedsnr" v="275421" />
	</node>
	<node lat="61.6084305530181" lon="5.7198694499719025" id="-35791">
		<tag k="name" v="Vassendelia" />
		<tag k="natural" v="slope" />
		<tag k="place" v="locality" />
		<tag k="ssr:stedsnr" v="275469" />
	</node>
	<node lat="61.618249999261565" lon="5.696058335956168" id="-35792">
		<tag k="name" v="Vassendeholmen" />
		<tag k="place" v="islet" />
		<tag k="ssr:stedsnr" v="275471" />
	</node>
	<node lat="61.75089166502556" lon="6.548941659548349" id="-35793">
		<tag k="name" v="Langemyra" />
		<tag k="natural" v="wetland" />
		<tag k="ssr:stedsnr" v="275479" />
	</node>
	<node lat="61.75056666511272" lon="6.586105564594465" id="-35794">
		<tag k="name" v="Sandbakken" />
		<tag k="natural" v="slope" />
		<tag k="place" v="locality" />
		<tag k="ssr:stedsnr" v="275486" />
	</node>
	<node lat="61.62255833451189" lon="5.865669438725778" id="-35795">
		<tag k="name" v="Breidalen" />
		<tag k="natural" v="valley" />
		<tag k="place" v="locality" />
		<tag k="ssr:stedsnr" v="275604" />
	</node>
	<node lat="61.656588885664824" lon="5.896455554952481" id="-35796">
		<tag k="name" v="Hyeskaret" />
		<tag k="natural" v="valley" />
		<tag k="place" v="locality" />
		<tag k="ssr:stedsnr" v="275620" />
	</node>
	<node lat="61.65730833688877" lon="5.902230553168752" id="-35797">
		<tag k="name" v="Svartegjøllia" />
		<tag k="natural" v="slope" />
		<tag k="place" v="locality" />
		<tag k="ssr:stedsnr" v="275621" />
	</node>
	<node lat="61.643097220421325" lon="5.901930561608745" id="-35798">
		<tag k="name" v="Blåura" />
		<tag k="natural" v="scree" />
		<tag k="ssr:stedsnr" v="275622" />
	</node>
	<node lat="61.641391662974165" lon="5.8467611130477835" id="-35799">
		<tag k="name" v="Myrbærhaugane" />
		<tag k="natural" v="hill" />
		<tag k="place" v="locality" />
		<tag k="ssr:stedsnr" v="275628" />
	</node>
	<node lat="61.684886115184554" lon="5.796847216672752" id="-35800">
		<tag k="fixme" v="consider natural=peak for the most distinct mountains in the district" />
		<tag k="name" v="Rasmusskarholten" />
		<tag k="natural" v="hill" />
		<tag k="place" v="locality" />
		<tag k="ssr:stedsnr" v="275672" />
	</node>
	<node lat="61.686938891002505" lon="5.8046166669606265" id="-35801">
		<tag k="name" v="Paulvatnet" />
		<tag k="natural" v="water" />
		<tag k="ssr:stedsnr" v="275673" />
		<tag k="water" v="lake" />
	</node>
	<node lat="61.640547220778274" lon="5.717144445778543" id="-35802">
		<tag k="name" v="Kristenlimyrane" />
		<tag k="natural" v="wetland" />
		<tag k="ssr:stedsnr" v="275692" />
	</node>
	<node lat="61.63812777323553" lon="5.699719438202869" id="-35803">
		<tag k="name" v="Svoraskaret" />
		<tag k="natural" v="valley" />
		<tag k="place" v="locality" />
		<tag k="ssr:stedsnr" v="275694" />
	</node>
	<node lat="61.625466668591606" lon="5.706722225794594" id="-35804">
		<tag k="name" v="Kleiva" />
		<tag k="natural" v="slope" />
		<tag k="place" v="locality" />
		<tag k="ssr:stedsnr" v="275707" />
	</node>
	<node lat="61.65409722363644" lon="5.799533336266692" id="-35805">
		<tag k="name" v="Svåodden" />
		<tag k="place" v="islet" />
		<tag k="ssr:stedsnr" v="275709" />
	</node>
	<node lat="61.65169722199837" lon="5.777547224527423" id="-35806">
		<tag k="name" v="Fureneshola" />
		<tag k="natural" v="valley" />
		<tag k="place" v="locality" />
		<tag k="ssr:stedsnr" v="275715" />
	</node>
	<node lat="61.65271944030121" lon="5.754061104920925" id="-35807">
		<tag k="name" v="Ystelkleiva" />
		<tag k="natural" v="slope" />
		<tag k="place" v="locality" />
		<tag k="ssr:stedsnr" v="275719" />
	</node>
	<node lat="61.64807221857819" lon="5.7533472166023705" id="-35808">
		<tag k="name" v="Nyken" />
		<tag k="natural" v="hill" />
		<tag k="place" v="locality" />
		<tag k="ssr:stedsnr" v="275720" />
	</node>
	<node lat="61.66233888676193" lon="5.771402779002568" id="-35809">
		<tag k="name" v="Øykegarden" />
		<tag k="place" v="locality" />
		<tag k="ssr:stedsnr" v="275722" />
	</node>
	<node lat="61.76522500140722" lon="6.153594442626198" id="-35810">
		<tag k="name" v="Fletebakkane" />
		<tag k="natural" v="slope" />
		<tag k="place" v="locality" />
		<tag k="ssr:stedsnr" v="276004" />
	</node>
	<node lat="61.817141662800346" lon="6.126111114323039" id="-35811">
		<tag k="name" v="Velte" />
		<tag k="place" v="locality" />
		<tag k="ssr:stedsnr" v="276012" />
	</node>
	<node lat="61.75791944874094" lon="6.163055547554101" id="-35812">
		<tag k="historic" v="shieling" />
		<tag k="name" v="Varstølen" />
		<tag k="place" v="isolated_dwelling" />
		<tag k="ssr:stedsnr" v="276014" />
	</node>
	<node lat="61.76217777538488" lon="6.124663883361384" id="-35813">
		<tag k="name" v="Høgehaugen" />
		<tag k="natural" v="hill" />
		<tag k="place" v="locality" />
		<tag k="ssr:stedsnr" v="276021" />
	</node>
	<node lat="61.752608331569604" lon="6.074300008899025" id="-35814">
		<tag k="name" v="Røyrvikneset" />
		<tag k="natural" v="cape" />
		<tag k="ssr:stedsnr" v="276030" />
	</node>
	<node lat="61.66420277458733" lon="6.184600008434675" id="-35815">
		<tag k="name" v="Rundetjørna" />
		<tag k="natural" v="water" />
		<tag k="ssr:stedsnr" v="276048" />
	</node>
	<node lat="61.80966944701834" lon="6.069066666358888" id="-35816">
		<tag k="name" v="Ospehaugen" />
		<tag k="natural" v="hill" />
		<tag k="place" v="locality" />
		<tag k="ssr:stedsnr" v="276072" />
	</node>
	<node lat="61.690600000593186" lon="6.112536106604789" id="-35817">
		<tag k="name" v="Hogen" />
		<tag k="natural" v="hill" />
		<tag k="place" v="locality" />
		<tag k="ssr:stedsnr" v="276103" />
	</node>
	<node lat="61.675252778445476" lon="6.113827782816361" id="-35818">
		<tag k="name" v="Storeskarvane" />
		<tag k="natural" v="hill" />
		<tag k="place" v="locality" />
		<tag k="ssr:stedsnr" v="276113" />
	</node>
	<node lat="61.76499722258851" lon="6.09455000764925" id="-35819">
		<tag k="name" v="Orremyra" />
		<tag k="natural" v="wetland" />
		<tag k="ssr:stedsnr" v="276124" />
	</node>
	<node lat="61.76268333363561" lon="6.100638891643647" id="-35820">
		<tag k="name" v="Bliksdalen" />
		<tag k="natural" v="valley" />
		<tag k="place" v="locality" />
		<tag k="ssr:stedsnr" v="276132" />
	</node>
	<node lat="61.69259444565246" lon="6.404422220499665" id="-35821">
		<tag k="name" v="Årdalsstranda" />
		<tag k="natural" v="beach" />
		<tag k="ssr:stedsnr" v="276173" />
	</node>
	<node lat="61.69108333017683" lon="6.330661106778497" id="-35822">
		<tag k="name" v="Stølselva" />
		<tag k="ssr:stedsnr" v="276181" />
		<tag k="waterway" v="river" />
	</node>
	<node lat="61.633194442495714" lon="6.369866668607682" id="-35823">
		<tag k="name" v="Storeleitet" />
		<tag k="place" v="locality" />
		<tag k="ssr:stedsnr" v="276184" />
	</node>
	<node lat="61.62981666983705" lon="6.373627784649738" id="-35824">
		<tag k="name" v="Storesteinane" />
		<tag k="natural" v="scree" />
		<tag k="ssr:stedsnr" v="276186" />
	</node>
	<node lat="61.62265555456407" lon="6.371924993582063" id="-35825">
		<tag k="name" v="Storesletta" />
		<tag k="place" v="locality" />
		<tag k="ssr:stedsnr" v="276190" />
	</node>
	<node lat="61.720722220564106" lon="6.310550001640322" id="-35826">
		<tag k="name" v="Ryssdalsdalen" />
		<tag k="natural" v="valley" />
		<tag k="place" v="locality" />
		<tag k="ssr:stedsnr" v="276221" />
	</node>
	<node lat="61.83534722074226" lon="6.197611101990212" id="-35827">
		<tag k="name" v="Kviteberget" />
		<tag k="natural" v="hill" />
		<tag k="place" v="locality" />
		<tag k="ssr:stedsnr" v="276284" />
	</node>
	<node lat="61.799447222875585" lon="6.1894388919745005" id="-35828">
		<tag k="name" v="Blåbærhaugen" />
		<tag k="natural" v="hill" />
		<tag k="place" v="locality" />
		<tag k="ssr:stedsnr" v="276291" />
	</node>
	<node lat="61.74451666965001" lon="6.46369444146964" id="-35829">
		<tag k="name" v="Øvresetsvingen" />
		<tag k="place" v="locality" />
		<tag k="ssr:stedsnr" v="276809" />
	</node>
	<node lat="61.671652776103315" lon="6.44915833608489" id="-35830">
		<tag k="name" v="Brokane" />
		<tag k="natural" v="slope" />
		<tag k="place" v="locality" />
		<tag k="ssr:stedsnr" v="276787" />
	</node>
	<node lat="61.70848888871931" lon="6.415399991255662" id="-35831">
		<tag k="name" v="Instegrova" />
		<tag k="ssr:stedsnr" v="276903" />
		<tag k="waterway" v="stream" />
	</node>
	<node lat="61.6719861099218" lon="6.1853916627495105" id="-35833">
		<tag k="name" v="Måsevassdalen" />
		<tag k="natural" v="valley" />
		<tag k="place" v="locality" />
		<tag k="ssr:stedsnr" v="312271" />
	</node>
	<node lat="61.66588055502188" lon="6.07291389748984" id="-35834">
		<tag k="name" v="Dalelia" />
		<tag k="natural" v="slope" />
		<tag k="place" v="locality" />
		<tag k="ssr:stedsnr" v="312276" />
	</node>
	<node lat="61.66588888551844" lon="6.0514999994653165" id="-35835">
		<tag k="name" v="Osalia" />
		<tag k="natural" v="slope" />
		<tag k="place" v="locality" />
		<tag k="ssr:stedsnr" v="312277" />
	</node>
	<node lat="61.6499444414881" lon="5.923563894902104" id="-35836">
		<tag k="historic" v="shieling" />
		<tag k="name" v="Mjelleimsstøylen" />
		<tag k="place" v="isolated_dwelling" />
		<tag k="ssr:stedsnr" v="312303" />
	</node>
	<node lat="61.710500003894104" lon="6.275366670011906" id="-35837">
		<tag k="name" v="Trollevatnet" />
		<tag k="natural" v="water" />
		<tag k="ssr:stedsnr" v="313107" />
	</node>
	<node lat="61.712963884432696" lon="6.489441660013693" id="-35838">
		<tag k="fixme" v="consider natural=peak for the most distinct mountains in the district" />
		<tag k="name" v="Stokkefjellet" />
		<tag k="natural" v="hill" />
		<tag k="place" v="locality" />
		<tag k="ssr:stedsnr" v="313109" />
	</node>
	<node lat="61.75123611110126" lon="6.283858331028945" id="-35839">
		<tag k="name" v="Ryssdalsnes" />
		<tag k="natural" v="cape" />
		<tag k="ssr:stedsnr" v="313162" />
	</node>
	<node lat="61.75545555212447" lon="6.435822219711198" id="-35840">
		<tag k="name" v="Futediket" />
		<tag k="natural" v="wetland" />
		<tag k="ssr:stedsnr" v="313166" />
	</node>
	<node lat="61.76137499577576" lon="6.541358325180671" id="-35841">
		<tag k="historic" v="shieling" />
		<tag k="name" v="Støyvastøylen" />
		<tag k="place" v="isolated_dwelling" />
		<tag k="ssr:stedsnr" v="313175" />
	</node>
	<node lat="61.81168055617945" lon="6.246163892499529" id="-35842">
		<tag k="fixme" v="consider natural=peak for the most distinct mountains in the district" />
		<tag k="name" v="Flatefjellet" />
		<tag k="natural" v="hill" />
		<tag k="place" v="locality" />
		<tag k="ssr:stedsnr" v="313068" />
	</node>
	<node lat="61.690811115525385" lon="6.021258337419705" id="-35843">
		<tag k="name" v="Skvetten" />
		<tag k="natural" v="water" />
		<tag k="ssr:stedsnr" v="313312" />
	</node>
	<node lat="61.69232222358793" lon="6.10851944986452" id="-35844">
		<tag k="fixme" v="multiple name tags, choose one and add the other to alt_name" />
		<tag k="name" v="Sameignegrova;Hjellagrova" />
		<tag k="ssr:stedsnr" v="313318" />
		<tag k="waterway" v="stream" />
	</node>
	<node lat="61.68280833185639" lon="5.881788883934297" id="-35845">
		<tag k="name" v="Torleivskreda" />
		<tag k="natural" v="slope" />
		<tag k="place" v="locality" />
		<tag k="ssr:stedsnr" v="313319" />
	</node>
	<node lat="61.71335833282586" lon="6.173005553732432" id="-35846">
		<tag k="historic" v="shieling" />
		<tag k="name" v="Fitjestøylen" />
		<tag k="place" v="isolated_dwelling" />
		<tag k="ssr:stedsnr" v="313364" />
	</node>
	<node lat="61.718208331108634" lon="5.918858336639586" id="-35847">
		<tag k="name" v="Åvatnet" />
		<tag k="natural" v="water" />
		<tag k="ssr:stedsnr" v="313368" />
		<tag k="water" v="lake" />
	</node>
	<node lat="61.72083888596313" lon="5.865091661459006" id="-35848">
		<tag k="fixme" v="consider natural=peak for the most distinct mountains in the district" />
		<tag k="name" v="Nibba" />
		<tag k="natural" v="hill" />
		<tag k="place" v="locality" />
		<tag k="ssr:stedsnr" v="313369" />
	</node>
	<node lat="61.70341389335603" lon="5.8556722251721105" id="-35849">
		<tag k="historic" v="shieling" />
		<tag k="name" v="Røyrvikstøylen" />
		<tag k="place" v="isolated_dwelling" />
		<tag k="ssr:stedsnr" v="313371" />
	</node>
	<node lat="61.8253295138225" lon="6.174030069957285" id="-35850">
		<tag k="fixme" v="consider place=hamlet" />
		<tag k="name" v="Føleide" />
		<tag k="place" v="farm" />
		<tag k="ssr:stedsnr" v="313703" />
	</node>
	<node lat="61.703916668662124" lon="6.4874000092600035" id="-35851">
		<tag k="name" v="Ytrevatnet" />
		<tag k="natural" v="water" />
		<tag k="ssr:stedsnr" v="314079" />
	</node>
	<node lat="61.682977780442684" lon="6.331549994315964" id="-35852">
		<tag k="name" v="Botnen" />
		<tag k="natural" v="valley" />
		<tag k="place" v="locality" />
		<tag k="ssr:stedsnr" v="314082" />
	</node>
	<node lat="61.66354999991546" lon="5.968738888206159" id="-35853">
		<tag k="name" v="Austredalen" />
		<tag k="natural" v="valley" />
		<tag k="place" v="locality" />
		<tag k="ssr:stedsnr" v="314317" />
	</node>
	<node lat="61.663977775563126" lon="5.86146111073365" id="-35854">
		<tag k="name" v="Skorvatnet" />
		<tag k="natural" v="water" />
		<tag k="ssr:stedsnr" v="314320" />
	</node>
	<node lat="61.68772777967274" lon="6.1525250065293635" id="-35855">
		<tag k="alt_name" v="Langelvedalen" />
		<tag k="name" v="Langelvdalen" />
		<tag k="natural" v="valley" />
		<tag k="place" v="locality" />
		<tag k="ssr:stedsnr" v="314360" />
	</node>
	<node lat="61.688111114056376" lon="6.187702779757195" id="-35856">
		<tag k="name" v="Stoa" />
		<tag k="natural" v="valley" />
		<tag k="place" v="locality" />
		<tag k="ssr:stedsnr" v="314367" />
	</node>
	<node lat="61.71902777343667" lon="5.832572215593835" id="-35857">
		<tag k="name" v="Storebotnen" />
		<tag k="natural" v="valley" />
		<tag k="place" v="locality" />
		<tag k="ssr:stedsnr" v="323727" />
	</node>
	<node lat="61.77915000243545" lon="6.274011105791975" id="-35858">
		<tag k="name" v="Bjørndalen" />
		<tag k="natural" v="valley" />
		<tag k="place" v="locality" />
		<tag k="ssr:stedsnr" v="331223" />
	</node>
	<node lat="61.792008336380476" lon="6.072438880601745" id="-35859">
		<tag k="name" v="Geitavadgrova" />
		<tag k="ssr:stedsnr" v="336103" />
		<tag k="waterway" v="stream" />
	</node>
	<node lat="61.67385277659364" lon="6.368369450346303" id="-35860">
		<tag k="name" v="Høgelia" />
		<tag k="natural" v="slope" />
		<tag k="place" v="locality" />
		<tag k="ssr:stedsnr" v="336143" />
	</node>
	<node lat="61.648552775515824" lon="6.3739333383026295" id="-35861">
		<tag k="name" v="Klypeura" />
		<tag k="natural" v="scree" />
		<tag k="ssr:stedsnr" v="336159" />
	</node>
	<node lat="61.75908332950844" lon="6.117825000534163" id="-35862">
		<tag k="name" v="Vasstøkane" />
		<tag k="place" v="locality" />
		<tag k="ssr:stedsnr" v="336019" />
	</node>
	<node lat="61.76197221824349" lon="6.168536120411722" id="-35863">
		<tag k="name" v="Seljelimyrane" />
		<tag k="natural" v="wetland" />
		<tag k="ssr:stedsnr" v="336025" />
	</node>
	<node lat="61.73959999938581" lon="6.178969449648509" id="-35864">
		<tag k="fixme" v="consider natural=peak for the most distinct mountains in the district" />
		<tag k="name" v="Svora" />
		<tag k="natural" v="hill" />
		<tag k="place" v="locality" />
		<tag k="ssr:stedsnr" v="336044" />
	</node>
	<node lat="61.80492222294857" lon="6.084766669251254" id="-35865">
		<tag k="name" v="Moseurskaret" />
		<tag k="natural" v="valley" />
		<tag k="place" v="locality" />
		<tag k="ssr:stedsnr" v="336052" />
	</node>
	<node lat="61.82331944740224" lon="6.124241660255151" id="-35866">
		<tag k="name" v="Hjellen" />
		<tag k="place" v="locality" />
		<tag k="ssr:stedsnr" v="336056" />
	</node>
	<node lat="61.6785611120147" lon="5.827358328830087" id="-35867">
		<tag k="name" v="Blåkinna" />
		<tag k="natural" v="hill" />
		<tag k="place" v="locality" />
		<tag k="ssr:stedsnr" v="336349" />
	</node>
	<node lat="61.67720000077951" lon="5.819569442183629" id="-35868">
		<tag k="name" v="Storeskarholten" />
		<tag k="natural" v="hill" />
		<tag k="place" v="locality" />
		<tag k="ssr:stedsnr" v="336350" />
	</node>
	<node lat="61.68216944643845" lon="5.915980549960709" id="-35869">
		<tag k="name" v="Veslefrogden" />
		<tag k="natural" v="wetland" />
		<tag k="ssr:stedsnr" v="336360" />
	</node>
	<node lat="61.82992221791181" lon="6.0023222185077625" id="-35870">
		<tag k="name" v="Lia" />
		<tag k="natural" v="slope" />
		<tag k="place" v="locality" />
		<tag k="ssr:stedsnr" v="336396" />
	</node>
	<node lat="61.614444446663065" lon="5.762011104395525" id="-35871">
		<tag k="name" v="Storesteinane" />
		<tag k="natural" v="stone" />
		<tag k="ssr:stedsnr" v="336503" />
	</node>
	<node lat="61.61102777518419" lon="5.710474993303742" id="-35872">
		<tag k="name" v="Eimhjellevassenden" />
		<tag k="natural" v="bay" />
		<tag k="ssr:stedsnr" v="336505" />
	</node>
	<node lat="61.61424722635815" lon="5.705997218528649" id="-35873">
		<tag k="name" v="Grønevika" />
		<tag k="natural" v="bay" />
		<tag k="ssr:stedsnr" v="336507" />
	</node>
	<node lat="61.75684166415442" lon="6.591088892344445" id="-35874">
		<tag k="name" v="Skora" />
		<tag k="natural" v="hill" />
		<tag k="place" v="locality" />
		<tag k="ssr:stedsnr" v="336509" />
	</node>
	<node lat="61.754702777566045" lon="6.582099999238589" id="-35875">
		<tag k="name" v="Glæra" />
		<tag k="natural" v="hill" />
		<tag k="place" v="locality" />
		<tag k="ssr:stedsnr" v="336510" />
	</node>
	<node lat="61.639833332669134" lon="5.6815111154457965" id="-35876">
		<tag k="name" v="Tussehaugen" />
		<tag k="natural" v="hill" />
		<tag k="place" v="locality" />
		<tag k="ssr:stedsnr" v="336512" />
	</node>
	<node lat="61.62896111453967" lon="5.66501111032853" id="-35877">
		<tag k="name" v="Langelibotnen" />
		<tag k="natural" v="valley" />
		<tag k="place" v="locality" />
		<tag k="ssr:stedsnr" v="336515" />
	</node>
	<node lat="61.751016668083395" lon="5.886602784291515" id="-35878">
		<tag k="name" v="Nakkane" />
		<tag k="natural" v="hill" />
		<tag k="place" v="locality" />
		<tag k="ssr:stedsnr" v="336292" />
	</node>
	<node lat="61.76393055917268" lon="5.9282638923266715" id="-35879">
		<tag k="name" v="Bjønnesvorgjølet" />
		<tag k="natural" v="valley" />
		<tag k="place" v="locality" />
		<tag k="ssr:stedsnr" v="336295" />
	</node>
	<node lat="61.793986113172146" lon="5.985497217051662" id="-35881">
		<tag k="name" v="Gjølsvorgjølet" />
		<tag k="natural" v="gorge" />
		<tag k="ssr:stedsnr" v="336408" />
	</node>
	<node lat="61.659627778599386" lon="6.091652778061959" id="-35882">
		<tag k="name" v="Risbotn" />
		<tag k="natural" v="valley" />
		<tag k="place" v="locality" />
		<tag k="ssr:stedsnr" v="336421" />
	</node>
	<node lat="61.83540278045043" lon="6.0103166701750785" id="-35883">
		<tag k="name" v="Rishaugene" />
		<tag k="natural" v="hill" />
		<tag k="place" v="locality" />
		<tag k="ssr:stedsnr" v="336424" />
	</node>
	<node lat="61.691913885689175" lon="6.035730563805602" id="-35884">
		<tag k="name" v="Vamyrane" />
		<tag k="natural" v="wetland" />
		<tag k="ssr:stedsnr" v="336442" />
	</node>
	<node lat="61.74188333372117" lon="5.93643610606572" id="-35885">
		<tag k="name" v="Furuhaugen" />
		<tag k="natural" v="hill" />
		<tag k="place" v="locality" />
		<tag k="ssr:stedsnr" v="336452" />
	</node>
	<node lat="61.66320277358522" lon="5.935102784664889" id="-35886">
		<tag k="name" v="Gjengedalsgjølet" />
		<tag k="natural" v="gorge" />
		<tag k="ssr:stedsnr" v="336461" />
	</node>
	<node lat="61.64048610790759" lon="5.897311116664348" id="-35887">
		<tag k="name" v="Blåkinna" />
		<tag k="natural" v="hill" />
		<tag k="place" v="locality" />
		<tag k="ssr:stedsnr" v="336606" />
	</node>
	<node lat="61.75615555841293" lon="6.466591667539137" id="-35888">
		<tag k="name" v="Seljehammaren" />
		<tag k="natural" v="hill" />
		<tag k="place" v="locality" />
		<tag k="ssr:stedsnr" v="336808" />
	</node>
	<node lat="61.698699997742736" lon="6.54559443972978" id="-35889">
		<tag k="name" v="Kantelbakkane" />
		<tag k="natural" v="slope" />
		<tag k="place" v="locality" />
		<tag k="ssr:stedsnr" v="336813" />
	</node>
	<node lat="61.69091666674949" lon="6.54117499443918" id="-35890">
		<tag k="fixme" v="consider natural=peak for the most distinct mountains in the district" />
		<tag k="name" v="Omnsfjellet" />
		<tag k="natural" v="hill" />
		<tag k="place" v="locality" />
		<tag k="ssr:stedsnr" v="336817" />
	</node>
	<node lat="61.74426388864269" lon="6.495688896015405" id="-35891">
		<tag k="name" v="Myrahaugen" />
		<tag k="natural" v="hill" />
		<tag k="place" v="locality" />
		<tag k="ssr:stedsnr" v="336843" />
	</node>
	<node lat="61.73781110760582" lon="6.478077777053253" id="-35892">
		<tag k="name" v="Stegane" />
		<tag k="natural" v="slope" />
		<tag k="place" v="locality" />
		<tag k="ssr:stedsnr" v="336848" />
	</node>
	<node lat="61.65241944294821" lon="5.808202774484893" id="-35893">
		<tag k="name" v="Svartegrova" />
		<tag k="ssr:stedsnr" v="336703" />
		<tag k="waterway" v="stream" />
	</node>
	<node lat="61.74798055432664" lon="6.477655563638418" id="-35894">
		<tag k="name" v="Geilebakken" />
		<tag k="natural" v="slope" />
		<tag k="place" v="locality" />
		<tag k="ssr:stedsnr" v="336748" />
	</node>
	<node lat="61.74595000160126" lon="6.483997219763309" id="-35895">
		<tag k="name" v="Langehaugen" />
		<tag k="natural" v="hill" />
		<tag k="place" v="locality" />
		<tag k="ssr:stedsnr" v="336750" />
	</node>
	<node lat="61.66241388938126" lon="6.526583328543728" id="-35896">
		<tag k="name" v="Bjørkenakkane" />
		<tag k="natural" v="hill" />
		<tag k="place" v="locality" />
		<tag k="ssr:stedsnr" v="336759" />
	</node>
	<node lat="61.673286110059884" lon="6.5377166575754275" id="-35897">
		<tag k="name" v="Langhamrane" />
		<tag k="natural" v="hill" />
		<tag k="place" v="locality" />
		<tag k="ssr:stedsnr" v="336905" />
	</node>
	<node lat="61.74568610765832" lon="6.50061667609932" id="-35898">
		<tag k="name" v="Klovningane" />
		<tag k="place" v="locality" />
		<tag k="ssr:stedsnr" v="337842" />
	</node>
	<node lat="61.734772220524256" lon="5.932663881372096" id="-35899">
		<tag k="name" v="Åhammaren" />
		<tag k="natural" v="hill" />
		<tag k="place" v="locality" />
		<tag k="ssr:stedsnr" v="342054" />
	</node>
	<node lat="61.67776456225651" lon="5.808956176367471" id="-35900">
		<tag k="fixme" v="consider place=hamlet" />
		<tag k="name" v="Heimseta" />
		<tag k="place" v="farm" />
		<tag k="ssr:stedsnr" v="372703" />
	</node>
	<node lat="61.6233944486132" lon="5.827900002188629" id="-35901">
		<tag k="fixme" v="consider natural=peak for the most distinct mountains in the district" />
		<tag k="name" v="Middagsnova" />
		<tag k="natural" v="hill" />
		<tag k="place" v="locality" />
		<tag k="ssr:stedsnr" v="372750" />
	</node>
	<node lat="61.60900277372625" lon="5.729163889029869" id="-35902">
		<tag k="alt_name" v="Nova" />
		<tag k="fixme" v="consider natural=peak for the most distinct mountains in the district" />
		<tag k="name" v="Vassendenova" />
		<tag k="natural" v="hill" />
		<tag k="place" v="locality" />
		<tag k="ssr:stedsnr" v="372753" />
	</node>
	<node lat="61.6583861091574" lon="6.38470000470855" id="-35903">
		<tag k="name" v="Korset" />
		<tag k="natural" v="hill" />
		<tag k="place" v="locality" />
		<tag k="ssr:stedsnr" v="373048" />
	</node>
	<node lat="61.677763889062376" lon="6.337708330763134" id="-35904">
		<tag k="fixme" v="consider natural=peak for the most distinct mountains in the district" />
		<tag k="name" v="Eggane" />
		<tag k="natural" v="hill" />
		<tag k="place" v="locality" />
		<tag k="ssr:stedsnr" v="373059" />
	</node>
	<node lat="61.62806944519875" lon="5.8819416613676125" id="-35905">
		<tag k="name" v="Litlevassheia" />
		<tag k="natural" v="hill" />
		<tag k="place" v="locality" />
		<tag k="ssr:stedsnr" v="373254" />
	</node>
	<node lat="61.631475003357494" lon="5.863455563255287" id="-35906">
		<tag k="historic" v="shieling" />
		<tag k="name" v="Gamlestøylen" />
		<tag k="place" v="isolated_dwelling" />
		<tag k="ssr:stedsnr" v="373255" />
	</node>
	<node lat="61.681911108473905" lon="6.048005558367466" id="-35907">
		<tag k="name" v="Støylselva" />
		<tag k="ssr:stedsnr" v="373719" />
		<tag k="waterway" v="stream" />
	</node>
	<node lat="61.62612500273322" lon="5.747858324983679" id="-35908">
		<tag k="name" v="Fureneset" />
		<tag k="natural" v="cape" />
		<tag k="ssr:stedsnr" v="373794" />
	</node>
	<node lat="61.68328610956895" lon="6.59695278471652" id="-35909">
		<tag k="name" v="Middagsbotnen" />
		<tag k="natural" v="valley" />
		<tag k="place" v="locality" />
		<tag k="ssr:stedsnr" v="373923" />
	</node>
	<node lat="61.68481388446737" lon="6.634627777531735" id="-35910">
		<tag k="name" v="Støylselvane" />
		<tag k="ssr:stedsnr" v="373924" />
		<tag k="waterway" v="stream" />
	</node>
	<node lat="61.714483329831836" lon="6.243275003609571" id="-35911">
		<tag k="name" v="Jardalen" />
		<tag k="natural" v="valley" />
		<tag k="place" v="locality" />
		<tag k="ssr:stedsnr" v="374115" />
	</node>
	<node lat="61.630441670281556" lon="6.34636388283775" id="-35912">
		<tag k="fixme" v="consider natural=peak for the most distinct mountains in the district" />
		<tag k="name" v="Eggane" />
		<tag k="natural" v="hill" />
		<tag k="place" v="locality" />
		<tag k="ssr:stedsnr" v="374056" />
	</node>
	<node lat="61.70996666881754" lon="6.459863897468519" id="-35913">
		<tag k="name" v="Bøavatnet" />
		<tag k="natural" v="water" />
		<tag k="ssr:stedsnr" v="374096" />
	</node>
	<node lat="61.796819446391055" lon="6.319913880140681" id="-35914">
		<tag k="name" v="Skarshammarvatnet" />
		<tag k="natural" v="water" />
		<tag k="ssr:stedsnr" v="374100" />
	</node>
	<node lat="61.783661108352156" lon="6.408222218875873" id="-35915">
		<tag k="name" v="Aksla" />
		<tag k="natural" v="hill" />
		<tag k="place" v="locality" />
		<tag k="ssr:stedsnr" v="374206" />
	</node>
	<node lat="61.73345000443777" lon="6.278377783165613" id="-35916">
		<tag k="name" v="Tverrlielva" />
		<tag k="ssr:stedsnr" v="374140" />
		<tag k="waterway" v="stream" />
	</node>
	<node lat="61.66414166346538" lon="5.89702500677809" id="-35917">
		<tag k="name" v="Breivadelva" />
		<tag k="ssr:stedsnr" v="374315" />
		<tag k="waterway" v="stream" />
	</node>
	<node lat="61.688683336022166" lon="6.015583326201712" id="-35918">
		<tag k="name" v="Blåsevatnet" />
		<tag k="natural" v="water" />
		<tag k="ssr:stedsnr" v="374341" />
	</node>
	<node lat="61.70338888749103" lon="6.16398611382116" id="-35919">
		<tag k="name" v="Fitjeskaret" />
		<tag k="natural" v="valley" />
		<tag k="place" v="locality" />
		<tag k="ssr:stedsnr" v="374352" />
	</node>
	<node lat="61.68204444529301" lon="6.13243888147785" id="-35920">
		<tag k="name" v="Måsevasselva" />
		<tag k="ssr:stedsnr" v="374356" />
		<tag k="waterway" v="stream" />
	</node>
	<node lat="61.77561944313716" lon="6.721344436240128" id="-35921">
		<tag k="name" v="Svartebotnen" />
		<tag k="natural" v="valley" />
		<tag k="place" v="locality" />
		<tag k="ssr:stedsnr" v="374437" />
	</node>
	<node lat="61.807416670675686" lon="6.085374990587353" id="-35922">
		<tag k="name" v="Sandstranda" />
		<tag k="natural" v="beach" />
		<tag k="ssr:stedsnr" v="374703" />
	</node>
	<node lat="61.80597747667317" lon="6.167542890695939" id="-35923">
		<tag k="fixme" v="consider place=hamlet" />
		<tag k="name" v="Skor" />
		<tag k="place" v="farm" />
		<tag k="ssr:stedsnr" v="374705" />
	</node>
	<node lat="61.80053611420591" lon="5.862772229354402" id="-35924">
		<tag k="name" v="Gjegnalundsbreen" />
		<tag k="natural" v="glacier" />
		<tag k="ssr:stedsnr" v="374708" />
	</node>
	<node lat="61.78583888910843" lon="5.907000002543456" id="-35925">
		<tag k="name" v="Botnen" />
		<tag k="natural" v="valley" />
		<tag k="place" v="locality" />
		<tag k="ssr:stedsnr" v="374722" />
	</node>
	<node lat="61.787086115012485" lon="6.013761113039065" id="-35926">
		<tag k="fixme" v="consider natural=peak for the most distinct mountains in the district" />
		<tag k="name" v="Steinsvornykjane" />
		<tag k="natural" v="hill" />
		<tag k="place" v="locality" />
		<tag k="ssr:stedsnr" v="374727" />
	</node>
	<node lat="61.81275000437557" lon="6.063202771578039" id="-35927">
		<tag k="name" v="Kyrkjehaugen" />
		<tag k="natural" v="hill" />
		<tag k="place" v="locality" />
		<tag k="ssr:stedsnr" v="374700" />
	</node>
	<node lat="61.8127611089832" lon="6.131808329003064" id="-35928">
		<tag k="alt_name" v="Brynesteinvika" />
		<tag k="name" v="Brynesteinsvika" />
		<tag k="natural" v="bay" />
		<tag k="ssr:stedsnr" v="374701" />
	</node>
	<node lat="61.77077838459851" lon="6.155348384980411" id="-35929">
		<tag k="alt_name" v="Arnestad ytre" />
		<tag k="name" v="Ytre Arnestad" />
		<tag k="place" v="farm" />
		<tag k="ssr:stedsnr" v="395437" />
	</node>
	<node lat="61.743316668551955" lon="5.927849996600813" id="-35930">
		<tag k="name" v="Klubben" />
		<tag k="natural" v="cape" />
		<tag k="ssr:stedsnr" v="396203" />
	</node>
	<node lat="61.725438892471054" lon="5.826975007664532" id="-35931">
		<tag k="name" v="Korbelia" />
		<tag k="natural" v="slope" />
		<tag k="place" v="locality" />
		<tag k="ssr:stedsnr" v="396208" />
	</node>
	<node lat="61.66768610754485" lon="5.848577769281532" id="-35932">
		<tag k="name" v="Anemorbotnen" />
		<tag k="natural" v="valley" />
		<tag k="place" v="locality" />
		<tag k="ssr:stedsnr" v="396302" />
	</node>
	<node lat="61.68325277799524" lon="5.910730551734071" id="-35933">
		<tag k="name" v="Fjellgrova" />
		<tag k="ssr:stedsnr" v="396304" />
		<tag k="waterway" v="stream" />
	</node>
	<node lat="61.66712499920352" lon="5.925055558881578" id="-35934">
		<tag k="name" v="Storekleiva" />
		<tag k="natural" v="slope" />
		<tag k="place" v="locality" />
		<tag k="ssr:stedsnr" v="396311" />
	</node>
	<node lat="61.831227781351515" lon="6.001300002534823" id="-35935">
		<tag k="name" v="Høgeligrova" />
		<tag k="ssr:stedsnr" v="396377" />
		<tag k="waterway" v="stream" />
	</node>
	<node lat="61.70159999786615" lon="5.913655563299018" id="-35936">
		<tag k="name" v="Rekevika" />
		<tag k="natural" v="bay" />
		<tag k="ssr:stedsnr" v="396285" />
	</node>
	<node lat="61.68608611463546" lon="6.043805561905449" id="-35937">
		<tag k="name" v="Storemyrane" />
		<tag k="natural" v="wetland" />
		<tag k="ssr:stedsnr" v="396435" />
	</node>
	<node lat="61.68603055949857" lon="6.036102785498919" id="-35938">
		<tag k="name" v="Leirbakkane" />
		<tag k="natural" v="slope" />
		<tag k="place" v="locality" />
		<tag k="ssr:stedsnr" v="396437" />
	</node>
	<node lat="61.69269444644072" lon="6.0492416574855525" id="-35939">
		<tag k="name" v="Kupane" />
		<tag k="place" v="locality" />
		<tag k="ssr:stedsnr" v="396438" />
	</node>
	<node lat="61.77743888606206" lon="5.993461113096589" id="-35940">
		<tag k="name" v="Storehelleren" />
		<tag k="place" v="locality" />
		<tag k="ssr:stedsnr" v="396477" />
	</node>
	<node lat="61.63761388989528" lon="5.683772214607762" id="-35941">
		<tag k="name" v="Grønelia" />
		<tag k="natural" v="slope" />
		<tag k="place" v="locality" />
		<tag k="ssr:stedsnr" v="396499" />
	</node>
	<node lat="61.62964444292505" lon="5.897666662421744" id="-35942">
		<tag k="name" v="Kvanngrø" />
		<tag k="place" v="locality" />
		<tag k="ssr:stedsnr" v="396603" />
	</node>
	<node lat="61.633911106871516" lon="5.898319445714073" id="-35943">
		<tag k="name" v="Kviteberga" />
		<tag k="natural" v="hill" />
		<tag k="place" v="locality" />
		<tag k="ssr:stedsnr" v="396604" />
	</node>
	<node lat="61.63382777860841" lon="5.830511104829059" id="-35944">
		<tag k="name" v="Tjernmyra" />
		<tag k="natural" v="wetland" />
		<tag k="ssr:stedsnr" v="396610" />
	</node>
	<node lat="61.65721666533959" lon="5.80886111368782" id="-35945">
		<tag k="name" v="Furubotnen" />
		<tag k="natural" v="valley" />
		<tag k="place" v="locality" />
		<tag k="ssr:stedsnr" v="396702" />
	</node>
	<node lat="61.650386108861376" lon="5.7310222265215245" id="-35946">
		<tag k="fixme" v="consider natural=peak for the most distinct mountains in the district" />
		<tag k="name" v="Hjortesetfjellet" />
		<tag k="natural" v="hill" />
		<tag k="place" v="locality" />
		<tag k="ssr:stedsnr" v="396714" />
	</node>
	<node lat="61.765397221737196" lon="6.132977777455104" id="-35947">
		<tag k="name" v="Moøyane" />
		<tag k="place" v="locality" />
		<tag k="ssr:stedsnr" v="397011" />
	</node>
	<node lat="61.741519441439976" lon="6.143983332462581" id="-35948">
		<tag k="name" v="Osen" />
		<tag k="natural" v="bay" />
		<tag k="ssr:stedsnr" v="397080" />
	</node>
	<node lat="61.70740277767845" lon="6.101538896778459" id="-35949">
		<tag k="name" v="Botnane" />
		<tag k="natural" v="valley" />
		<tag k="place" v="locality" />
		<tag k="ssr:stedsnr" v="397091" />
	</node>
	<node lat="61.724566669222156" lon="6.165502782764703" id="-35950">
		<tag k="name" v="Ångsdalsneset" />
		<tag k="natural" v="cape" />
		<tag k="ssr:stedsnr" v="397094" />
	</node>
	<node lat="61.67557499812453" lon="6.055400007367042" id="-35951">
		<tag k="name" v="Vika" />
		<tag k="natural" v="bay" />
		<tag k="ssr:stedsnr" v="397100" />
	</node>
	<node lat="61.72199722154318" lon="6.304813880275066" id="-35952">
		<tag k="name" v="Bulegene" />
		<tag k="place" v="locality" />
		<tag k="ssr:stedsnr" v="397212" />
	</node>
	<node lat="61.847452773469506" lon="5.939930547064481" id="-35953">
		<tag k="name" v="Furenakken" />
		<tag k="natural" v="hill" />
		<tag k="place" v="locality" />
		<tag k="ssr:stedsnr" v="397443" />
	</node>
	<node lat="61.80905555371383" lon="5.986816676297615" id="-35954">
		<tag k="name" v="Nakkane" />
		<tag k="natural" v="hill" />
		<tag k="place" v="locality" />
		<tag k="ssr:stedsnr" v="397449" />
	</node>
	<node lat="61.67146689656536" lon="6.457531509342903" id="-35955">
		<tag k="name" v="Smottet" />
		<tag k="place" v="locality" />
		<tag k="ssr:stedsnr" v="397779" />
	</node>
	<node lat="61.67775277422417" lon="6.521405552122973" id="-35956">
		<tag k="name" v="Svora" />
		<tag k="natural" v="slope" />
		<tag k="place" v="locality" />
		<tag k="ssr:stedsnr" v="397783" />
	</node>
	<node lat="61.65826111450722" lon="6.44148333992244" id="-35957">
		<tag k="name" v="Sjølvskotdalen" />
		<tag k="natural" v="valley" />
		<tag k="place" v="locality" />
		<tag k="ssr:stedsnr" v="397786" />
	</node>
	<node lat="61.75138888836202" lon="6.410361107844191" id="-35958">
		<tag k="name" v="Fosseflata" />
		<tag k="place" v="locality" />
		<tag k="ssr:stedsnr" v="397795" />
	</node>
	<node lat="61.61655555804141" lon="5.658675002398848" id="-35959">
		<tag k="name" v="Griseryggmyra" />
		<tag k="natural" v="wetland" />
		<tag k="ssr:stedsnr" v="397903" />
	</node>
	<node lat="61.758547224379335" lon="6.313313880790387" id="-35960">
		<tag k="name" v="Knødeløypet" />
		<tag k="natural" v="hill" />
		<tag k="place" v="locality" />
		<tag k="ssr:stedsnr" v="397806" />
	</node>
	<node lat="61.75198610860165" lon="6.440238887095913" id="-35961">
		<tag k="name" v="Hellhammaren" />
		<tag k="natural" v="hill" />
		<tag k="place" v="locality" />
		<tag k="ssr:stedsnr" v="397834" />
	</node>
	<node lat="61.71395555678622" lon="6.418899996105164" id="-35962">
		<tag k="highway" v="path" />
		<tag k="name" v="Gjøttestien" />
		<tag k="ssr:stedsnr" v="397891" />
	</node>
	<node lat="61.705405559374114" lon="6.524686111867118" id="-35963">
		<tag k="name" v="Hjellesanden" />
		<tag k="place" v="locality" />
		<tag k="ssr:stedsnr" v="397894" />
	</node>
	<node lat="61.72021666230589" lon="6.604205557468335" id="-35964">
		<tag k="name" v="Øyrane" />
		<tag k="place" v="locality" />
		<tag k="ssr:stedsnr" v="397895" />
	</node>
	<node lat="61.78055833434259" lon="6.2070694487408975" id="-35965">
		<tag k="name" v="Øyravika" />
		<tag k="natural" v="shoal" />
		<tag k="place" v="locality" />
		<tag k="ssr:stedsnr" v="403981" />
	</node>
	<node lat="61.74608055933234" lon="6.3749444394165" id="-35966">
		<tag k="bridge" v="yes" />
		<tag k="layer" v="1" />
		<tag k="name" v="Sageflåten" />
		<tag k="ssr:stedsnr" v="411705" />
	</node>
	<node lat="61.78428055155601" lon="6.1152888863627215" id="-35967">
		<tag k="bridge" v="yes" />
		<tag k="layer" v="1" />
		<tag k="name" v="Kvitefella" />
		<tag k="ssr:stedsnr" v="411710" />
	</node>
	<node lat="61.76040278188484" lon="6.483230562089896" id="-35968">
		<tag k="name" v="Breimslia" />
		<tag k="place" v="neighbourhood" />
		<tag k="ssr:stedsnr" v="420612" />
	</node>
	<node lat="61.73003888510936" lon="5.792152779055522" id="-35969">
		<tag k="name" v="Langevatnet" />
		<tag k="natural" v="water" />
		<tag k="ssr:stedsnr" v="433626" />
	</node>
	<node lat="61.741063888934306" lon="5.635530558566881" id="-35970">
		<tag k="name" v="Ålfotbreen" />
		<tag k="natural" v="glacier" />
		<tag k="ssr:stedsnr" v="433632" />
	</node>
	<node lat="61.745605557090514" lon="5.789716662210088" id="-35971">
		<tag k="fixme" v="consider natural=peak for the most distinct mountains in the district" />
		<tag k="name" v="Gråfjellet" />
		<tag k="natural" v="hill" />
		<tag k="place" v="locality" />
		<tag k="ssr:stedsnr" v="433634" />
	</node>
	<node lat="61.617063892548614" lon="5.8635361116807365" id="-35972">
		<tag k="fixme" v="consider natural=peak for the most distinct mountains in the district" />
		<tag k="name" v="Tverrfjellet" />
		<tag k="natural" v="hill" />
		<tag k="place" v="locality" />
		<tag k="ssr:stedsnr" v="434227" />
	</node>
	<node lat="61.82511944576771" lon="6.288738883088892" id="-35973">
		<tag k="fixme" v="multiple name tags, choose one and add the other to alt_name" />
		<tag k="name" v="Svartevatnet;Demmevatnet" />
		<tag k="natural" v="water" />
		<tag k="ssr:stedsnr" v="434102" />
	</node>
	<node lat="61.6169944469795" lon="5.806549993680357" id="-35974">
		<tag k="name" v="Dyttingedalsvatnet" />
		<tag k="natural" v="water" />
		<tag k="ssr:stedsnr" v="434703" />
	</node>
	<node lat="61.770080555395644" lon="6.062402774389747" id="-35975">
		<tag k="name" v="Nonssteinsskaret" />
		<tag k="natural" v="valley" />
		<tag k="place" v="locality" />
		<tag k="ssr:stedsnr" v="434724" />
	</node>
	<node lat="61.696548303121894" lon="6.373077080596146" id="-35976">
		<tag k="fixme" v="consider place=hamlet" />
		<tag k="name" v="Nes" />
		<tag k="place" v="farm" />
		<tag k="ssr:stedsnr" v="435115" />
	</node>
	<node lat="61.72101666511774" lon="6.4809694511913065" id="-35977">
		<tag k="alt_name" v="Skarveelva" />
		<tag k="name" v="Skorva" />
		<tag k="ssr:stedsnr" v="435124" />
		<tag k="waterway" v="stream" />
	</node>
	<node lat="61.725024995650486" lon="6.232277774440235" id="-35978">
		<tag k="alt_name" v="Mardalstølen" />
		<tag k="historic" v="shieling" />
		<tag k="name" v="Mardalsstøylen" />
		<tag k="place" v="isolated_dwelling" />
		<tag k="ssr:stedsnr" v="435135" />
	</node>
	<node lat="61.72335833038649" lon="6.508519490670798" id="-35979">
		<tag k="fixme" v="consider place=hamlet" />
		<tag k="name" v="Teita" />
		<tag k="place" v="farm" />
		<tag k="ssr:stedsnr" v="435139" />
	</node>
	<node lat="61.726327780619876" lon="6.528963896842965" id="-35980">
		<tag k="name" v="Fuglaskredgrova" />
		<tag k="ssr:stedsnr" v="435142" />
		<tag k="waterway" v="stream" />
	</node>
	<node lat="61.66069721818806" lon="6.436916671549084" id="-35981">
		<tag k="alt_name" v="Holtane" />
		<tag k="name" v="Hovdene" />
		<tag k="natural" v="hill" />
		<tag k="place" v="locality" />
		<tag k="ssr:stedsnr" v="435084" />
	</node>
	<node lat="61.76635833314202" lon="6.273727785013804" id="-35982">
		<tag k="historic" v="shieling" />
		<tag k="name" v="Leirstøylen" />
		<tag k="place" v="isolated_dwelling" />
		<tag k="ssr:stedsnr" v="435215" />
	</node>
	<node lat="61.755711111484395" lon="6.24656389062411" id="-35983">
		<tag k="name" v="Eidsfossen" />
		<tag k="natural" v="waterfall" />
		<tag k="ssr:stedsnr" v="435163" />
	</node>
	<node lat="61.66389722412713" lon="5.968188897720439" id="-35984">
		<tag k="name" v="Gardsstøylgrova" />
		<tag k="ssr:stedsnr" v="435318" />
		<tag k="waterway" v="stream" />
	</node>
	<node lat="61.660055555361204" lon="5.877963883162125" id="-35985">
		<tag k="name" v="Botnagrova" />
		<tag k="ssr:stedsnr" v="435324" />
		<tag k="waterway" v="stream" />
	</node>
	<node lat="61.78764722155831" lon="6.6527361062567305" id="-35986">
		<tag k="name" v="Høgemannsdalen" />
		<tag k="natural" v="valley" />
		<tag k="place" v="locality" />
		<tag k="ssr:stedsnr" v="435370" />
	</node>
	<node lat="61.66589444789065" lon="5.857241661764415" id="-35987">
		<tag k="historic" v="shieling" />
		<tag k="name" v="Oppitunsstøylen" />
		<tag k="place" v="isolated_dwelling" />
		<tag k="ssr:stedsnr" v="435378" />
	</node>
	<node lat="61.670216664340515" lon="5.867102770265404" id="-35988">
		<tag k="name" v="Langevatnet" />
		<tag k="natural" v="water" />
		<tag k="ssr:stedsnr" v="435379" />
	</node>
	<node lat="61.693911111282276" lon="6.118972229331359" id="-35989">
		<tag k="name" v="Fosselva" />
		<tag k="ssr:stedsnr" v="435385" />
		<tag k="waterway" v="stream" />
	</node>
	<node lat="61.74253888911031" lon="6.141077769111159" id="-35990">
		<tag k="name" v="Tungelia" />
		<tag k="natural" v="slope" />
		<tag k="place" v="locality" />
		<tag k="ssr:stedsnr" v="435405" />
	</node>
	<node lat="61.69577777893882" lon="5.936811112429496" id="-35991">
		<tag k="name" v="Breidalsgrova" />
		<tag k="ssr:stedsnr" v="435411" />
		<tag k="waterway" v="stream" />
	</node>
	<node lat="61.7175888928544" lon="6.0377000073224645" id="-35992">
		<tag k="name" v="Ljoren" />
		<tag k="natural" v="valley" />
		<tag k="place" v="locality" />
		<tag k="ssr:stedsnr" v="435412" />
	</node>
	<node lat="61.85433736953619" lon="5.873970405312427" id="-35993">
		<tag k="fixme" v="consider place=hamlet" />
		<tag k="name" v="Årevika" />
		<tag k="place" v="farm" />
		<tag k="ssr:stedsnr" v="435661" />
	</node>
	<node lat="61.83351666499577" lon="6.183552782817853" id="-35994">
		<tag k="name" v="Ryssfjæra" />
		<tag k="natural" v="cape" />
		<tag k="ssr:stedsnr" v="435709" />
	</node>
	<node lat="61.81889378435281" lon="6.158991395459247" id="-35995">
		<tag k="fixme" v="consider place=hamlet" />
		<tag k="name" v="Åsebø" />
		<tag k="place" v="farm" />
		<tag k="ssr:stedsnr" v="435713" />
	</node>
	<node lat="61.81197500122913" lon="5.924136111123284" id="-35996">
		<tag k="name" v="Tverrelva" />
		<tag k="ssr:stedsnr" v="435722" />
		<tag k="waterway" v="stream" />
	</node>
	<node lat="61.780691664759054" lon="6.0254222189828575" id="-35997">
		<tag k="name" v="Osmundsnesskaret" />
		<tag k="natural" v="valley" />
		<tag k="place" v="locality" />
		<tag k="ssr:stedsnr" v="435759" />
	</node>
	<node lat="61.77654642317869" lon="5.977275266645886" id="-35998">
		<tag k="fixme" v="consider place=hamlet" />
		<tag k="name" v="Osmundneset" />
		<tag k="place" v="farm" />
		<tag k="ssr:stedsnr" v="435761" />
	</node>
	<node lat="61.7547527820741" lon="6.074608325214455" id="-35999">
		<tag k="name" v="Gjelsvikneset" />
		<tag k="natural" v="cape" />
		<tag k="ssr:stedsnr" v="435766" />
	</node>
	<node lat="61.63549999746239" lon="5.829319451028972" id="-36000">
		<tag k="name" v="Emhjelledalen" />
		<tag k="natural" v="valley" />
		<tag k="place" v="locality" />
		<tag k="ssr:stedsnr" v="494691" />
	</node>
	<node lat="61.71212499670192" lon="5.796969439937248" id="-36001">
		<tag k="name" v="Blåkollen" />
		<tag k="natural" v="hill" />
		<tag k="place" v="locality" />
		<tag k="ssr:stedsnr" v="494624" />
	</node>
	<node lat="61.688791667885006" lon="5.700344438392593" id="-36002">
		<tag k="name" v="Høgdene" />
		<tag k="natural" v="hill" />
		<tag k="place" v="locality" />
		<tag k="ssr:stedsnr" v="494635" />
	</node>
	<node lat="61.77038888874776" lon="5.943294437518635" id="-36003">
		<tag k="name" v="Røyskre" />
		<tag k="natural" v="valley" />
		<tag k="place" v="locality" />
		<tag k="ssr:stedsnr" v="457465" />
	</node>
	<node lat="61.83115833587603" lon="5.952183339524949" id="-36004">
		<tag k="name" v="Sollifonna" />
		<tag k="natural" v="slope" />
		<tag k="place" v="locality" />
		<tag k="ssr:stedsnr" v="457467" />
	</node>
	<node lat="61.69965277617209" lon="5.853713892788321" id="-36005">
		<tag k="name" v="Blåhammaren" />
		<tag k="natural" v="hill" />
		<tag k="place" v="locality" />
		<tag k="ssr:stedsnr" v="457304" />
	</node>
	<node lat="61.69092222097909" lon="5.874750009157554" id="-36006">
		<tag k="name" v="Nipedalen" />
		<tag k="natural" v="valley" />
		<tag k="place" v="locality" />
		<tag k="ssr:stedsnr" v="457305" />
	</node>
	<node lat="61.70364444653308" lon="5.917788898093686" id="-36007">
		<tag k="name" v="Trollkåreneset" />
		<tag k="natural" v="cape" />
		<tag k="ssr:stedsnr" v="457310" />
	</node>
	<node lat="61.6905861110632" lon="5.915630557739688" id="-36008">
		<tag k="name" v="Breiskora" />
		<tag k="place" v="locality" />
		<tag k="ssr:stedsnr" v="457311" />
	</node>
	<node lat="61.82970555805837" lon="6.044652782436645" id="-36009">
		<tag k="name" v="Storemyra" />
		<tag k="natural" v="wetland" />
		<tag k="ssr:stedsnr" v="457364" />
	</node>
	<node lat="61.82808610951174" lon="6.0051972270571365" id="-36010">
		<tag k="fixme" v="consider natural=peak for the most distinct mountains in the district" />
		<tag k="name" v="Høgelifjellet" />
		<tag k="natural" v="hill" />
		<tag k="place" v="locality" />
		<tag k="ssr:stedsnr" v="457381" />
	</node>
	<node lat="61.629674996862455" lon="5.674152783281719" id="-36011">
		<tag k="name" v="Langelibruna" />
		<tag k="place" v="locality" />
		<tag k="ssr:stedsnr" v="457504" />
	</node>
	<node lat="61.67326110939006" lon="5.787677775393117" id="-36012">
		<tag k="name" v="Ytsteelvholten" />
		<tag k="natural" v="hill" />
		<tag k="place" v="locality" />
		<tag k="ssr:stedsnr" v="457658" />
	</node>
	<node lat="61.7209249967761" lon="5.729333331023209" id="-36013">
		<tag k="name" v="Riset" />
		<tag k="place" v="locality" />
		<tag k="ssr:stedsnr" v="457663" />
	</node>
	<node lat="61.667074999943445" lon="5.799613882882636" id="-36014">
		<tag k="name" v="Espeset" />
		<tag k="place" v="locality" />
		<tag k="ssr:stedsnr" v="457665" />
	</node>
	<node lat="61.674083333489214" lon="5.804080557941538" id="-36015">
		<tag k="name" v="Bruravika" />
		<tag k="natural" v="bay" />
		<tag k="ssr:stedsnr" v="457666" />
	</node>
	<node lat="61.66260833684998" lon="5.778558324140475" id="-36016">
		<tag k="name" v="Nesjane" />
		<tag k="place" v="locality" />
		<tag k="ssr:stedsnr" v="457714" />
	</node>
	<node lat="61.64308333227561" lon="5.727997220321413" id="-36017">
		<tag k="name" v="Betnene" />
		<tag k="natural" v="valley" />
		<tag k="place" v="locality" />
		<tag k="ssr:stedsnr" v="457721" />
	</node>
	<node lat="61.64884721804968" lon="5.734216660456047" id="-36018">
		<tag k="name" v="Vardelihaugen" />
		<tag k="natural" v="hill" />
		<tag k="place" v="locality" />
		<tag k="ssr:stedsnr" v="457723" />
	</node>
	<node lat="61.76697221915386" lon="6.125677780438238" id="-36019">
		<tag k="name" v="Vetleelva" />
		<tag k="ssr:stedsnr" v="458012" />
		<tag k="waterway" v="river" />
	</node>
	<node lat="61.76202777063521" lon="6.128019870213699" id="-36020">
		<tag k="name" v="Mogjølet" />
		<tag k="natural" v="gorge" />
		<tag k="ssr:stedsnr" v="458014" />
	</node>
	<node lat="61.82365833016148" lon="6.149055556518803" id="-36021">
		<tag k="name" v="Vinddalen" />
		<tag k="natural" v="valley" />
		<tag k="place" v="locality" />
		<tag k="ssr:stedsnr" v="458064" />
	</node>
	<node lat="61.80248333553115" lon="6.074522229426766" id="-36022">
		<tag k="name" v="Hellegota" />
		<tag k="place" v="locality" />
		<tag k="ssr:stedsnr" v="458069" />
	</node>
	<node lat="61.798108334029024" lon="6.099086104981453" id="-36023">
		<tag k="name" v="Skorgeelva" />
		<tag k="ssr:stedsnr" v="458077" />
		<tag k="waterway" v="river" />
	</node>
	<node lat="61.707766667011306" lon="6.377813896696734" id="-36024">
		<tag k="name" v="Løypet" />
		<tag k="natural" v="slope" />
		<tag k="place" v="locality" />
		<tag k="ssr:stedsnr" v="458203" />
	</node>
	<node lat="61.719033337784595" lon="6.311625002573408" id="-36025">
		<tag k="name" v="Storekvilet" />
		<tag k="place" v="locality" />
		<tag k="ssr:stedsnr" v="458209" />
	</node>
	<node lat="61.730469442085635" lon="6.412155563004601" id="-36026">
		<tag k="name" v="Seimsgeilane" />
		<tag k="place" v="locality" />
		<tag k="ssr:stedsnr" v="458212" />
	</node>
	<node lat="61.7389444440192" lon="6.342047214695387" id="-36027">
		<tag k="historic" v="shieling" />
		<tag k="name" v="Rimstølen" />
		<tag k="place" v="isolated_dwelling" />
		<tag k="ssr:stedsnr" v="458219" />
	</node>
	<node lat="61.77393333123424" lon="6.13583611257468" id="-36028">
		<tag k="name" v="Sjøaråka" />
		<tag k="place" v="locality" />
		<tag k="ssr:stedsnr" v="458112" />
	</node>
	<node lat="61.774297223179275" lon="6.120699996554875" id="-36029">
		<tag k="name" v="Gamlehaugen" />
		<tag k="natural" v="hill" />
		<tag k="place" v="locality" />
		<tag k="ssr:stedsnr" v="458115" />
	</node>
	<node lat="61.79080555403767" lon="6.079330556171459" id="-36030">
		<tag k="historic" v="shieling" />
		<tag k="name" v="Gamlestølen" />
		<tag k="place" v="isolated_dwelling" />
		<tag k="ssr:stedsnr" v="458123" />
	</node>
	<node lat="61.69636944229331" lon="6.334394443635318" id="-36031">
		<tag k="fixme" v="consider highway=path" />
		<tag k="highway" v="track" />
		<tag k="name" v="Stølsvegen" />
		<tag k="ssr:stedsnr" v="458175" />
	</node>
	<node lat="61.84332778173702" lon="5.979277770579645" id="-36032">
		<tag k="name" v="Løypeelva" />
		<tag k="ssr:stedsnr" v="458475" />
		<tag k="waterway" v="stream" />
	</node>
	<node lat="61.650477777131464" lon="6.512008329671198" id="-36033">
		<tag k="name" v="Blåura" />
		<tag k="natural" v="scree" />
		<tag k="ssr:stedsnr" v="458823" />
	</node>
	<node lat="61.73719444853079" lon="6.5073055567027644" id="-36034">
		<tag k="name" v="Maurhesjebakken" />
		<tag k="natural" v="slope" />
		<tag k="place" v="locality" />
		<tag k="ssr:stedsnr" v="458874" />
	</node>
	<node lat="61.69829167016447" lon="6.622744441680116" id="-36035">
		<tag k="name" v="Leitet" />
		<tag k="place" v="locality" />
		<tag k="ssr:stedsnr" v="458927" />
	</node>
	<node lat="61.741441663474546" lon="6.553008341127469" id="-36036">
		<tag k="name" v="Uraneset" />
		<tag k="natural" v="cape" />
		<tag k="ssr:stedsnr" v="458929" />
	</node>
	<node lat="61.68266666894057" lon="6.54860833034888" id="-36037">
		<tag k="name" v="Teigen" />
		<tag k="place" v="locality" />
		<tag k="ssr:stedsnr" v="458932" />
	</node>
	<node lat="61.73760555367573" lon="6.598163891741742" id="-36038">
		<tag k="name" v="Tøllen" />
		<tag k="natural" v="slope" />
		<tag k="place" v="locality" />
		<tag k="ssr:stedsnr" v="458941" />
	</node>
	<node lat="61.75210555138118" lon="5.949719441444811" id="-36039">
		<tag k="name" v="Gjærvika" />
		<tag k="natural" v="bay" />
		<tag k="ssr:stedsnr" v="464074" />
	</node>
	<node lat="61.82486388475477" lon="5.97555000123803" id="-36040">
		<tag k="name" v="Skjerdalshamrane" />
		<tag k="natural" v="cape" />
		<tag k="ssr:stedsnr" v="464158" />
	</node>
	<node lat="61.84148611531993" lon="6.09352777672605" id="-36041">
		<tag k="name" v="Verpingsvika" />
		<tag k="natural" v="bay" />
		<tag k="ssr:stedsnr" v="464957" />
	</node>
	<node lat="61.68365277781973" lon="5.802191664411585" id="-36042">
		<tag k="fixme" v="consider natural=peak for the most distinct mountains in the district" />
		<tag k="name" v="Åsane" />
		<tag k="natural" v="hill" />
		<tag k="place" v="locality" />
		<tag k="ssr:stedsnr" v="676656" />
	</node>
	<node lat="61.620791668722724" lon="5.705211111085539" id="-36043">
		<tag k="name" v="Solvang" />
		<tag k="place" v="farm" />
		<tag k="ssr:stedsnr" v="676728" />
	</node>
	<node lat="61.65481666407645" lon="6.556002784459988" id="-36044">
		<tag k="name" v="Øvredalsvatnet" />
		<tag k="natural" v="water" />
		<tag k="ssr:stedsnr" v="677051" />
	</node>
	<node lat="61.65369444198117" lon="6.486019448101316" id="-36045">
		<tag k="name" v="Svartevatnet" />
		<tag k="natural" v="water" />
		<tag k="ssr:stedsnr" v="677056" />
	</node>
	<node lat="61.670533687611666" lon="6.438474655489843" id="-36046">
		<tag k="fixme" v="consider place=hamlet" />
		<tag k="name" v="Frøystad" />
		<tag k="place" v="farm" />
		<tag k="ssr:stedsnr" v="677061" />
	</node>
	<node lat="61.661858334965906" lon="6.344802770528445" id="-36047">
		<tag k="name" v="Blådalselva" />
		<tag k="ssr:stedsnr" v="677072" />
		<tag k="waterway" v="stream" />
	</node>
	<node lat="61.65815555506634" lon="6.248805552920055" id="-36048">
		<tag k="name" v="Steinbotnen" />
		<tag k="natural" v="valley" />
		<tag k="place" v="locality" />
		<tag k="ssr:stedsnr" v="677075" />
	</node>
	<node lat="61.6751011680022" lon="6.283253901652357" id="-36049">
		<tag k="name" v="Sørsendalsvatna" />
		<tag k="natural" v="water" />
		<tag k="ssr:stedsnr" v="677077" />
		<tag k="water" v="lake" />
	</node>
	<node lat="61.741212499486025" lon="6.441818514134265" id="-36050">
		<tag k="fixme" v="consider place=hamlet" />
		<tag k="name" v="Skrøppa" />
		<tag k="place" v="farm" />
		<tag k="ssr:stedsnr" v="677123" />
	</node>
	<node lat="61.76341944861835" lon="6.530616673106922" id="-36051">
		<tag k="fixme" v="consider natural=peak for the most distinct mountains in the district" />
		<tag k="name" v="Støyvafjellet" />
		<tag k="natural" v="hill" />
		<tag k="place" v="locality" />
		<tag k="ssr:stedsnr" v="677150" />
	</node>
	<node lat="61.7652388864947" lon="6.492311112318161" id="-36052">
		<tag k="name" v="Vesletjønna" />
		<tag k="natural" v="water" />
		<tag k="ssr:stedsnr" v="677152" />
	</node>
	<node lat="61.79024721799166" lon="6.442602777332468" id="-36053">
		<tag k="name" v="Hytteranten" />
		<tag k="place" v="locality" />
		<tag k="ssr:stedsnr" v="677164" />
	</node>
	<node lat="61.787302775905275" lon="6.417136109038503" id="-36054">
		<tag k="fixme" v="consider natural=peak for the most distinct mountains in the district" />
		<tag k="name" v="Snøfjellet" />
		<tag k="natural" v="hill" />
		<tag k="place" v="locality" />
		<tag k="ssr:stedsnr" v="677167" />
	</node>
	<node lat="61.68583888947392" lon="5.9968305591188935" id="-36055">
		<tag k="name" v="Vasslia" />
		<tag k="natural" v="slope" />
		<tag k="place" v="locality" />
		<tag k="ssr:stedsnr" v="677292" />
	</node>
	<node lat="61.69229166962279" lon="6.061122224503866" id="-36056">
		<tag k="name" v="Kupa" />
		<tag k="natural" v="hill" />
		<tag k="place" v="locality" />
		<tag k="ssr:stedsnr" v="677294" />
	</node>
	<node lat="61.68836667115709" lon="6.061155560089902" id="-36057">
		<tag k="name" v="Skaret" />
		<tag k="natural" v="valley" />
		<tag k="place" v="locality" />
		<tag k="ssr:stedsnr" v="677296" />
	</node>
	<node lat="61.69543333659763" lon="6.154538897719275" id="-36058">
		<tag k="fixme" v="consider natural=peak for the most distinct mountains in the district" />
		<tag k="name" v="Langelvfjella" />
		<tag k="natural" v="hill" />
		<tag k="place" v="locality" />
		<tag k="ssr:stedsnr" v="677311" />
	</node>
	<node lat="61.72532500264718" lon="5.9606611106484095" id="-36059">
		<tag k="name" v="Ådalen" />
		<tag k="natural" v="valley" />
		<tag k="place" v="locality" />
		<tag k="ssr:stedsnr" v="677320" />
	</node>
	<node lat="61.76797500380796" lon="5.925786118601595" id="-36060">
		<tag k="name" v="Teineklubben" />
		<tag k="natural" v="hill" />
		<tag k="place" v="locality" />
		<tag k="ssr:stedsnr" v="677743" />
	</node>
	<node lat="61.779202778982715" lon="5.940294437382177" id="-36061">
		<tag k="name" v="Selvågssvora" />
		<tag k="ssr:stedsnr" v="677746" />
		<tag k="waterway" v="stream" />
	</node>
	<node lat="61.83091111460011" lon="6.010255552701828" id="-36062">
		<tag k="historic" v="shieling" />
		<tag k="name" v="Eikenesstøylen" />
		<tag k="place" v="isolated_dwelling" />
		<tag k="ssr:stedsnr" v="677648" />
	</node>
	<node lat="61.830363892733665" lon="5.872716671524307" id="-36063">
		<tag k="name" v="Middagsvatnet" />
		<tag k="natural" v="water" />
		<tag k="ssr:stedsnr" v="677651" />
	</node>
	<node lat="61.82921335130598" lon="6.050656234943768" id="-36064">
		<tag k="fixme" v="consider place=hamlet" />
		<tag k="name" v="Devik" />
		<tag k="place" v="farm" />
		<tag k="ssr:stedsnr" v="677665" />
	</node>
	<node lat="61.71336388958077" lon="6.608230558114473" id="-36065">
		<tag k="name" v="Storelva" />
		<tag k="ssr:stedsnr" v="677706" />
		<tag k="waterway" v="river" />
	</node>
	<node lat="61.73224999935765" lon="6.488383342540958" id="-36066">
		<tag k="name" v="Storelva" />
		<tag k="ssr:stedsnr" v="677710" />
		<tag k="waterway" v="river" />
	</node>
	<node lat="61.79869444204367" lon="6.066802785483667" id="-36067">
		<tag k="historic" v="shieling" />
		<tag k="name" v="Sandstøylen" />
		<tag k="place" v="isolated_dwelling" />
		<tag k="ssr:stedsnr" v="677718" />
	</node>
	<node lat="61.807333332753025" lon="6.18781110679707" id="-36068">
		<tag k="historic" v="shieling" />
		<tag k="name" v="Almsstøylen" />
		<tag k="place" v="isolated_dwelling" />
		<tag k="ssr:stedsnr" v="677721" />
	</node>
	<node lat="61.81478889046548" lon="6.2044500074975515" id="-36069">
		<tag k="name" v="Lomvatnet" />
		<tag k="natural" v="water" />
		<tag k="ssr:stedsnr" v="677722" />
	</node>
	<node lat="61.753886112279" lon="6.02215556378656" id="-36070">
		<tag k="fixme" v="consider natural=peak for the most distinct mountains in the district" />
		<tag k="name" v="Grovanestårnet" />
		<tag k="natural" v="hill" />
		<tag k="place" v="locality" />
		<tag k="ssr:stedsnr" v="677758" />
	</node>
	<node lat="61.65898888575434" lon="6.644252771097885" id="-36071">
		<tag k="name" v="Sandgrova" />
		<tag k="ssr:stedsnr" v="677945" />
		<tag k="waterway" v="stream" />
	</node>
	<node lat="61.76641110754947" lon="6.461902782195405" id="-36072">
		<tag k="name" v="Nonssteinen" />
		<tag k="natural" v="hill" />
		<tag k="place" v="locality" />
		<tag k="ssr:stedsnr" v="678140" />
	</node>
	<node lat="61.756733336959954" lon="6.566705550810606" id="-36073">
		<tag k="fixme" v="consider natural=peak for the most distinct mountains in the district" />
		<tag k="name" v="Styggefjellet" />
		<tag k="natural" v="hill" />
		<tag k="place" v="locality" />
		<tag k="ssr:stedsnr" v="678247" />
	</node>
</osm>
