<?xml version="1.0" encoding="UTF-8"?>
<osm generator="osmapis" version="0.6">
	<node id="-683678" lat="61.8078388868" lon="6.14136389101">
		<tag k="alt_name" v="Vereide" />
		<tag k="amenity" v="place_of_worship" />
		<tag k="denomination" v="lutheran" />
		<tag k="name" v="Vereide kyrkje" />
		<tag k="religion" v="christian" />
		<tag k="ssr:stedsnr" v="10719" />
	</node>
	<node id="-682584" lat="61.7817888901" lon="6.22635555211">
		<tag k="name" v="Utsikten" />
		<tag k="ssr:stedsnr" v="270707" />
		<tag k="tourism" v="attraction" />
	</node>
	<node id="-683350" lat="61.6905555568" lon="5.80358611102">
		<tag k="name" v="Demma" />
		<tag k="place" v="locality" />
		<tag k="ssr:stedsnr" v="919640" />
	</node>
	<node id="-685074" lat="61.7722891757" lon="6.14388505018">
		<tag k="amenity" v="place_of_worship" />
		<tag k="denomination" v="lutheran" />
		<tag k="name" v="Gimmestad gamle kyrkje" />
		<tag k="religion" v="christian" />
		<tag k="ssr:stedsnr" v="991239" />
	</node>
	<node id="-684205" lat="61.7394361149" lon="5.91830832854">
		<tag k="alt_name" v="Hyen Kirke;Hyen" />
		<tag k="amenity" v="place_of_worship" />
		<tag k="denomination" v="lutheran" />
		<tag k="name" v="Hyen kyrkje" />
		<tag k="religion" v="christian" />
		<tag k="ssr:stedsnr" v="311438" />
	</node>
	<node id="-682214" lat="61.7336361122" lon="6.40799999896">
		<tag k="alt_name" v="Breim" />
		<tag k="amenity" v="place_of_worship" />
		<tag k="denomination" v="lutheran" />
		<tag k="name" v="Breim kyrkje" />
		<tag k="religion" v="christian" />
		<tag k="ssr:stedsnr" v="10119" />
	</node>
	<node id="-682294" lat="61.7718895214" lon="6.15673061969">
		<tag k="alt_name" v="Gimmestad" />
		<tag k="amenity" v="place_of_worship" />
		<tag k="denomination" v="lutheran" />
		<tag k="name" v="Gimmestad kyrkje" />
		<tag k="old_name" v="Gjemmestad" />
		<tag k="religion" v="christian" />
		<tag k="ssr:stedsnr" v="252746" />
	</node>
	<node id="-682369" lat="61.6440555521" lon="5.7032972246">
		<tag k="name" v="Rusta" />
		<tag k="place" v="locality" />
		<tag k="ssr:stedsnr" v="141703" />
	</node>
</osm>
