<?xml version="1.0" encoding="UTF-8"?>
<osm version="0.6" generator="osmapis">
	<node id="727833562" lat="65.5848263" lon="13.3934309" version="3" timestamp="2022-06-18T21:24:54Z" changeset="122561500" uid="3497659" user="NKA">
		<tag k="name" v="Grane" />
		<tag k="name:no" v="Grane" />
		<tag k="name:sma" v="Gaala" />
		<tag k="name:smj" v="Gaala" />
		<tag k="place" v="village" />
		<tag k="ssr:stedsnr" v="744577" />
	</node>
	<node id="1649221413" lat="65.5387083" lon="13.3864306" version="5" timestamp="2022-06-18T21:24:54Z" changeset="122561500" uid="3497659" user="NKA">
		<tag k="name" v="Trofors" />
		<tag k="place" v="village" />
		<tag k="population" v="832" />
		<tag k="population:date" v="2021-01-01" />
		<tag k="ref:ssb_tettsted" v="7591" />
		<tag k="source:population" v="SSB - befolkning i tettstedet" />
		<tag k="ssr:stedsnr" v="258341" />
	</node>
	<node id="1650951843" lat="65.4577144" lon="13.4029531" version="2" timestamp="2022-06-18T21:24:54Z" changeset="122561500" uid="3497659" user="NKA">
		<tag k="alt_name" v="Svenningdalen, øvre;Svenningdal Øvre" />
		<tag k="name" v="Øvre Svenningdalen" />
		<tag k="place" v="hamlet" />
		<tag k="ssr:stedsnr" v="440961" />
	</node>
	<node id="1668897158" lat="65.1684652" lon="13.3694508" version="5" timestamp="2022-06-18T21:24:54Z" changeset="122561500" uid="3497659" user="NKA">
		<tag k="name" v="Majavatn - Maajehjaevrie" />
		<tag k="name:no" v="Majavatn" />
		<tag k="name:se" v="Maajehjaevrie" />
		<tag k="name:sma" v="Maajehjaevrie" />
		<tag k="place" v="village" />
		<tag k="ssr:stedsnr" v="682742" />
	</node>
	<node id="1794677958" lat="65.3864994" lon="13.3665131" version="4" timestamp="2022-06-18T21:24:54Z" changeset="122561500" uid="3497659" user="NKA">
		<tag k="name" v="Brenna" />
		<tag k="place" v="farm" />
		<tag k="ssr:stedsnr" v="743914" />
	</node>
	<node id="2084696314" lat="65.3072904" lon="13.3112384" version="6" timestamp="2022-06-18T21:24:54Z" changeset="122561500" uid="3497659" user="NKA">
		<tag k="name" v="Holmvassåsen" />
		<tag k="place" v="farm" />
		<tag k="ssr:stedsnr" v="622839" />
	</node>
	<node id="2085750864" lat="65.3505088" lon="13.3409777" version="3" timestamp="2022-06-18T21:24:54Z" changeset="122561500" uid="3497659" user="NKA">
		<tag k="name" v="Holmvassdalen" />
		<tag k="place" v="hamlet" />
		<tag k="ssr:stedsnr" v="743895" />
	</node>
	<node id="2090388628" lat="65.2226856" lon="13.3608151" version="5" timestamp="2022-06-18T21:24:54Z" changeset="122561500" uid="3497659" user="NKA">
		<tag k="name" v="Kappfjellia" />
		<tag k="place" v="hamlet" />
		<tag k="ssr:stedsnr" v="743758" />
	</node>
	<node id="2731039944" lat="65.4124082" lon="13.3885287" version="2" timestamp="2022-06-18T21:24:54Z" changeset="122561500" uid="3497659" user="NKA">
		<tag k="alt_name" v="Kappskarmo" />
		<tag k="name" v="Kappskardmoen" />
		<tag k="place" v="farm" />
		<tag k="ssr:stedsnr" v="379919" />
	</node>
	<node id="2731039954" lat="65.2631543" lon="13.3372342" version="2" timestamp="2022-06-18T21:24:54Z" changeset="122561500" uid="3497659" user="NKA">
		<tag k="name" v="Kjerringvatnet" />
		<tag k="place" v="hamlet" />
		<tag k="ssr:stedsnr" v="804863" />
	</node>
	<node id="2731039964" lat="65.3777969" lon="13.3589292" version="2" timestamp="2022-06-18T21:24:54Z" changeset="122561500" uid="3497659" user="NKA">
		<tag k="name" v="Vasselv" />
		<tag k="place" v="farm" />
		<tag k="ssr:stedsnr" v="76902" />
	</node>
	<node id="2731039969" lat="65.2999178" lon="13.3419827" version="3" timestamp="2022-06-18T21:24:54Z" changeset="122561500" uid="3497659" user="NKA">
		<tag k="name" v="Svenningrud" />
		<tag k="place" v="farm" />
		<tag k="ssr:stedsnr" v="561858" />
	</node>
	<node id="2731053131" lat="65.5929997" lon="13.3874807" version="2" timestamp="2022-06-18T21:24:54Z" changeset="122561500" uid="3497659" user="NKA">
		<tag k="name" v="Gluggvasshaugen" />
		<tag k="place" v="hamlet" />
		<tag k="ssr:stedsnr" v="787315" />
	</node>
	<node id="2731053141" lat="65.5295135" lon="13.3954543" version="2" timestamp="2022-06-18T21:24:54Z" changeset="122561500" uid="3497659" user="NKA">
		<tag k="name" v="Båfjellmoen" />
		<tag k="place" v="farm" />
		<tag k="ssr:stedsnr" v="440389" />
	</node>
	<node id="2731053151" lat="65.55145" lon="13.3957862" version="2" timestamp="2022-06-18T21:24:54Z" changeset="122561500" uid="3497659" user="NKA">
		<tag k="name" v="Fellingfors" />
		<tag k="place" v="hamlet" />
		<tag k="ssr:stedsnr" v="136366" />
	</node>
	<node id="2732088501" lat="65.2662514" lon="13.4473032" version="2" timestamp="2022-06-18T21:24:54Z" changeset="122561500" uid="3497659" user="NKA">
		<tag k="name" v="Kvannlia - Eerhtsege" />
		<tag k="name:no" v="Kvannlia" />
		<tag k="name:sma" v="Eerhtsege" />
		<tag k="place" v="farm" />
		<tag k="ssr:stedsnr" v="137831" />
	</node>
	<node id="3657157747" lat="65.5181787" lon="13.6240545" version="2" timestamp="2022-06-18T21:24:54Z" changeset="122561500" uid="3497659" user="NKA">
		<tag k="alt_name" v="Kløvimo" />
		<tag k="name" v="Kløvimoen" />
		<tag k="place" v="farm" />
		<tag k="ssr:stedsnr" v="622355" />
	</node>
	<node id="3657157748" lat="65.424956" lon="13.6609225" version="2" timestamp="2022-06-18T21:24:54Z" changeset="122561500" uid="3497659" user="NKA">
		<tag k="alt_name" v="Leira" />
		<tag k="name" v="Leiren" />
		<tag k="place" v="hamlet" />
		<tag k="ssr:stedsnr" v="513054" />
	</node>
	<node id="4278122274" lat="65.1753907" lon="13.3737396" version="2" timestamp="2022-06-18T21:24:54Z" changeset="122561500" uid="3497659" user="NKA">
		<tag k="name" v="Flyum" />
		<tag k="place" v="hamlet" />
		<tag k="ssr:stedsnr" v="804719" />
	</node>
	<node id="4278133112" lat="65.1369139" lon="13.3531778" version="2" timestamp="2022-06-18T21:24:54Z" changeset="122561500" uid="3497659" user="NKA">
		<tag k="name" v="Majahaugen" />
		<tag k="place" v="farm" />
		<tag k="ssr:stedsnr" v="500745" />
	</node>
	<node id="4278133117" lat="65.1462043" lon="13.3308087" version="2" timestamp="2022-06-18T21:24:54Z" changeset="122561500" uid="3497659" user="NKA">
		<tag k="name" v="Grannes" />
		<tag k="place" v="isolated_dwelling" />
		<tag k="ssr:stedsnr" v="257743" />
	</node>
	<node id="9063498530" lat="65.376124" lon="13.364323" version="2" timestamp="2022-01-26T06:22:04Z" changeset="116610177" uid="3497659" user="NKA">
		<tag k="junction" v="yes" />
		<tag k="name" v="Toskrysset" />
		<tag k="ssr:stedsnr" v="362766" />
	</node>
	<node id="9829138751" lat="65.5952361" lon="13.3728418" version="1" timestamp="2022-06-18T21:24:54Z" changeset="122561500" uid="3497659" user="NKA">
		<tag k="name" v="Storsletta" />
		<tag k="place" v="farm" />
		<tag k="ssr:stedsnr" v="823877" />
	</node>
	<node id="9829138752" lat="65.5335667" lon="13.4088639" version="1" timestamp="2022-06-18T21:24:54Z" changeset="122561500" uid="3497659" user="NKA">
		<tag k="name" v="Aspneset" />
		<tag k="place" v="quarter" />
		<tag k="ssr:stedsnr" v="155610" />
	</node>
	<node id="9829138753" lat="65.6686366" lon="13.2653527" version="1" timestamp="2022-06-18T21:24:54Z" changeset="122561500" uid="3497659" user="NKA">
		<tag k="alt_name" v="Fallmoen, øvre;Øvre Fallmoen" />
		<tag k="name" v="Øvre Fallmo" />
		<tag k="place" v="farm" />
		<tag k="ssr:stedsnr" v="683712" />
	</node>
	<node id="9829138754" lat="65.6771156" lon="13.2598342" version="1" timestamp="2022-06-18T21:24:54Z" changeset="122561500" uid="3497659" user="NKA">
		<tag k="name" v="Buvang" />
		<tag k="place" v="farm" />
		<tag k="ssr:stedsnr" v="519491" />
	</node>
	<node id="9829138755" lat="65.4607473" lon="13.3955278" version="1" timestamp="2022-06-18T21:24:54Z" changeset="122561500" uid="3497659" user="NKA">
		<tag k="name" v="Båtneset" />
		<tag k="place" v="farm" />
		<tag k="ssr:stedsnr" v="822222" />
	</node>
	<node id="9829138756" lat="65.4566972" lon="13.3991416" version="1" timestamp="2022-06-18T21:24:54Z" changeset="122561500" uid="3497659" user="NKA">
		<tag k="name" v="Innigarden" />
		<tag k="place" v="farm" />
		<tag k="ssr:stedsnr" v="137960" />
	</node>
	<node id="9829138757" lat="65.5038667" lon="13.3222639" version="1" timestamp="2022-06-18T21:24:54Z" changeset="122561500" uid="3497659" user="NKA">
		<tag k="name" v="Øvre Svenningdalsætra" />
		<tag k="place" v="locality" />
		<tag k="ssr:stedsnr" v="500315" />
	</node>
	<node id="9829138758" lat="65.6493222" lon="13.4197362" version="1" timestamp="2022-06-18T21:24:54Z" changeset="122561500" uid="3497659" user="NKA">
		<tag k="alt_name" v="Johansætra" />
		<tag k="name" v="Johansetra" />
		<tag k="place" v="isolated_dwelling" />
		<tag k="ssr:stedsnr" v="440555" />
	</node>
	<node id="9829138759" lat="65.6002269" lon="13.3821335" version="1" timestamp="2022-06-18T21:24:54Z" changeset="122561500" uid="3497659" user="NKA">
		<tag k="name" v="Brenna" />
		<tag k="place" v="farm" />
		<tag k="ssr:stedsnr" v="744590" />
	</node>
	<node id="9829138760" lat="65.6229039" lon="13.4328452" version="1" timestamp="2022-06-18T21:24:54Z" changeset="122561500" uid="3497659" user="NKA">
		<tag k="name" v="Almmoen" />
		<tag k="place" v="farm" />
		<tag k="ssr:stedsnr" v="440518" />
	</node>
	<node id="9829138761" lat="65.5749639" lon="13.3990944" version="1" timestamp="2022-06-18T21:24:54Z" changeset="122561500" uid="3497659" user="NKA">
		<tag k="name" v="Kvannslettmoen" />
		<tag k="place" v="farm" />
		<tag k="ssr:stedsnr" v="76610" />
	</node>
	<node id="9829138762" lat="65.5764229" lon="13.400996" version="1" timestamp="2022-06-18T21:24:54Z" changeset="122561500" uid="3497659" user="NKA">
		<tag k="name" v="Erikstad" />
		<tag k="place" v="farm" />
		<tag k="ssr:stedsnr" v="397448" />
	</node>
	<node id="9829138763" lat="65.657475" lon="13.4189584" version="1" timestamp="2022-06-18T21:24:54Z" changeset="122561500" uid="3497659" user="NKA">
		<tag k="historic" v="shieling" />
		<tag k="name" v="Nord-gammelsetra" />
		<tag k="place" v="isolated_dwelling" />
		<tag k="ssr:stedsnr" v="701641" />
	</node>
	<node id="9829138764" lat="65.1347527" lon="13.3449242" version="1" timestamp="2022-06-18T21:24:54Z" changeset="122561500" uid="3497659" user="NKA">
		<tag k="name" v="Langås" />
		<tag k="place" v="farm" />
		<tag k="ssr:stedsnr" v="925721" />
	</node>
	<node id="9829138765" lat="65.5717917" lon="13.4015417" version="1" timestamp="2022-06-18T21:24:54Z" changeset="122561500" uid="3497659" user="NKA">
		<tag k="name" v="Osbakken" />
		<tag k="place" v="farm" />
		<tag k="ssr:stedsnr" v="94486" />
	</node>
	<node id="9829138766" lat="65.6830252" lon="13.242049" version="1" timestamp="2022-06-18T21:24:54Z" changeset="122561500" uid="3497659" user="NKA">
		<tag k="alt_name" v="Turmo" />
		<tag k="name" v="Turmoen" />
		<tag k="place" v="farm" />
		<tag k="ssr:stedsnr" v="804720" />
	</node>
	<node id="9829138767" lat="65.6762164" lon="13.2575069" version="1" timestamp="2022-06-18T21:24:54Z" changeset="122561500" uid="3497659" user="NKA">
		<tag k="alt_name" v="Fallmoen, nedre;Nedre Fallmoen" />
		<tag k="name" v="Nedre Fallmo" />
		<tag k="place" v="farm" />
		<tag k="ssr:stedsnr" v="683703" />
	</node>
	<node id="9829138768" lat="65.620091" lon="13.2963534" version="1" timestamp="2022-06-18T21:24:54Z" changeset="122561500" uid="3497659" user="NKA">
		<tag k="name" v="Laksforsmoen" />
		<tag k="place" v="hamlet" />
		<tag k="ssr:stedsnr" v="197564" />
	</node>
	<node id="9829138769" lat="65.5234443" lon="13.3946364" version="1" timestamp="2022-06-18T21:24:54Z" changeset="122561500" uid="3497659" user="NKA">
		<tag k="alt_name" v="Fossheim" />
		<tag k="name" v="Forsheim" />
		<tag k="place" v="farm" />
		<tag k="ssr:stedsnr" v="440401" />
	</node>
	<node id="9829138770" lat="65.6712857" lon="13.2601235" version="1" timestamp="2022-06-18T21:24:54Z" changeset="122561500" uid="3497659" user="NKA">
		<tag k="name" v="Ostun" />
		<tag k="place" v="farm" />
		<tag k="ssr:stedsnr" v="319720" />
	</node>
	<node id="9829138771" lat="65.6200713" lon="13.2926938" version="1" timestamp="2022-06-18T21:24:54Z" changeset="122561500" uid="3497659" user="NKA">
		<tag k="name" v="Nordre Laksforsmo" />
		<tag k="place" v="farm" />
		<tag k="ssr:stedsnr" v="990413" />
	</node>
	<node id="9829138772" lat="65.1241722" lon="13.3804582" version="1" timestamp="2022-06-18T21:24:54Z" changeset="122561500" uid="3497659" user="NKA">
		<tag k="name" v="Vårtun" />
		<tag k="place" v="farm" />
		<tag k="ssr:stedsnr" v="76666" />
	</node>
	<node id="9829138773" lat="65.5958417" lon="13.3850332" version="1" timestamp="2022-06-18T21:24:54Z" changeset="122561500" uid="3497659" user="NKA">
		<tag k="loc_name" v="Grøftholen" />
		<tag k="name" v="Haugen" />
		<tag k="place" v="farm" />
		<tag k="ssr:stedsnr" v="605323" />
	</node>
	<node id="9829138774" lat="65.2223778" lon="13.3956584" version="1" timestamp="2022-06-18T21:24:54Z" changeset="122561500" uid="3497659" user="NKA">
		<tag k="name" v="Bjortjønnlia" />
		<tag k="place" v="farm" />
		<tag k="ssr:stedsnr" v="75788" />
	</node>
	<node id="9829138775" lat="65.633404" lon="13.2657562" version="1" timestamp="2022-06-18T21:24:54Z" changeset="122561500" uid="3497659" user="NKA">
		<tag k="alt_name" v="Laksfors, nedre" />
		<tag k="name" v="Nedre Laksfors" />
		<tag k="place" v="farm" />
		<tag k="ssr:stedsnr" v="682576" />
	</node>
	<node id="9829138776" lat="65.4093296" lon="13.3800218" version="1" timestamp="2022-06-18T21:24:54Z" changeset="122561500" uid="3497659" user="NKA">
		<tag k="name" v="Øvre Hjortskardmoen" />
		<tag k="place" v="farm" />
		<tag k="ssr:stedsnr" v="621942" />
	</node>
	<node id="9829138777" lat="65.1709444" lon="13.4224111" version="1" timestamp="2022-06-18T21:24:54Z" changeset="122561500" uid="3497659" user="NKA">
		<tag k="name" v="Storbekktangen" />
		<tag k="place" v="locality" />
		<tag k="ssr:stedsnr" v="27152" />
	</node>
	<node id="9829138778" lat="65.5939778" lon="13.3008639" version="1" timestamp="2022-06-18T21:24:54Z" changeset="122561500" uid="3497659" user="NKA">
		<tag k="historic" v="shieling" />
		<tag k="name" v="Bjordalssætra" />
		<tag k="place" v="isolated_dwelling" />
		<tag k="ssr:stedsnr" v="762364" />
	</node>
	<node id="9829138779" lat="65.6149194" lon="13.3570999" version="1" timestamp="2022-06-18T21:24:54Z" changeset="122561500" uid="3497659" user="NKA">
		<tag k="alt_name" v="Lisætra" />
		<tag k="name" v="Lisetra" />
		<tag k="place" v="isolated_dwelling" />
		<tag k="ssr:stedsnr" v="379491" />
	</node>
	<node id="9829138780" lat="65.6647385" lon="13.4274306" version="1" timestamp="2022-06-18T21:24:54Z" changeset="122561500" uid="3497659" user="NKA">
		<tag k="name" v="Nygården" />
		<tag k="place" v="farm" />
		<tag k="ssr:stedsnr" v="621593" />
	</node>
	<node id="9829138781" lat="65.5195017" lon="13.5420941" version="1" timestamp="2022-06-18T21:24:54Z" changeset="122561500" uid="3497659" user="NKA">
		<tag k="name" v="Øverbakken" />
		<tag k="place" v="farm" />
		<tag k="ssr:stedsnr" v="520698" />
	</node>
	<node id="9829138782" lat="65.5951413" lon="13.3394626" version="1" timestamp="2022-06-18T21:24:54Z" changeset="122561500" uid="3497659" user="NKA">
		<tag k="alt_name" v="Valrygg" />
		<tag k="name" v="Valryggen" />
		<tag k="place" v="farm" />
		<tag k="ssr:stedsnr" v="198597" />
	</node>
	<node id="9829138783" lat="65.6710083" lon="13.5565389" version="1" timestamp="2022-06-18T21:24:54Z" changeset="122561500" uid="3497659" user="NKA">
		<tag k="name" v="Gluggvatnet" />
		<tag k="place" v="locality" />
		<tag k="ssr:stedsnr" v="399671" />
	</node>
	<node id="9829138784" lat="65.4250555" lon="13.6586806" version="1" timestamp="2022-06-18T21:24:54Z" changeset="122561500" uid="3497659" user="NKA">
		<tag k="name" v="Leira" />
		<tag k="place" v="farm" />
		<tag k="ssr:stedsnr" v="76923" />
	</node>
	<node id="9829138785" lat="65.1805912" lon="13.4193985" version="1" timestamp="2022-06-18T21:24:54Z" changeset="122561500" uid="3497659" user="NKA">
		<tag k="name" v="Tomaslia" />
		<tag k="place" v="farm" />
		<tag k="ssr:stedsnr" v="500761" />
	</node>
	<node id="9829138786" lat="65.5984308" lon="13.3395213" version="1" timestamp="2022-06-18T21:24:54Z" changeset="122561500" uid="3497659" user="NKA">
		<tag k="alt_name" v="Lia" />
		<tag k="name" v="Lien" />
		<tag k="place" v="farm" />
		<tag k="ssr:stedsnr" v="198595" />
	</node>
	<node id="9829138787" lat="65.412365" lon="13.6420797" version="1" timestamp="2022-06-18T21:24:54Z" changeset="122561500" uid="3497659" user="NKA">
		<tag k="name" v="Fiplingkroken" />
		<tag k="place" v="farm" />
		<tag k="ssr:stedsnr" v="925945" />
	</node>
	<node id="9829138788" lat="65.5174926" lon="13.5640528" version="1" timestamp="2022-06-18T21:24:54Z" changeset="122561500" uid="3497659" user="NKA">
		<tag k="alt_name" v="Stormoen, vestre" />
		<tag k="name" v="Stormo Vestre" />
		<tag k="place" v="farm" />
		<tag k="ssr:stedsnr" v="440391" />
	</node>
	<node id="9829138789" lat="65.5298032" lon="13.4556335" version="1" timestamp="2022-06-18T21:24:54Z" changeset="122561500" uid="3497659" user="NKA">
		<tag k="name" v="Joibakken" />
		<tag k="place" v="farm" />
		<tag k="ssr:stedsnr" v="804384" />
	</node>
	<node id="9829138790" lat="65.1275344" lon="13.3852452" version="1" timestamp="2022-06-18T21:24:54Z" changeset="122561500" uid="3497659" user="NKA">
		<tag k="name" v="Smalvassdalen" />
		<tag k="place" v="locality" />
		<tag k="ssr:stedsnr" v="990424" />
	</node>
	<node id="9829138791" lat="65.5850139" lon="13.4003445" version="1" timestamp="2022-06-18T21:24:54Z" changeset="122561500" uid="3497659" user="NKA">
		<tag k="name" v="Bakken" />
		<tag k="place" v="farm" />
		<tag k="ssr:stedsnr" v="762920" />
	</node>
	<node id="9829138792" lat="65.5223611" lon="13.6502305" version="1" timestamp="2022-06-18T21:24:54Z" changeset="122561500" uid="3497659" user="NKA">
		<tag k="name" v="Veltan" />
		<tag k="place" v="isolated_dwelling" />
		<tag k="ssr:stedsnr" v="319355" />
	</node>
	<node id="9829138793" lat="65.5680639" lon="13.4416973" version="1" timestamp="2022-06-18T21:24:54Z" changeset="122561500" uid="3497659" user="NKA">
		<tag k="historic" v="shieling" />
		<tag k="name" v="Fellingforssetra" />
		<tag k="place" v="isolated_dwelling" />
		<tag k="ssr:stedsnr" v="390034" />
	</node>
	<node id="9829138794" lat="65.3143012" lon="13.216565" version="1" timestamp="2022-06-18T21:24:54Z" changeset="122561500" uid="3497659" user="NKA">
		<tag k="name" v="Bjørkåsen" />
		<tag k="place" v="locality" />
		<tag k="ssr:stedsnr" v="990417" />
	</node>
	<node id="9829138795" lat="65.1525989" lon="13.3546912" version="1" timestamp="2022-06-18T21:24:54Z" changeset="122561500" uid="3497659" user="NKA">
		<tag k="name" v="Majastua" />
		<tag k="place" v="farm" />
		<tag k="ssr:stedsnr" v="925751" />
	</node>
	<node id="9829138796" lat="65.5169064" lon="13.5748781" version="1" timestamp="2022-06-18T21:24:54Z" changeset="122561500" uid="3497659" user="NKA">
		<tag k="alt_name" v="Stormoen;Stormoen, austre" />
		<tag k="name" v="Stormo Austre" />
		<tag k="place" v="farm" />
		<tag k="ssr:stedsnr" v="379361" />
	</node>
	<node id="9829138797" lat="65.1792661" lon="13.373768" version="1" timestamp="2022-06-18T21:24:54Z" changeset="122561500" uid="3497659" user="NKA">
		<tag k="name" v="Villmoen" />
		<tag k="place" v="farm" />
		<tag k="ssr:stedsnr" v="925741" />
	</node>
	<node id="9829138798" lat="65.5686527" lon="13.4028334" version="1" timestamp="2022-06-18T21:24:54Z" changeset="122561500" uid="3497659" user="NKA">
		<tag k="name" v="Skogmo" />
		<tag k="place" v="farm" />
		<tag k="ssr:stedsnr" v="337473" />
	</node>
	<node id="9829138799" lat="65.5977277" lon="13.3255139" version="1" timestamp="2022-06-18T21:24:54Z" changeset="122561500" uid="3497659" user="NKA">
		<tag k="name" v="Valstad" />
		<tag k="place" v="farm" />
		<tag k="ssr:stedsnr" v="379581" />
	</node>
	<node id="9829138800" lat="65.6276838" lon="13.278093" version="1" timestamp="2022-06-18T21:24:54Z" changeset="122561500" uid="3497659" user="NKA">
		<tag k="alt_name" v="Laksfors, øvre" />
		<tag k="name" v="Øvre Laksfors" />
		<tag k="old_name" v="Laksfors" />
		<tag k="place" v="farm" />
		<tag k="ssr:stedsnr" v="258494" />
	</node>
	<node id="9829138801" lat="65.6036833" lon="13.3265694" version="1" timestamp="2022-06-18T21:24:54Z" changeset="122561500" uid="3497659" user="NKA">
		<tag k="name" v="Fagerstad" />
		<tag k="place" v="farm" />
		<tag k="ssr:stedsnr" v="865621" />
	</node>
	<node id="9829138802" lat="65.6199278" lon="13.307225" version="1" timestamp="2022-06-18T21:24:54Z" changeset="122561500" uid="3497659" user="NKA">
		<tag k="name" v="Bjørklund" />
		<tag k="place" v="farm" />
		<tag k="ssr:stedsnr" v="865535" />
	</node>
	<node id="9829138803" lat="65.5299361" lon="13.396389" version="1" timestamp="2022-06-18T21:24:54Z" changeset="122561500" uid="3497659" user="NKA">
		<tag k="name" v="Utigarden" />
		<tag k="place" v="farm" />
		<tag k="ssr:stedsnr" v="337630" />
	</node>
	<node id="9829138804" lat="65.6239166" lon="13.2946305" version="1" timestamp="2022-06-18T21:24:54Z" changeset="122561500" uid="3497659" user="NKA">
		<tag k="name" v="Fossedur" />
		<tag k="place" v="farm" />
		<tag k="ssr:stedsnr" v="95088" />
	</node>
	<node id="9829138805" lat="65.6029222" lon="13.2965639" version="1" timestamp="2022-06-18T21:24:54Z" changeset="122561500" uid="3497659" user="NKA">
		<tag k="historic" v="shieling" />
		<tag k="name" v="Gammelsetra" />
		<tag k="place" v="isolated_dwelling" />
		<tag k="ssr:stedsnr" v="155377" />
	</node>
	<node id="9829138806" lat="65.6775417" lon="13.2468166" version="1" timestamp="2022-06-18T21:24:54Z" changeset="122561500" uid="3497659" user="NKA">
		<tag k="name" v="Fallan hyttegrend" />
		<tag k="place" v="neighbourhood" />
		<tag k="ssr:stedsnr" v="94533" />
	</node>
	<node id="9829138807" lat="65.4714056" lon="13.6418722" version="1" timestamp="2022-06-18T21:24:54Z" changeset="122561500" uid="3497659" user="NKA">
		<tag k="name" v="Kvitstrand" />
		<tag k="place" v="farm" />
		<tag k="ssr:stedsnr" v="137953" />
	</node>
	<node id="9829138808" lat="65.5936077" lon="13.3884148" version="1" timestamp="2022-06-18T21:24:54Z" changeset="122561500" uid="3497659" user="NKA">
		<tag k="alt_name" v="Gluggvasshaugen" />
		<tag k="name" v="Oppigarden" />
		<tag k="place" v="farm" />
		<tag k="ssr:stedsnr" v="319607" />
	</node>
	<node id="9829138809" lat="65.5622083" lon="13.4030223" version="1" timestamp="2022-06-18T21:24:54Z" changeset="122561500" uid="3497659" user="NKA">
		<tag k="name" v="Dalbu" />
		<tag k="place" v="farm" />
		<tag k="ssr:stedsnr" v="762419" />
	</node>
	<node id="9829138810" lat="65.6253611" lon="13.2841945" version="1" timestamp="2022-06-18T21:24:54Z" changeset="122561500" uid="3497659" user="NKA">
		<tag k="name" v="Laksfors" />
		<tag k="place" v="farm" />
		<tag k="ssr:stedsnr" v="944444" />
	</node>
	<node id="9829138811" lat="65.5158473" lon="13.548889" version="1" timestamp="2022-06-18T21:24:54Z" changeset="122561500" uid="3497659" user="NKA">
		<tag k="name" v="Skoglund" />
		<tag k="place" v="farm" />
		<tag k="ssr:stedsnr" v="440282" />
	</node>
	<node id="9829138812" lat="65.6736913" lon="13.2617391" version="1" timestamp="2022-06-18T21:24:54Z" changeset="122561500" uid="3497659" user="NKA">
		<tag k="name" v="Fallmoen" />
		<tag k="place" v="hamlet" />
		<tag k="ssr:stedsnr" v="990399" />
	</node>
	<node id="9829138813" lat="65.5876389" lon="13.3791667" version="1" timestamp="2022-06-18T21:24:54Z" changeset="122561500" uid="3497659" user="NKA">
		<tag k="name" v="Elverum" />
		<tag k="place" v="farm" />
		<tag k="ssr:stedsnr" v="258614" />
	</node>
	<node id="9829138814" lat="65.439773" lon="13.3928224" version="1" timestamp="2022-06-18T21:24:54Z" changeset="122561500" uid="3497659" user="NKA">
		<tag k="name" v="Vevang" />
		<tag k="place" v="farm" />
		<tag k="ssr:stedsnr" v="337027" />
	</node>
	<node id="9829138815" lat="65.6272597" lon="13.2814638" version="1" timestamp="2022-06-18T21:24:54Z" changeset="122561500" uid="3497659" user="NKA">
		<tag k="name" v="Bakken" />
		<tag k="place" v="farm" />
		<tag k="ssr:stedsnr" v="34342" />
	</node>
	<node id="9829138816" lat="65.4714609" lon="13.6494737" version="1" timestamp="2022-06-18T21:24:54Z" changeset="122561500" uid="3497659" user="NKA">
		<tag k="name" v="Kløvforsen" />
		<tag k="place" v="farm" />
		<tag k="ssr:stedsnr" v="137956" />
	</node>
	<node id="9829197317" lat="65.3098944" lon="13.5586972" version="1" timestamp="2022-06-18T21:24:54Z" changeset="122561500" uid="3497659" user="NKA">
		<tag k="name" v="Granlia" />
		<tag k="place" v="farm" />
		<tag k="ssr:stedsnr" v="501834" />
	</node>
	<node id="9829197318" lat="65.5212731" lon="13.3969006" version="1" timestamp="2022-06-18T21:24:54Z" changeset="122561500" uid="3497659" user="NKA">
		<tag k="name" v="Minne" />
		<tag k="place" v="isolated_dwelling" />
		<tag k="ssr:stedsnr" v="216607" />
	</node>
	<node id="9829197319" lat="65.2540418" lon="13.4277178" version="1" timestamp="2022-06-18T21:24:54Z" changeset="122561500" uid="3497659" user="NKA">
		<tag k="name" v="Myrrud" />
		<tag k="place" v="farm" />
		<tag k="ssr:stedsnr" v="258842" />
	</node>
	<node id="9829197320" lat="65.5770695" lon="13.4019111" version="1" timestamp="2022-06-18T21:24:54Z" changeset="122561500" uid="3497659" user="NKA">
		<tag k="name" v="Granheim" />
		<tag k="place" v="farm" />
		<tag k="ssr:stedsnr" v="155393" />
	</node>
	<node id="9829197321" lat="65.5854028" lon="13.3982" version="1" timestamp="2022-06-18T21:24:54Z" changeset="122561500" uid="3497659" user="NKA">
		<tag k="name" v="Øvergården" />
		<tag k="place" v="farm" />
		<tag k="ssr:stedsnr" v="94938" />
	</node>
	<node id="9829197322" lat="65.5466611" lon="13.3969305" version="1" timestamp="2022-06-18T21:24:54Z" changeset="122561500" uid="3497659" user="NKA">
		<tag k="name" v="Stia" />
		<tag k="place" v="farm" />
		<tag k="ssr:stedsnr" v="155989" />
	</node>
	<node id="9829197323" lat="65.3178868" lon="13.5587855" version="1" timestamp="2022-06-18T21:24:54Z" changeset="122561500" uid="3497659" user="NKA">
		<tag k="name" v="Nyrud" />
		<tag k="place" v="farm" />
		<tag k="ssr:stedsnr" v="804870" />
	</node>
	<node id="9829197324" lat="65.6821611" lon="13.2595889" version="1" timestamp="2022-06-18T21:24:54Z" changeset="122561500" uid="3497659" user="NKA">
		<tag k="alt_name" v="Stormoen" />
		<tag k="name" v="Stormo" />
		<tag k="place" v="farm" />
		<tag k="ssr:stedsnr" v="16688" />
	</node>
	<node id="9829197325" lat="65.6036554" lon="13.4115205" version="1" timestamp="2022-06-18T21:24:54Z" changeset="122561500" uid="3497659" user="NKA">
		<tag k="name" v="Nordlund" />
		<tag k="place" v="farm" />
		<tag k="ssr:stedsnr" v="16585" />
	</node>
	<node id="9829197326" lat="65.1312028" lon="13.3918166" version="1" timestamp="2022-06-18T21:24:54Z" changeset="122561500" uid="3497659" user="NKA">
		<tag k="name" v="Sole" />
		<tag k="place" v="farm" />
		<tag k="ssr:stedsnr" v="379641" />
	</node>
	<node id="9829197327" lat="65.5913703" lon="13.378584" version="1" timestamp="2022-06-18T21:24:54Z" changeset="122561500" uid="3497659" user="NKA">
		<tag k="name" v="Finnsåsen" />
		<tag k="place" v="hamlet" />
		<tag k="ssr:stedsnr" v="744582" />
	</node>
	<node id="9829197328" lat="65.5204518" lon="13.6015999" version="1" timestamp="2022-06-18T21:24:54Z" changeset="122561500" uid="3497659" user="NKA">
		<tag k="alt_name" v="Bjorbekkmo" />
		<tag k="name" v="Bjorbekkmoen" />
		<tag k="place" v="farm" />
		<tag k="ssr:stedsnr" v="926357" />
	</node>
	<node id="9829197329" lat="65.5218639" lon="13.5520445" version="1" timestamp="2022-06-18T21:24:54Z" changeset="122561500" uid="3497659" user="NKA">
		<tag k="name" v="Innigarden" />
		<tag k="place" v="farm" />
		<tag k="ssr:stedsnr" v="824688" />
	</node>
	<node id="9829197330" lat="65.4353985" lon="13.3976344" version="1" timestamp="2022-06-18T21:24:54Z" changeset="122561500" uid="3497659" user="NKA">
		<tag k="name" v="Heggneset" />
		<tag k="place" v="farm" />
		<tag k="ssr:stedsnr" v="761034" />
	</node>
	<node id="9829197331" lat="65.5267861" lon="13.4840834" version="1" timestamp="2022-06-18T21:24:54Z" changeset="122561500" uid="3497659" user="NKA">
		<tag k="alt_name" v="Straumstad" />
		<tag k="name" v="Strømstad" />
		<tag k="place" v="farm" />
		<tag k="ssr:stedsnr" v="683330" />
	</node>
	<node id="9829197332" lat="65.4380084" lon="13.678339" version="1" timestamp="2022-06-18T21:24:54Z" changeset="122561500" uid="3497659" user="NKA">
		<tag k="alt_name" v="Elvebakkmyra" />
		<tag k="name" v="Elvebakkmyr" />
		<tag k="place" v="farm" />
		<tag k="ssr:stedsnr" v="804940" />
	</node>
	<node id="9829197333" lat="65.4417528" lon="13.6656972" version="1" timestamp="2022-06-18T21:24:54Z" changeset="122561500" uid="3497659" user="NKA">
		<tag k="name" v="Storselja" />
		<tag k="place" v="farm" />
		<tag k="ssr:stedsnr" v="804939" />
	</node>
	<node id="9829197334" lat="65.4651382" lon="13.6325794" version="1" timestamp="2022-06-18T21:24:54Z" changeset="122561500" uid="3497659" user="NKA">
		<tag k="name" v="Bruholen" />
		<tag k="place" v="hamlet" />
		<tag k="ssr:stedsnr" v="683953" />
	</node>
	<node id="9829197335" lat="65.4635833" lon="13.690025" version="1" timestamp="2022-06-18T21:24:54Z" changeset="122561500" uid="3497659" user="NKA">
		<tag k="name" v="Vollenden" />
		<tag k="place" v="farm" />
		<tag k="ssr:stedsnr" v="702021" />
	</node>
	<node id="9829197336" lat="65.4645956" lon="13.5974564" version="1" timestamp="2022-06-18T21:24:54Z" changeset="122561500" uid="3497659" user="NKA">
		<tag k="name" v="Derut" />
		<tag k="place" v="farm" />
		<tag k="ssr:stedsnr" v="580375" />
	</node>
	<node id="9829197337" lat="65.4657583" lon="13.6710639" version="1" timestamp="2022-06-18T21:24:54Z" changeset="122561500" uid="3497659" user="NKA">
		<tag k="alt_name" v="Bjørkesletta" />
		<tag k="name" v="Bjørkeslett" />
		<tag k="place" v="farm" />
		<tag k="ssr:stedsnr" v="744953" />
	</node>
	<node id="9829197338" lat="65.2565452" lon="13.3179493" version="1" timestamp="2022-06-18T21:24:54Z" changeset="122561500" uid="3497659" user="NKA">
		<tag k="name" v="Jernbanehytta" />
		<tag k="place" v="isolated_dwelling" />
		<tag k="ssr:stedsnr" v="25187" />
	</node>
	<node id="9829197339" lat="65.5385152" lon="13.6786144" version="1" timestamp="2022-06-18T21:24:54Z" changeset="122561500" uid="3497659" user="NKA">
		<tag k="name" v="Åsheim" />
		<tag k="place" v="farm" />
		<tag k="ssr:stedsnr" v="926313" />
	</node>
	<node id="9829197340" lat="65.4036472" lon="13.6650806" version="1" timestamp="2022-06-18T21:24:54Z" changeset="122561500" uid="3497659" user="NKA">
		<tag k="alt_name" v="Skredsletta" />
		<tag k="name" v="Skreslett" />
		<tag k="place" v="farm" />
		<tag k="ssr:stedsnr" v="500931" />
	</node>
	<node id="9829197341" lat="65.6378611" lon="13.4127223" version="1" timestamp="2022-06-18T21:24:54Z" changeset="122561500" uid="3497659" user="NKA">
		<tag k="alt_name" v="Gammelhaugsætra" />
		<tag k="name" v="Gammelsetra" />
		<tag k="place" v="isolated_dwelling" />
		<tag k="ssr:stedsnr" v="743510" />
	</node>
	<node id="9829197342" lat="65.5236533" lon="13.7015104" version="1" timestamp="2022-06-18T21:24:54Z" changeset="122561500" uid="3497659" user="NKA">
		<tag k="name" v="Fagerlia" />
		<tag k="place" v="hamlet" />
		<tag k="ssr:stedsnr" v="990422" />
	</node>
	<node id="9829197343" lat="65.4784532" lon="13.7062647" version="1" timestamp="2022-06-18T21:24:54Z" changeset="122561500" uid="3497659" user="NKA">
		<tag k="name" v="Forshaugen" />
		<tag k="place" v="farm" />
		<tag k="ssr:stedsnr" v="743965" />
	</node>
	<node id="9829197344" lat="65.4550056" lon="13.4663667" version="1" timestamp="2022-06-18T21:24:54Z" changeset="122561500" uid="3497659" user="NKA">
		<tag k="name" v="Moen" />
		<tag k="place" v="farm" />
		<tag k="ssr:stedsnr" v="379937" />
	</node>
	<node id="9829197345" lat="65.5563549" lon="13.3884391" version="1" timestamp="2022-06-18T21:24:54Z" changeset="122561500" uid="3497659" user="NKA">
		<tag k="name" v="Høgtun" />
		<tag k="place" v="farm" />
		<tag k="ssr:stedsnr" v="197365" />
	</node>
	<node id="9829197346" lat="65.5444361" lon="13.7098668" version="1" timestamp="2022-06-18T21:24:54Z" changeset="122561500" uid="3497659" user="NKA">
		<tag k="alt_name" v="Bratting" />
		<tag k="name" v="Bratteng" />
		<tag k="place" v="farm" />
		<tag k="ssr:stedsnr" v="926329" />
	</node>
	<node id="9829197347" lat="65.5371642" lon="13.6860702" version="1" timestamp="2022-06-18T21:24:54Z" changeset="122561500" uid="3497659" user="NKA">
		<tag k="name" v="Seteråsen" />
		<tag k="place" v="hamlet" />
		<tag k="ssr:stedsnr" v="683299" />
	</node>
	<node id="9829197348" lat="65.5670417" lon="13.404375" version="1" timestamp="2022-06-18T21:24:54Z" changeset="122561500" uid="3497659" user="NKA">
		<tag k="name" v="Granly" />
		<tag k="place" v="farm" />
		<tag k="ssr:stedsnr" v="579550" />
	</node>
	<node id="9829197349" lat="65.4723274" lon="13.62282" version="1" timestamp="2022-06-18T21:24:54Z" changeset="122561500" uid="3497659" user="NKA">
		<tag k="name" v="Litlfiplingdalen" />
		<tag k="place" v="farm" />
		<tag k="ssr:stedsnr" v="990419" />
	</node>
	<node id="9829197350" lat="65.4330465" lon="13.401508" version="1" timestamp="2022-06-18T21:24:54Z" changeset="122561500" uid="3497659" user="NKA">
		<tag k="name" v="Strendene" />
		<tag k="place" v="farm" />
		<tag k="ssr:stedsnr" v="15951" />
	</node>
	<node id="9829197351" lat="65.5468374" lon="13.6379699" version="1" timestamp="2022-06-18T21:24:54Z" changeset="122561500" uid="3497659" user="NKA">
		<tag k="name" v="Stillelvåsen" />
		<tag k="place" v="locality" />
		<tag k="ssr:stedsnr" v="990423" />
	</node>
	<node id="9829197352" lat="65.5910274" lon="13.3895891" version="1" timestamp="2022-06-18T21:24:54Z" changeset="122561500" uid="3497659" user="NKA">
		<tag k="name" v="Grane" />
		<tag k="place" v="farm" />
		<tag k="ssr:stedsnr" v="967467" />
	</node>
	<node id="9829197353" lat="65.4096901" lon="13.3808791" version="1" timestamp="2022-06-18T21:24:54Z" changeset="122561500" uid="3497659" user="NKA">
		<tag k="name" v="Innigarden" />
		<tag k="place" v="farm" />
		<tag k="ssr:stedsnr" v="397110" />
	</node>
	<node id="9829197354" lat="65.5454528" lon="13.3987861" version="1" timestamp="2022-06-18T21:24:54Z" changeset="122561500" uid="3497659" user="NKA">
		<tag k="name" v="Solstad" />
		<tag k="place" v="farm" />
		<tag k="ssr:stedsnr" v="440347" />
	</node>
	<node id="9829197355" lat="65.5897629" lon="13.3744056" version="1" timestamp="2022-06-18T21:24:54Z" changeset="122561500" uid="3497659" user="NKA">
		<tag k="name" v="Myrmoen" />
		<tag k="place" v="farm" />
		<tag k="ssr:stedsnr" v="640907" />
	</node>
	<node id="9829197356" lat="65.5543155" lon="13.3975343" version="1" timestamp="2022-06-18T21:24:54Z" changeset="122561500" uid="3497659" user="NKA">
		<tag k="name" v="Øvermoen" />
		<tag k="place" v="farm" />
		<tag k="ssr:stedsnr" v="944973" />
	</node>
	<node id="9829197357" lat="65.5902028" lon="13.4001277" version="1" timestamp="2022-06-18T21:24:54Z" changeset="122561500" uid="3497659" user="NKA">
		<tag k="name" v="Steinbakken" />
		<tag k="place" v="farm" />
		<tag k="ssr:stedsnr" v="823883" />
	</node>
	<node id="9829197358" lat="65.631937" lon="13.445858" version="1" timestamp="2022-06-18T21:24:54Z" changeset="122561500" uid="3497659" user="NKA">
		<tag k="alt_name" v="Haustreisa" />
		<tag k="name" v="Østre Haustreisa" />
		<tag k="old_name" v="Vestre Haustreis" />
		<tag k="place" v="farm" />
		<tag k="ssr:stedsnr" v="926766" />
	</node>
	<node id="9829197359" lat="65.6340916" lon="13.3983277" version="1" timestamp="2022-06-18T21:24:54Z" changeset="122561500" uid="3497659" user="NKA">
		<tag k="name" v="Haugsætra" />
		<tag k="place" v="isolated_dwelling" />
		<tag k="ssr:stedsnr" v="258492" />
	</node>
	<node id="9829197360" lat="65.590975" lon="13.3767583" version="1" timestamp="2022-06-18T21:24:54Z" changeset="122561500" uid="3497659" user="NKA">
		<tag k="name" v="Innigarden" />
		<tag k="place" v="farm" />
		<tag k="ssr:stedsnr" v="944914" />
	</node>
	<node id="9829197361" lat="65.5490855" lon="13.3879431" version="1" timestamp="2022-06-18T21:24:54Z" changeset="122561500" uid="3497659" user="NKA">
		<tag k="name" v="Nedre Svenningdalen" />
		<tag k="place" v="hamlet" />
		<tag k="ssr:stedsnr" v="743351" />
	</node>
	<node id="9829197362" lat="65.4981497" lon="13.3844438" version="1" timestamp="2022-06-18T21:24:54Z" changeset="122561500" uid="3497659" user="NKA">
		<tag k="name" v="Myrvoll" />
		<tag k="place" v="farm" />
		<tag k="ssr:stedsnr" v="701362" />
	</node>
	<node id="9829197363" lat="65.5924139" lon="13.3401334" version="1" timestamp="2022-06-18T21:24:54Z" changeset="122561500" uid="3497659" user="NKA">
		<tag k="name" v="Dalen" />
		<tag k="place" v="farm" />
		<tag k="ssr:stedsnr" v="16578" />
	</node>
	<node id="9829197364" lat="65.5227378" lon="13.5324208" version="1" timestamp="2022-06-18T21:24:54Z" changeset="122561500" uid="3497659" user="NKA">
		<tag k="alt_name" v="Fjellbekkmo" />
		<tag k="name" v="Fjellbekkmoen" />
		<tag k="place" v="hamlet" />
		<tag k="ssr:stedsnr" v="744316" />
	</node>
	<node id="9829197365" lat="65.535869" lon="13.3906394" version="1" timestamp="2022-06-18T21:24:54Z" changeset="122561500" uid="3497659" user="NKA">
		<tag k="name" v="Troforsen" />
		<tag k="place" v="farm" />
		<tag k="ssr:stedsnr" v="761687" />
	</node>
	<node id="9829197366" lat="65.6229211" lon="13.4357396" version="1" timestamp="2022-06-18T21:24:54Z" changeset="122561500" uid="3497659" user="NKA">
		<tag k="name" v="Sletta" />
		<tag k="place" v="farm" />
		<tag k="ssr:stedsnr" v="926503" />
	</node>
	<node id="9829197367" lat="65.5869722" lon="13.6481873" version="1" timestamp="2022-06-18T21:24:54Z" changeset="122561500" uid="3497659" user="NKA">
		<tag k="name" v="Svartvatnet" />
		<tag k="place" v="farm" />
		<tag k="ssr:stedsnr" v="15594" />
	</node>
	<node id="9829197368" lat="65.6550661" lon="13.2358306" version="1" timestamp="2022-06-18T21:24:54Z" changeset="122561500" uid="3497659" user="NKA">
		<tag k="name" v="Spølremma" />
		<tag k="old_name" v="Spelremmen" />
		<tag k="place" v="farm" />
		<tag k="ssr:stedsnr" v="1077514" />
	</node>
	<node id="9829197369" lat="65.5223639" lon="13.6994194" version="1" timestamp="2022-06-18T21:24:54Z" changeset="122561500" uid="3497659" user="NKA">
		<tag k="alt_name" v="Fagerli Nedre" />
		<tag k="name" v="Nedre Fagerli" />
		<tag k="place" v="farm" />
		<tag k="ssr:stedsnr" v="683345" />
	</node>
	<node id="9829197370" lat="65.5543605" lon="13.3946684" version="1" timestamp="2022-06-18T21:24:54Z" changeset="122561500" uid="3497659" user="NKA">
		<tag k="name" v="Nermoen" />
		<tag k="place" v="farm" />
		<tag k="ssr:stedsnr" v="640977" />
	</node>
	<node id="9829197371" lat="65.6604815" lon="13.2647769" version="1" timestamp="2022-06-18T21:24:54Z" changeset="122561500" uid="3497659" user="NKA">
		<tag k="name" v="Spølremma" />
		<tag k="place" v="farm" />
		<tag k="ssr:stedsnr" v="1077515" />
	</node>
	<node id="9829197372" lat="65.5945422" lon="13.3841795" version="1" timestamp="2022-06-18T21:24:54Z" changeset="122561500" uid="3497659" user="NKA">
		<tag k="name" v="Motangen" />
		<tag k="place" v="farm" />
		<tag k="ssr:stedsnr" v="883944" />
	</node>
	<node id="9829197373" lat="65.5500057" lon="13.3959495" version="1" timestamp="2022-06-18T21:24:54Z" changeset="122561500" uid="3497659" user="NKA">
		<tag k="name" v="Lillemoen" />
		<tag k="place" v="farm" />
		<tag k="ssr:stedsnr" v="701970" />
	</node>
	<node id="9829197374" lat="65.5443505" lon="13.3964987" version="1" timestamp="2022-06-18T21:24:54Z" changeset="122561500" uid="3497659" user="NKA">
		<tag k="name" v="Solheim" />
		<tag k="place" v="farm" />
		<tag k="ssr:stedsnr" v="743348" />
	</node>
	<node id="9829197375" lat="65.6369969" lon="13.4503411" version="1" timestamp="2022-06-18T21:24:54Z" changeset="122561500" uid="3497659" user="NKA">
		<tag k="name" v="Smørvikhytta" />
		<tag k="place" v="isolated_dwelling" />
		<tag k="ssr:stedsnr" v="682563" />
	</node>
	<node id="9829197376" lat="65.5204382" lon="13.5532474" version="1" timestamp="2022-06-18T21:24:54Z" changeset="122561500" uid="3497659" user="NKA">
		<tag k="name" v="Stabbimo" />
		<tag k="place" v="farm" />
		<tag k="ssr:stedsnr" v="520742" />
	</node>
	<node id="9829197377" lat="65.5516861" lon="13.3933443" version="1" timestamp="2022-06-18T21:24:54Z" changeset="122561500" uid="3497659" user="NKA">
		<tag k="name" v="Nerigarden" />
		<tag k="place" v="farm" />
		<tag k="ssr:stedsnr" v="458979" />
	</node>
	<node id="9829197378" lat="65.5971944" lon="13.3866082" version="1" timestamp="2022-06-18T21:24:54Z" changeset="122561500" uid="3497659" user="NKA">
		<tag k="alt_name" v="Tempelhaug" />
		<tag k="name" v="Tempelhaugen" />
		<tag k="place" v="farm" />
		<tag k="ssr:stedsnr" v="155881" />
	</node>
	<node id="9829197379" lat="65.5257738" lon="13.572026" version="1" timestamp="2022-06-18T21:24:54Z" changeset="122561500" uid="3497659" user="NKA">
		<tag k="name" v="Tangen" />
		<tag k="place" v="farm" />
		<tag k="ssr:stedsnr" v="501333" />
	</node>
	<node id="9829197380" lat="65.4331167" lon="13.656211" version="1" timestamp="2022-06-18T21:24:54Z" changeset="122561500" uid="3497659" user="NKA">
		<tag k="alt_name" v="Myra" />
		<tag k="name" v="Myren" />
		<tag k="place" v="farm" />
		<tag k="ssr:stedsnr" v="197950" />
	</node>
	<node id="9829197381" lat="65.5248861" lon="13.518461" version="1" timestamp="2022-06-18T21:24:54Z" changeset="122561500" uid="3497659" user="NKA">
		<tag k="alt_name" v="Båfjellmoen, austre;Båfjellmo Austre" />
		<tag k="name" v="Austre Båfjellmo" />
		<tag k="place" v="farm" />
		<tag k="ssr:stedsnr" v="137349" />
	</node>
	<node id="9829197382" lat="65.4617084" lon="13.6714222" version="1" timestamp="2022-06-18T21:24:54Z" changeset="122561500" uid="3497659" user="NKA">
		<tag k="name" v="Hammaren" />
		<tag k="place" v="farm" />
		<tag k="ssr:stedsnr" v="560954" />
	</node>
	<node id="9829197383" lat="65.5064059" lon="13.3959403" version="1" timestamp="2022-06-18T21:24:54Z" changeset="122561500" uid="3497659" user="NKA">
		<tag k="name" v="Fløtnes" />
		<tag k="place" v="farm" />
		<tag k="ssr:stedsnr" v="318361" />
	</node>
	<node id="9829197384" lat="65.5169251" lon="13.6908231" version="1" timestamp="2022-06-18T21:24:54Z" changeset="122561500" uid="3497659" user="NKA">
		<tag k="name" v="Hallingen" />
		<tag k="place" v="farm" />
		<tag k="ssr:stedsnr" v="622348" />
	</node>
	<node id="9829197385" lat="65.389625" lon="13.6208306" version="1" timestamp="2022-06-18T21:24:54Z" changeset="122561500" uid="3497659" user="NKA">
		<tag k="name" v="Bjerkli" />
		<tag k="place" v="farm" />
		<tag k="ssr:stedsnr" v="459544" />
	</node>
	<node id="9829197386" lat="65.6023326" lon="13.3404344" version="1" timestamp="2022-06-18T21:24:54Z" changeset="122561500" uid="3497659" user="NKA">
		<tag k="name" v="Limoen" />
		<tag k="place" v="farm" />
		<tag k="ssr:stedsnr" v="16563" />
	</node>
	<node id="9829197387" lat="65.5278435" lon="13.4729109" version="1" timestamp="2022-06-18T21:24:54Z" changeset="122561500" uid="3497659" user="NKA">
		<tag k="name" v="Barstad" />
		<tag k="place" v="farm" />
		<tag k="ssr:stedsnr" v="16312" />
	</node>
	<node id="9829197388" lat="65.6361982" lon="13.4416939" version="1" timestamp="2022-06-18T21:24:54Z" changeset="122561500" uid="3497659" user="NKA">
		<tag k="name" v="Vestre Haustreisa" />
		<tag k="place" v="farm" />
		<tag k="ssr:stedsnr" v="318523" />
	</node>
	<node id="9829197389" lat="65.4290111" lon="13.6657972" version="1" timestamp="2022-06-18T21:24:54Z" changeset="122561500" uid="3497659" user="NKA">
		<tag k="name" v="Fiplingtun" />
		<tag k="place" v="farm" />
		<tag k="ssr:stedsnr" v="458636" />
	</node>
	<node id="9829197390" lat="65.5951778" lon="13.3775917" version="1" timestamp="2022-06-18T21:24:54Z" changeset="122561500" uid="3497659" user="NKA">
		<tag k="name" v="Strandmoen" />
		<tag k="place" v="farm" />
		<tag k="ssr:stedsnr" v="458923" />
	</node>
	<node id="9829197391" lat="65.5589412" lon="13.3959229" version="1" timestamp="2022-06-18T21:24:54Z" changeset="122561500" uid="3497659" user="NKA">
		<tag k="name" v="Almdalsneset" />
		<tag k="place" v="farm" />
		<tag k="ssr:stedsnr" v="15612" />
	</node>
	<node id="9829197392" lat="65.5346874" lon="13.3947181" version="1" timestamp="2022-06-18T21:24:54Z" changeset="122561500" uid="3497659" user="NKA">
		<tag k="name" v="Fossevangen" />
		<tag k="place" v="farm" />
		<tag k="ssr:stedsnr" v="458684" />
	</node>
	<node id="9829197393" lat="65.4668722" lon="13.402075" version="1" timestamp="2022-06-18T21:24:54Z" changeset="122561500" uid="3497659" user="NKA">
		<tag k="name" v="Kroken" />
		<tag k="place" v="farm" />
		<tag k="ssr:stedsnr" v="397689" />
	</node>
	<node id="9829197394" lat="65.4295083" lon="13.3934555" version="1" timestamp="2022-06-18T21:24:54Z" changeset="122561500" uid="3497659" user="NKA">
		<tag k="name" v="Hopaneset" />
		<tag k="place" v="farm" />
		<tag k="ssr:stedsnr" v="458130" />
	</node>
	<node id="9829197395" lat="65.6311611" lon="13.3836861" version="1" timestamp="2022-06-18T21:24:54Z" changeset="122561500" uid="3497659" user="NKA">
		<tag k="name" v="Nilsfinnlia" />
		<tag k="place" v="isolated_dwelling" />
		<tag k="ssr:stedsnr" v="926509" />
	</node>
	<node id="9829197396" lat="65.5214945" lon="13.5469306" version="1" timestamp="2022-06-18T21:24:54Z" changeset="122561500" uid="3497659" user="NKA">
		<tag k="name" v="Utigarden" />
		<tag k="place" v="farm" />
		<tag k="ssr:stedsnr" v="278711" />
	</node>
	<node id="9829197397" lat="65.4641449" lon="13.3923218" version="1" timestamp="2022-06-18T21:24:54Z" changeset="122561500" uid="3497659" user="NKA">
		<tag k="name" v="Nedre Hjortskardmoen" />
		<tag k="place" v="hamlet" />
		<tag k="ssr:stedsnr" v="198971" />
	</node>
	<node id="9829197398" lat="65.5241716" lon="13.5273795" version="1" timestamp="2022-06-18T21:24:54Z" changeset="122561500" uid="3497659" user="NKA">
		<tag k="name" v="Gammelgården" />
		<tag k="place" v="farm" />
		<tag k="ssr:stedsnr" v="277841" />
	</node>
	<node id="9829197399" lat="65.6286417" lon="13.4391084" version="1" timestamp="2022-06-18T21:24:54Z" changeset="122561500" uid="3497659" user="NKA">
		<tag k="name" v="Gammelgarden" />
		<tag k="place" v="farm" />
		<tag k="ssr:stedsnr" v="277453" />
	</node>
	<node id="9829197400" lat="65.5616482" lon="13.4017667" version="1" timestamp="2022-06-18T21:24:54Z" changeset="122561500" uid="3497659" user="NKA">
		<tag k="name" v="Moheim" />
		<tag k="place" v="farm" />
		<tag k="ssr:stedsnr" v="276553" />
	</node>
	<node id="9829197401" lat="65.5345444" lon="13.404" version="1" timestamp="2022-06-18T21:24:54Z" changeset="122561500" uid="3497659" user="NKA">
		<tag k="name" v="Vegset" />
		<tag k="place" v="quarter" />
		<tag k="ssr:stedsnr" v="276707" />
	</node>
	<node id="9829197402" lat="65.209403" lon="13.3829393" version="1" timestamp="2022-06-18T21:24:54Z" changeset="122561500" uid="3497659" user="NKA">
		<tag k="name" v="Nygård" />
		<tag k="place" v="farm" />
		<tag k="ssr:stedsnr" v="257788" />
	</node>
	<node id="9829197403" lat="65.3796667" lon="13.6347305" version="1" timestamp="2022-06-18T21:24:54Z" changeset="122561500" uid="3497659" user="NKA">
		<tag k="name" v="Nordli" />
		<tag k="place" v="hamlet" />
		<tag k="ssr:stedsnr" v="440891" />
	</node>
	<node id="9829197404" lat="65.4213111" lon="13.6745555" version="1" timestamp="2022-06-18T21:24:54Z" changeset="122561500" uid="3497659" user="NKA">
		<tag k="name" v="Bakken" />
		<tag k="place" v="farm" />
		<tag k="ssr:stedsnr" v="197945" />
	</node>
	<node id="9829197405" lat="65.1338639" lon="13.41015" version="1" timestamp="2022-06-18T21:24:54Z" changeset="122561500" uid="3497659" user="NKA">
		<tag k="historic" v="shieling" />
		<tag k="name" v="Asbjørnsetra" />
		<tag k="place" v="isolated_dwelling" />
		<tag k="ssr:stedsnr" v="755127" />
	</node>
	<node id="9829197406" lat="65.5869139" lon="13.3963167" version="1" timestamp="2022-06-18T21:24:54Z" changeset="122561500" uid="3497659" user="NKA">
		<tag k="name" v="Bleikvoll" />
		<tag k="place" v="farm" />
		<tag k="ssr:stedsnr" v="155905" />
	</node>
	<node id="9829197407" lat="65.1421066" lon="13.3516958" version="1" timestamp="2022-06-18T21:24:54Z" changeset="122561500" uid="3497659" user="NKA">
		<tag k="name" v="Skogtun" />
		<tag k="place" v="isolated_dwelling" />
		<tag k="ssr:stedsnr" v="742651" />
	</node>
	<node id="9829197408" lat="65.4586611" lon="13.3980862" version="1" timestamp="2022-06-18T21:24:54Z" changeset="122561500" uid="3497659" user="NKA">
		<tag k="name" v="Utigarden" />
		<tag k="place" v="farm" />
		<tag k="ssr:stedsnr" v="622957" />
	</node>
	<node id="9829197409" lat="65.1538894" lon="13.3591731" version="1" timestamp="2022-06-18T21:24:54Z" changeset="122561500" uid="3497659" user="NKA">
		<tag k="name" v="Skogsand" />
		<tag k="place" v="isolated_dwelling" />
		<tag k="ssr:stedsnr" v="560700" />
	</node>
	<node id="9829197410" lat="65.6297222" lon="13.4432251" version="1" timestamp="2022-06-18T21:24:54Z" changeset="122561500" uid="3497659" user="NKA">
		<tag k="name" v="Østre Hausreis" />
		<tag k="place" v="farm" />
		<tag k="ssr:stedsnr" v="34559" />
	</node>
	<node id="9829197411" lat="65.1792889" lon="13.4195028" version="1" timestamp="2022-06-18T21:24:54Z" changeset="122561500" uid="3497659" user="NKA">
		<tag k="name" v="Øyum" />
		<tag k="place" v="farm" />
		<tag k="ssr:stedsnr" v="500760" />
	</node>
	<node id="9829197412" lat="65.6075917" lon="13.3208" version="1" timestamp="2022-06-18T21:24:54Z" changeset="122561500" uid="3497659" user="NKA">
		<tag k="alt_name" v="Granli" />
		<tag k="name" v="Granlia" />
		<tag k="place" v="farm" />
		<tag k="ssr:stedsnr" v="683575" />
	</node>
	<node id="9829197413" lat="65.5263843" lon="13.529664" version="1" timestamp="2022-06-18T21:24:54Z" changeset="122561500" uid="3497659" user="NKA">
		<tag k="name" v="Høglia" />
		<tag k="place" v="farm" />
		<tag k="ssr:stedsnr" v="34801" />
	</node>
	<node id="9829197414" lat="65.5453777" lon="13.3942362" version="1" timestamp="2022-06-18T21:24:54Z" changeset="122561500" uid="3497659" user="NKA">
		<tag k="name" v="Nyheim" />
		<tag k="place" v="farm" />
		<tag k="ssr:stedsnr" v="33989" />
	</node>
	<node id="9829197415" lat="65.205225" lon="13.3824417" version="1" timestamp="2022-06-18T21:24:54Z" changeset="122561500" uid="3497659" user="NKA">
		<tag k="name" v="Myrstad" />
		<tag k="place" v="farm" />
		<tag k="ssr:stedsnr" v="15767" />
	</node>
	<node id="9829197416" lat="65.1534806" lon="13.21855" version="1" timestamp="2022-06-18T21:24:54Z" changeset="122561500" uid="3497659" user="NKA">
		<tag k="name" v="Storlistua" />
		<tag k="place" v="isolated_dwelling" />
		<tag k="ssr:stedsnr" v="196696" />
	</node>
	<node id="9829197417" lat="65.248025" lon="13.3343027" version="1" timestamp="2022-06-18T21:24:54Z" changeset="122561500" uid="3497659" user="NKA">
		<tag k="historic" v="shieling" />
		<tag k="name" v="Setran" />
		<tag k="place" v="isolated_dwelling" />
		<tag k="ssr:stedsnr" v="85138" />
	</node>
	<node id="9829197418" lat="65.6098667" lon="13.3127695" version="1" timestamp="2022-06-18T21:24:54Z" changeset="122561500" uid="3497659" user="NKA">
		<tag k="alt_name" v="Høgmoen" />
		<tag k="name" v="Høgmo" />
		<tag k="place" v="farm" />
		<tag k="ssr:stedsnr" v="379590" />
	</node>
	<node id="9829197419" lat="65.1892888" lon="13.371445" version="1" timestamp="2022-06-18T21:24:54Z" changeset="122561500" uid="3497659" user="NKA">
		<tag k="name" v="Sveumdalen" />
		<tag k="place" v="farm" />
		<tag k="ssr:stedsnr" v="15729" />
	</node>
	<node id="9829197420" lat="65.4413404" lon="13.3979536" version="1" timestamp="2022-06-18T21:24:54Z" changeset="122561500" uid="3497659" user="NKA">
		<tag k="name" v="Engset" />
		<tag k="place" v="farm" />
		<tag k="ssr:stedsnr" v="33028" />
	</node>
	<node id="9829197421" lat="65.1891166" lon="13.3175333" version="1" timestamp="2022-06-18T21:24:54Z" changeset="122561500" uid="3497659" user="NKA">
		<tag k="name" v="Engelskvillaen" />
		<tag k="place" v="isolated_dwelling" />
		<tag k="ssr:stedsnr" v="864732" />
	</node>
	<node id="9829197422" lat="65.1502778" lon="13.270864" version="1" timestamp="2022-06-18T21:24:54Z" changeset="122561500" uid="3497659" user="NKA">
		<tag k="name" v="Mellingsbukta" />
		<tag k="place" v="isolated_dwelling" />
		<tag k="ssr:stedsnr" v="378734" />
	</node>
	<node id="9829197423" lat="65.5918436" lon="13.3758844" version="1" timestamp="2022-06-18T21:24:54Z" changeset="122561500" uid="3497659" user="NKA">
		<tag k="name" v="Utigarden" />
		<tag k="place" v="farm" />
		<tag k="ssr:stedsnr" v="823875" />
	</node>
	<node id="9829197424" lat="65.399823" lon="13.3785528" version="1" timestamp="2022-06-18T21:24:54Z" changeset="122561500" uid="3497659" user="NKA">
		<tag k="name" v="Øvre Hjortskardmoen" />
		<tag k="place" v="farm" />
		<tag k="ssr:stedsnr" v="980981" />
	</node>
	<node id="9829197425" lat="65.4554056" lon="13.6743166" version="1" timestamp="2022-06-18T21:24:54Z" changeset="122561500" uid="3497659" user="NKA">
		<tag k="name" v="Åsen" />
		<tag k="place" v="farm" />
		<tag k="ssr:stedsnr" v="15949" />
	</node>
	<node id="9829197426" lat="65.1709861" lon="13.4338306" version="1" timestamp="2022-06-18T21:24:54Z" changeset="122561500" uid="3497659" user="NKA">
		<tag k="name" v="Hesjarvollen" />
		<tag k="place" v="locality" />
		<tag k="ssr:stedsnr" v="560707" />
	</node>
	<node id="9829197427" lat="65.153634" lon="13.4053723" version="1" timestamp="2022-06-18T21:24:54Z" changeset="122561500" uid="3497659" user="NKA">
		<tag k="name" v="Berntvoll" />
		<tag k="place" v="isolated_dwelling" />
		<tag k="ssr:stedsnr" v="439705" />
	</node>
	<node id="9829197428" lat="65.4111663" lon="13.3819287" version="1" timestamp="2022-06-18T21:24:54Z" changeset="122561500" uid="3497659" user="NKA">
		<tag k="name" v="Utigarden" />
		<tag k="place" v="farm" />
		<tag k="ssr:stedsnr" v="761114" />
	</node>
	<node id="9829197429" lat="65.592352" lon="13.3983303" version="1" timestamp="2022-06-18T21:24:54Z" changeset="122561500" uid="3497659" user="NKA">
		<tag k="name" v="Elvetun" />
		<tag k="place" v="farm" />
		<tag k="ssr:stedsnr" v="701895" />
	</node>
	<node id="9829197430" lat="65.1192003" lon="13.3376839" version="1" timestamp="2022-06-18T21:24:54Z" changeset="122561500" uid="3497659" user="NKA">
		<tag k="name" v="Stortjønnlia" />
		<tag k="place" v="farm" />
		<tag k="ssr:stedsnr" v="197719" />
	</node>
	<node id="9829197431" lat="65.3070237" lon="13.567285" version="1" timestamp="2022-06-18T21:24:54Z" changeset="122561500" uid="3497659" user="NKA">
		<tag k="name" v="Simskardet" />
		<tag k="place" v="farm" />
		<tag k="ssr:stedsnr" v="804855" />
	</node>
	<node id="9829197432" lat="65.171725" lon="13.4475" version="1" timestamp="2022-06-18T21:24:54Z" changeset="122561500" uid="3497659" user="NKA">
		<tag k="name" v="Finnkottomta" />
		<tag k="place" v="locality" />
		<tag k="ssr:stedsnr" v="210192" />
	</node>
	<node id="9829197433" lat="65.4391752" lon="13.4056316" version="1" timestamp="2022-06-18T21:24:54Z" changeset="122561500" uid="3497659" user="NKA">
		<tag k="name" v="Svenningdalen - Svætnoevuemie" />
		<tag k="name:no" v="Svenningdalen" />
		<tag k="name:sma" v="Svætnoevuemie" />
		<tag k="place" v="quarter" />
		<tag k="ssr:stedsnr" v="1074495" />
	</node>
	<node id="9829197434" lat="65.4400417" lon="13.4526862" version="1" timestamp="2022-06-18T21:24:54Z" changeset="122561500" uid="3497659" user="NKA">
		<tag k="name" v="Kløva" />
		<tag k="place" v="farm" />
		<tag k="ssr:stedsnr" v="682962" />
	</node>
	<node id="9829197435" lat="65.4485722" lon="13.3993916" version="1" timestamp="2022-06-18T21:24:54Z" changeset="122561500" uid="3497659" user="NKA">
		<tag k="name" v="Storsveet" />
		<tag k="place" v="farm" />
		<tag k="ssr:stedsnr" v="197961" />
	</node>
	<node id="9829197436" lat="65.1800594" lon="13.4213057" version="1" timestamp="2022-06-18T21:24:54Z" changeset="122561500" uid="3497659" user="NKA">
		<tag k="name" v="Nordgård" />
		<tag k="place" v="hamlet" />
		<tag k="ssr:stedsnr" v="197722" />
	</node>
	<node id="9829197437" lat="65.1053916" lon="13.3309916" version="1" timestamp="2022-06-18T21:24:54Z" changeset="122561500" uid="3497659" user="NKA">
		<tag k="name" v="Tjønnerud" />
		<tag k="place" v="farm" />
		<tag k="ssr:stedsnr" v="864721" />
	</node>
	<node id="9829197438" lat="65.4603833" lon="13.4063914" version="1" timestamp="2022-06-18T21:24:54Z" changeset="122561500" uid="3497659" user="NKA">
		<tag k="name" v="Stormobakken" />
		<tag k="place" v="farm" />
		<tag k="ssr:stedsnr" v="682964" />
	</node>
	<node id="9829197439" lat="65.416475" lon="13.6741666" version="1" timestamp="2022-06-18T21:24:54Z" changeset="122561500" uid="3497659" user="NKA">
		<tag k="name" v="Urda" />
		<tag k="place" v="farm" />
		<tag k="ssr:stedsnr" v="197939" />
	</node>
	<node id="9829197440" lat="65.5606972" lon="13.4018528" version="1" timestamp="2022-06-18T21:24:54Z" changeset="122561500" uid="3497659" user="NKA">
		<tag k="name" v="Nyrud" />
		<tag k="place" v="farm" />
		<tag k="ssr:stedsnr" v="519489" />
	</node>
	<node id="9829197441" lat="65.4149083" lon="13.3904779" version="1" timestamp="2022-06-18T21:24:54Z" changeset="122561500" uid="3497659" user="NKA">
		<tag k="alt_name" v="Åsmo" />
		<tag k="name" v="Åsmoen" />
		<tag k="place" v="farm" />
		<tag k="ssr:stedsnr" v="743932" />
	</node>
	<node id="9829197442" lat="65.6110097" lon="13.4217614" version="1" timestamp="2022-06-18T21:24:54Z" changeset="122561500" uid="3497659" user="NKA">
		<tag k="name" v="Graneskogen" />
		<tag k="place" v="farm" />
		<tag k="ssr:stedsnr" v="501577" />
	</node>
	<node id="9829197443" lat="65.5278208" lon="13.5006848" version="1" timestamp="2022-06-18T21:24:54Z" changeset="122561500" uid="3497659" user="NKA">
		<tag k="name" v="Skomstad" />
		<tag k="place" v="locality" />
		<tag k="ssr:stedsnr" v="501329" />
	</node>
	<node id="9829197444" lat="65.5291583" lon="13.3963556" version="1" timestamp="2022-06-18T21:24:54Z" changeset="122561500" uid="3497659" user="NKA">
		<tag k="name" v="Innigarden" />
		<tag k="place" v="farm" />
		<tag k="ssr:stedsnr" v="519655" />
	</node>
	<node id="9829197445" lat="65.589725" lon="13.3888389" version="1" timestamp="2022-06-18T21:24:54Z" changeset="122561500" uid="3497659" user="NKA">
		<tag k="name" v="Granheim" />
		<tag k="place" v="farm" />
		<tag k="ssr:stedsnr" v="397922" />
	</node>
	<node id="9829197446" lat="65.5856072" lon="13.3161718" version="1" timestamp="2022-06-18T21:24:54Z" changeset="122561500" uid="3497659" user="NKA">
		<tag k="name" v="Granåsen skogstue" />
		<tag k="place" v="isolated_dwelling" />
		<tag k="ssr:stedsnr" v="155126" />
	</node>
	<node id="9829197447" lat="65.4545332" lon="13.398552" version="1" timestamp="2022-06-18T21:24:54Z" changeset="122561500" uid="3497659" user="NKA">
		<tag k="name" v="Moen" />
		<tag k="place" v="farm" />
		<tag k="ssr:stedsnr" v="198959" />
	</node>
	<node id="9829197448" lat="65.5628988" lon="13.4027143" version="1" timestamp="2022-06-18T21:24:54Z" changeset="122561500" uid="3497659" user="NKA">
		<tag k="name" v="Olsrud" />
		<tag k="place" v="farm" />
		<tag k="ssr:stedsnr" v="397518" />
	</node>
	<node id="9829197449" lat="65.450312" lon="13.3874422" version="1" timestamp="2022-06-18T21:24:54Z" changeset="122561500" uid="3497659" user="NKA">
		<tag k="name" v="Myrli" />
		<tag k="place" v="farm" />
		<tag k="ssr:stedsnr" v="397015" />
	</node>
	<node id="9829197450" lat="65.3892555" lon="13.6503417" version="1" timestamp="2022-06-18T21:24:54Z" changeset="122561500" uid="3497659" user="NKA">
		<tag k="alt_name" v="Løypskarmo" />
		<tag k="name" v="Laupskardmoen" />
		<tag k="place" v="farm" />
		<tag k="ssr:stedsnr" v="865901" />
	</node>
	<node id="9829197451" lat="65.4564498" lon="13.4698011" version="1" timestamp="2022-06-18T21:24:54Z" changeset="122561500" uid="3497659" user="NKA">
		<tag k="name" v="Heimgarden" />
		<tag k="place" v="farm" />
		<tag k="ssr:stedsnr" v="560952" />
	</node>
	<node id="9829197452" lat="65.5681552" lon="13.4019792" version="1" timestamp="2022-06-18T21:24:54Z" changeset="122561500" uid="3497659" user="NKA">
		<tag k="name" v="Skogstad" />
		<tag k="place" v="farm" />
		<tag k="ssr:stedsnr" v="379577" />
	</node>
	<node id="9829197453" lat="65.4530342" lon="13.397738" version="1" timestamp="2022-06-18T21:24:54Z" changeset="122561500" uid="3497659" user="NKA">
		<tag k="name" v="Lilleenget" />
		<tag k="place" v="farm" />
		<tag k="ssr:stedsnr" v="216162" />
	</node>
	<node id="9829197454" lat="65.4329065" lon="13.3963519" version="1" timestamp="2022-06-18T21:24:54Z" changeset="122561500" uid="3497659" user="NKA">
		<tag k="name" v="Stuvneset" />
		<tag k="place" v="farm" />
		<tag k="ssr:stedsnr" v="458005" />
	</node>
	<node id="9829197455" lat="65.5929566" lon="13.3931592" version="1" timestamp="2022-06-18T21:24:54Z" changeset="122561500" uid="3497659" user="NKA">
		<tag k="name" v="Solhaugen" />
		<tag k="place" v="farm" />
		<tag k="ssr:stedsnr" v="155889" />
	</node>
	<node id="9829197456" lat="65.2460694" lon="13.4220417" version="1" timestamp="2022-06-18T21:24:54Z" changeset="122561500" uid="3497659" user="NKA">
		<tag k="name" v="Jensnes" />
		<tag k="place" v="isolated_dwelling" />
		<tag k="ssr:stedsnr" v="682774" />
	</node>
	<node id="9829197457" lat="65.338275" lon="13.6004584" version="1" timestamp="2022-06-18T21:24:54Z" changeset="122561500" uid="3497659" user="NKA">
		<tag k="name" v="Finnkottomta" />
		<tag k="place" v="locality" />
		<tag k="ssr:stedsnr" v="451406" />
	</node>
	<node id="9829197458" lat="65.5277972" lon="13.4782861" version="1" timestamp="2022-06-18T21:24:54Z" changeset="122561500" uid="3497659" user="NKA">
		<tag k="name" v="Granmoen" />
		<tag k="place" v="farm" />
		<tag k="ssr:stedsnr" v="865395" />
	</node>
	<node id="9829197459" lat="65.4186305" lon="13.4821721" version="1" timestamp="2022-06-18T21:24:54Z" changeset="122561500" uid="3497659" user="NKA">
		<tag k="historic" v="shieling" />
		<tag k="name" v="Svenningdalssæter" />
		<tag k="place" v="isolated_dwelling" />
		<tag k="ssr:stedsnr" v="865933" />
	</node>
	<node id="9829197460" lat="65.3922336" lon="13.6228265" version="1" timestamp="2022-06-18T21:24:54Z" changeset="122561500" uid="3497659" user="NKA">
		<tag k="name" v="Nyheim" />
		<tag k="place" v="farm" />
		<tag k="ssr:stedsnr" v="338532" />
	</node>
	<node id="9829197461" lat="65.3530308" lon="13.6087795" version="1" timestamp="2022-06-18T21:24:54Z" changeset="122561500" uid="3497659" user="NKA">
		<tag k="name" v="Bustadmoen" />
		<tag k="place" v="hamlet" />
		<tag k="ssr:stedsnr" v="440883" />
	</node>
	<node id="9829197462" lat="65.5963451" lon="13.3857891" version="1" timestamp="2022-06-18T21:24:54Z" changeset="122561500" uid="3497659" user="NKA">
		<tag k="name" v="Haugbakken" />
		<tag k="place" v="farm" />
		<tag k="ssr:stedsnr" v="579907" />
	</node>
	<node id="9829197463" lat="65.5930206" lon="13.3900372" version="1" timestamp="2022-06-18T21:24:54Z" changeset="122561500" uid="3497659" user="NKA">
		<tag k="name" v="Haugtun" />
		<tag k="place" v="farm" />
		<tag k="ssr:stedsnr" v="640894" />
	</node>
	<node id="9829197464" lat="65.3288278" lon="13.3803388" version="1" timestamp="2022-06-18T21:24:54Z" changeset="122561500" uid="3497659" user="NKA">
		<tag k="name" v="Bergertomta" />
		<tag k="place" v="locality" />
		<tag k="ssr:stedsnr" v="634921" />
	</node>
	<node id="9829197465" lat="65.4805608" lon="13.6447535" version="1" timestamp="2022-06-18T21:24:54Z" changeset="122561500" uid="3497659" user="NKA">
		<tag k="alt_name" v="Storbekken" />
		<tag k="name" v="Storbakken" />
		<tag k="place" v="farm" />
		<tag k="ssr:stedsnr" v="258965" />
	</node>
	<node id="9829197466" lat="65.563775" lon="13.4038277" version="1" timestamp="2022-06-18T21:24:54Z" changeset="122561500" uid="3497659" user="NKA">
		<tag k="name" v="Nystad" />
		<tag k="place" v="farm" />
		<tag k="ssr:stedsnr" v="561581" />
	</node>
	<node id="9829197467" lat="65.5103194" lon="13.3456251" version="1" timestamp="2022-06-18T21:24:54Z" changeset="122561500" uid="3497659" user="NKA">
		<tag k="name" v="Litlevassetra" />
		<tag k="place" v="isolated_dwelling" />
		<tag k="ssr:stedsnr" v="804394" />
	</node>
	<node id="9829197468" lat="65.5781451" lon="13.4004243" version="1" timestamp="2022-06-18T21:24:54Z" changeset="122561500" uid="3497659" user="NKA">
		<tag k="name" v="Lamoen" />
		<tag k="place" v="hamlet" />
		<tag k="ssr:stedsnr" v="621640" />
	</node>
	<node id="9829197469" lat="65.3238086" lon="13.5344029" version="1" timestamp="2022-06-18T21:24:54Z" changeset="122561500" uid="3497659" user="NKA">
		<tag k="name" v="Tøymskardlia" />
		<tag k="place" v="farm" />
		<tag k="ssr:stedsnr" v="319879" />
	</node>
	<node id="9829197470" lat="65.5179653" lon="13.6102618" version="1" timestamp="2022-06-18T21:24:54Z" changeset="122561500" uid="3497659" user="NKA">
		<tag k="name" v="Heggtun" />
		<tag k="place" v="farm" />
		<tag k="ssr:stedsnr" v="945925" />
	</node>
	<node id="9829197471" lat="65.4117278" lon="13.6427001" version="1" timestamp="2022-06-18T21:24:54Z" changeset="122561500" uid="3497659" user="NKA">
		<tag k="name" v="Haugen" />
		<tag k="place" v="farm" />
		<tag k="ssr:stedsnr" v="824209" />
	</node>
	<node id="9829197472" lat="65.5230334" lon="13.376525" version="1" timestamp="2022-06-18T21:24:54Z" changeset="122561500" uid="3497659" user="NKA">
		<tag k="name" v="Vollåsen" />
		<tag k="place" v="farm" />
		<tag k="ssr:stedsnr" v="198338" />
	</node>
	<node id="9829197473" lat="65.428031" lon="13.6641888" version="1" timestamp="2022-06-18T21:24:54Z" changeset="122561500" uid="3497659" user="NKA">
		<tag k="alt_name" v="Nordmoen" />
		<tag k="name" v="Nordmo" />
		<tag k="place" v="farm" />
		<tag k="ssr:stedsnr" v="925949" />
	</node>
	<node id="9829197474" lat="65.5001889" lon="13.6694501" version="1" timestamp="2022-06-18T21:24:54Z" changeset="122561500" uid="3497659" user="NKA">
		<tag k="name" v="Hallingsetra" />
		<tag k="place" v="locality" />
		<tag k="ssr:stedsnr" v="889099" />
	</node>
	<node id="9829197475" lat="65.4124958" lon="13.6688702" version="1" timestamp="2022-06-18T21:24:54Z" changeset="122561500" uid="3497659" user="NKA">
		<tag k="name" v="Nerosen" />
		<tag k="place" v="farm" />
		<tag k="ssr:stedsnr" v="804925" />
	</node>
	<node id="9829197476" lat="65.4331334" lon="13.6760612" version="1" timestamp="2022-06-18T21:24:54Z" changeset="122561500" uid="3497659" user="NKA">
		<tag k="alt_name" v="Sagarmoen" />
		<tag k="name" v="Sagarmo" />
		<tag k="place" v="farm" />
		<tag k="ssr:stedsnr" v="804933" />
	</node>
	<node id="9829197477" lat="65.3597805" lon="13.3807611" version="1" timestamp="2022-06-18T21:24:54Z" changeset="122561500" uid="3497659" user="NKA">
		<tag k="name" v="Slorby" />
		<tag k="place" v="locality" />
		<tag k="ssr:stedsnr" v="878904" />
	</node>
	<node id="9829197478" lat="65.5259495" lon="13.5685071" version="1" timestamp="2022-06-18T21:24:54Z" changeset="122561500" uid="3497659" user="NKA">
		<tag k="alt_name" v="Brubakk" />
		<tag k="name" v="Brubakken" />
		<tag k="place" v="farm" />
		<tag k="ssr:stedsnr" v="76362" />
	</node>
	<node id="9829197479" lat="65.4580714" lon="13.3908683" version="1" timestamp="2022-06-18T21:24:54Z" changeset="122561500" uid="3497659" user="NKA">
		<tag k="name" v="Olderbakken" />
		<tag k="place" v="farm" />
		<tag k="ssr:stedsnr" v="883236" />
	</node>
	<node id="9829197480" lat="65.4684046" lon="13.6921701" version="1" timestamp="2022-06-18T21:24:54Z" changeset="122561500" uid="3497659" user="NKA">
		<tag k="name" v="Dalen" />
		<tag k="place" v="farm" />
		<tag k="ssr:stedsnr" v="580013" />
	</node>
	<node id="9829197481" lat="65.3835917" lon="13.6165888" version="1" timestamp="2022-06-18T21:24:54Z" changeset="122561500" uid="3497659" user="NKA">
		<tag k="name" v="Strandli" />
		<tag k="place" v="farm" />
		<tag k="ssr:stedsnr" v="318918" />
	</node>
	<node id="9829197482" lat="65.5867349" lon="13.3946234" version="1" timestamp="2022-06-18T21:24:54Z" changeset="122561500" uid="3497659" user="NKA">
		<tag k="name" v="Solvang" />
		<tag k="place" v="farm" />
		<tag k="ssr:stedsnr" v="701910" />
	</node>
	<node id="9829197483" lat="65.5218636" lon="13.5488562" version="1" timestamp="2022-06-18T21:24:54Z" changeset="122561500" uid="3497659" user="NKA">
		<tag k="alt_name" v="Stabbforsmo" />
		<tag k="name" v="Stabbforsmoen" />
		<tag k="place" v="hamlet" />
		<tag k="ssr:stedsnr" v="501342" />
	</node>
	<node id="9829197484" lat="65.4665514" lon="13.6910178" version="1" timestamp="2022-06-18T21:24:54Z" changeset="122561500" uid="3497659" user="NKA">
		<tag k="name" v="Storfiplingdalen" />
		<tag k="place" v="farm" />
		<tag k="ssr:stedsnr" v="622955" />
	</node>
	<node id="9829197485" lat="65.464625" lon="13.5971112" version="1" timestamp="2022-06-18T21:24:54Z" changeset="122561500" uid="3497659" user="NKA">
		<tag k="name" v="Kilhaugen" />
		<tag k="place" v="farm" />
		<tag k="ssr:stedsnr" v="622954" />
	</node>
	<node id="9829197486" lat="65.4874869" lon="13.2928341" version="1" timestamp="2022-06-18T21:24:54Z" changeset="122561500" uid="3497659" user="NKA">
		<tag k="name" v="Stavvassdalen" />
		<tag k="place" v="farm" />
		<tag k="ssr:stedsnr" v="258983" />
	</node>
	<node id="9829197487" lat="65.4452028" lon="13.6684306" version="1" timestamp="2022-06-18T21:24:54Z" changeset="122561500" uid="3497659" user="NKA">
		<tag k="name" v="Sørbakk" />
		<tag k="place" v="farm" />
		<tag k="ssr:stedsnr" v="440939" />
	</node>
	<node id="9829197488" lat="65.4984525" lon="13.7171877" version="1" timestamp="2022-06-18T21:24:54Z" changeset="122561500" uid="3497659" user="NKA">
		<tag k="name" v="Jerpåsen" />
		<tag k="place" v="farm" />
		<tag k="ssr:stedsnr" v="136982" />
	</node>
	<node id="9829197489" lat="65.4427096" lon="13.3909878" version="1" timestamp="2022-06-18T21:24:54Z" changeset="122561500" uid="3497659" user="NKA">
		<tag k="name" v="Vang" />
		<tag k="place" v="farm" />
		<tag k="ssr:stedsnr" v="155018" />
	</node>
	<node id="9829197490" lat="65.4724278" lon="13.619311" version="1" timestamp="2022-06-18T21:24:54Z" changeset="122561500" uid="3497659" user="NKA">
		<tag k="name" v="Lia" />
		<tag k="place" v="farm" />
		<tag k="ssr:stedsnr" v="319970" />
	</node>
	<node id="9829197491" lat="65.4374973" lon="13.6928084" version="1" timestamp="2022-06-18T21:24:54Z" changeset="122561500" uid="3497659" user="NKA">
		<tag k="alt_name" v="Langlia" />
		<tag k="name" v="Langli" />
		<tag k="place" v="farm" />
		<tag k="ssr:stedsnr" v="621951" />
	</node>
	<node id="9829197492" lat="65.5539806" lon="13.3876389" version="1" timestamp="2022-06-18T21:24:54Z" changeset="122561500" uid="3497659" user="NKA">
		<tag k="name" v="Neset" />
		<tag k="place" v="farm" />
		<tag k="ssr:stedsnr" v="216966" />
	</node>
	<node id="9829197493" lat="65.4098639" lon="13.6577278" version="1" timestamp="2022-06-18T21:24:54Z" changeset="122561500" uid="3497659" user="NKA">
		<tag k="name" v="Rabben" />
		<tag k="place" v="farm" />
		<tag k="ssr:stedsnr" v="258920" />
	</node>
	<node id="9829197494" lat="65.5036389" lon="13.4306528" version="1" timestamp="2022-06-18T21:24:54Z" changeset="122561500" uid="3497659" user="NKA">
		<tag k="name" v="Båfjellmosetra" />
		<tag k="place" v="locality" />
		<tag k="ssr:stedsnr" v="258272" />
	</node>
	<node id="9829197495" lat="65.5225555" lon="13.5298973" version="1" timestamp="2022-06-18T21:24:54Z" changeset="122561500" uid="3497659" user="NKA">
		<tag k="name" v="Engelskvillaen" />
		<tag k="place" v="isolated_dwelling" />
		<tag k="ssr:stedsnr" v="216845" />
	</node>
	<node id="9829197496" lat="65.4687" lon="13.6531112" version="1" timestamp="2022-06-18T21:24:54Z" changeset="122561500" uid="3497659" user="NKA">
		<tag k="name" v="Møllfarsen" />
		<tag k="place" v="farm" />
		<tag k="ssr:stedsnr" v="277189" />
	</node>
	<node id="9829197497" lat="65.1478776" lon="13.3508699" version="1" timestamp="2022-06-18T21:24:54Z" changeset="122561500" uid="3497659" user="NKA">
		<tag k="name" v="Skogstrand" />
		<tag k="place" v="isolated_dwelling" />
		<tag k="ssr:stedsnr" v="499653" />
	</node>
	<node id="9829197498" lat="65.4571014" lon="13.467829" version="1" timestamp="2022-06-18T21:24:54Z" changeset="122561500" uid="3497659" user="NKA">
		<tag k="name" v="Båfjelldalen" />
		<tag k="place" v="farm" />
		<tag k="ssr:stedsnr" v="990416" />
	</node>
	<node id="9829197499" lat="65.4393908" lon="13.3972184" version="1" timestamp="2022-06-18T21:24:54Z" changeset="122561500" uid="3497659" user="NKA">
		<tag k="name" v="Nedre Hjortskardmoen" />
		<tag k="place" v="farm" />
		<tag k="ssr:stedsnr" v="981190" />
	</node>
	<node id="9829197500" lat="65.5862889" lon="13.3990972" version="1" timestamp="2022-06-18T21:24:54Z" changeset="122561500" uid="3497659" user="NKA">
		<tag k="name" v="Lavollen" />
		<tag k="place" v="farm" />
		<tag k="ssr:stedsnr" v="944910" />
	</node>
	<node id="9829197501" lat="65.4264417" lon="13.3990833" version="1" timestamp="2022-06-18T21:24:54Z" changeset="122561500" uid="3497659" user="NKA">
		<tag k="name" v="Åseng" />
		<tag k="place" v="farm" />
		<tag k="ssr:stedsnr" v="804947" />
	</node>
	<node id="9829197502" lat="65.572481" lon="13.3970635" version="1" timestamp="2022-06-18T21:24:54Z" changeset="122561500" uid="3497659" user="NKA">
		<tag k="alt_name" v="Fellingforsmo" />
		<tag k="name" v="Fellingforsmoen" />
		<tag k="place" v="farm" />
		<tag k="ssr:stedsnr" v="337404" />
	</node>
	<node id="9829197503" lat="65.5632293" lon="13.4030468" version="1" timestamp="2022-06-18T21:24:54Z" changeset="122561500" uid="3497659" user="NKA">
		<tag k="name" v="Nordheim" />
		<tag k="place" v="farm" />
		<tag k="ssr:stedsnr" v="216426" />
	</node>
	<node id="9829197504" lat="65.3719028" lon="13.5994805" version="1" timestamp="2022-06-18T21:24:54Z" changeset="122561500" uid="3497659" user="NKA">
		<tag k="name" v="Kvitsand" />
		<tag k="place" v="farm" />
		<tag k="ssr:stedsnr" v="622908" />
	</node>
	<node id="5752150377" lat="65.6267497" lon="13.4406226" version="1" timestamp="2018-07-10T16:20:53Z" changeset="60583433" uid="5732597" user="ENTUR Johan Wiklund" />
	<node id="5752169850" lat="65.6267299" lon="13.4403102" version="1" timestamp="2018-07-10T16:24:45Z" changeset="60583510" uid="5732597" user="ENTUR Johan Wiklund" />
	<way id="154568356" version="3" timestamp="2022-01-24T06:56:00Z" changeset="116526664" uid="3497659" user="NKA">
		<tag k="bridge" v="yes" />
		<tag k="highway" v="unclassified" />
		<tag k="layer" v="1" />
		<tag k="name" v="Gammelgardsbrua" />
		<tag k="ssr:stedsnr" v="277452" />
		<nd ref="5752150377" />
		<nd ref="5752169850" />
	</way>
</osm>
