<?xml version="1.0" encoding="UTF-8"?>
<osm generator="osmapis" version="0.6">
	<node id="-795280" lat="70.9748083342" lon="24.0356860002">
		<tag k="highway" v="path" />
		<tag k="name" v="Valfjordveien" />
		<tag k="ssr:stedsnr" v="510174" />
	</node>
	<node id="-795191" lat="71.00027778" lon="23.9005554633">
		<tag k="landuse" v="harbour" />
		<tag k="name" v="Vassvika" />
		<tag k="seamark:type" v="harbour" />
		<tag k="ssr:stedsnr" v="450359" />
	</node>
	<node id="-795728" lat="70.9979638935" lon="23.9402165813">
		<tag k="junction" v="yes" />
		<tag k="name" v="Krysset" />
		<tag k="place" v="locality" />
		<tag k="ssr:stedsnr" v="752482" />
	</node>
	<node id="-795823" lat="70.9668027823" lon="24.0219693584">
		<tag k="highway" v="path" />
		<tag k="name" v="Farjogos" />
		<tag k="ssr:stedsnr" v="813137" />
	</node>
	<node id="-795278" lat="71.0063472218" lon="23.9425110239">
		<tag k="highway" v="path" />
		<tag k="name" v="Stifjellveien" />
		<tag k="ssr:stedsnr" v="509503" />
	</node>
	<node id="-794730" lat="71.0850972247" lon="24.0604637972">
		<tag k="fixme" v="verify maritime location" />
		<tag k="mooring" v="yes" />
		<tag k="name" v="KrokstÃ¸a" />
		<tag k="place" v="locality" />
		<tag k="ssr:stedsnr" v="85083" />
	</node>
	<node id="-795496" lat="70.9755166673" lon="24.0499443306">
		<tag k="highway" v="path" />
		<tag k="name" v="Sandfjordveien" />
		<tag k="ssr:stedsnr" v="631167" />
	</node>
	<node id="-795492" lat="71.0655388965" lon="24.0460776727">
		<tag k="junction" v="yes" />
		<tag k="name" v="Finneskrysset" />
		<tag k="place" v="locality" />
		<tag k="ssr:stedsnr" v="631008" />
	</node>
</osm>
