<?xml version="1.0" encoding="UTF-8"?>
<osm generator="osmapis" version="0.6">
	<node id="-794624" lat="71.0868111146" lon="24.011480469">
		<tag k="fixme" v="consider seamark:type=rock or natural=shoal" />
		<tag k="name" v="Maltsekken" />
		<tag k="place" v="islet" />
		<tag k="ssr:stedsnr" v="692074" />
	</node>
	<node id="-794623" lat="71.0556916672" lon="24.0753582211">
		<tag k="name" v="Torvenesen" />
		<tag k="natural" v="cape" />
		<tag k="ssr:stedsnr" v="692034" />
	</node>
	<node id="-794622" lat="71.0544444467" lon="24.019130469">
		<tag k="name" v="Vikranleira" />
		<tag k="natural" v="bay" />
		<tag k="ssr:stedsnr" v="692012" />
	</node>
	<node id="-794620" lat="71.0862888909" lon="24.1230026711">
		<tag k="name" v="Russen" />
		<tag k="natural" v="cape" />
		<tag k="ssr:stedsnr" v="692009" />
	</node>
	<node id="-794614" lat="71.1080833388" lon="24.8569637364">
		<tag k="fixme" v="consider seamark:type=rock or natural=shoal" />
		<tag k="name" v="Næringskjæret" />
		<tag k="place" v="islet" />
		<tag k="ssr:stedsnr" v="688669" />
	</node>
	<node id="-794613" lat="71.1031527834" lon="24.8050832059">
		<tag k="name" v="Garpholmen" />
		<tag k="place" v="islet" />
		<tag k="ssr:stedsnr" v="688668" />
	</node>
	<node id="-794612" lat="71.120891673" lon="24.9726915243">
		<tag k="name" v="Tarvikakselgrunnen" />
		<tag k="natural" v="shoal" />
		<tag k="place" v="locality" />
		<tag k="ssr:stedsnr" v="688660" />
	</node>
	<node id="-794611" lat="71.0110416728" lon="24.0953137872">
		<tag k="alt_name" v="Lyngvikskjera" />
		<tag k="fixme" v="consider seamark:type=rock or natural=shoal" />
		<tag k="name" v="Lyngvikskjæran" />
		<tag k="place" v="islet" />
		<tag k="ssr:stedsnr" v="688615" />
	</node>
	<node id="-794610" lat="70.9252000023" lon="24.8405303984">
		<tag k="name" v="Sandvika" />
		<tag k="natural" v="bay" />
		<tag k="ssr:stedsnr" v="688525" />
	</node>
	<node id="-794607" lat="70.9333333345" lon="24.9196803889">
		<tag k="alt_name" v="Kulabukta, in" />
		<tag k="fixme" v="multiple name tags, choose one and add the other to alt_name" />
		<tag k="name" v="Indre Kula;Indre Kulabukta" />
		<tag k="natural" v="bay" />
		<tag k="ssr:stedsnr" v="688433" />
	</node>
	<node id="-794606" lat="70.9551500027" lon="24.9820248512">
		<tag k="name" v="Njoalonjárga" />
		<tag k="name:se" v="Njoalonjárga" />
		<tag k="natural" v="cape" />
		<tag k="old_name:se" v="Njoalunjarga" />
		<tag k="ssr:stedsnr" v="688432" />
	</node>
	<node id="-794605" lat="71.0327916688" lon="23.9934526822">
		<tag k="bay" v="fjord" />
		<tag k="name" v="Trollfjorden" />
		<tag k="natural" v="bay" />
		<tag k="ssr:stedsnr" v="688419" />
	</node>
	<node id="-794604" lat="70.9933305624" lon="24.8430082034">
		<tag k="name" v="Mefjordgrunnen" />
		<tag k="natural" v="shoal" />
		<tag k="place" v="locality" />
		<tag k="ssr:stedsnr" v="688357" />
	</node>
	<node id="-794603" lat="70.7538055603" lon="24.3546693095">
		<tag k="name" v="Steinvika - Geađgeluokta" />
		<tag k="name:no" v="Steinvika" />
		<tag k="name:se" v="Geađgeluokta" />
		<tag k="natural" v="bay" />
		<tag k="old_name:se" v="Gæđgeluokta" />
		<tag k="ssr:stedsnr" v="688337" />
	</node>
	<node id="-794601" lat="70.9569000027" lon="23.8986499212">
		<tag k="name" v="Svarthola" />
		<tag k="natural" v="bay" />
		<tag k="ssr:stedsnr" v="688159" />
	</node>
	<node id="-794600" lat="70.9805861166" lon="23.810316579">
		<tag k="name" v="Kolgrunnen" />
		<tag k="natural" v="shoal" />
		<tag k="place" v="locality" />
		<tag k="ssr:stedsnr" v="688152" />
	</node>
	<node id="-794599" lat="70.9820111175" lon="23.9907582321">
		<tag k="fixme" v="consider seamark:type=rock or natural=shoal" />
		<tag k="name" v="Sørkjosskjæret" />
		<tag k="place" v="islet" />
		<tag k="ssr:stedsnr" v="688149" />
	</node>
	<node id="-794592" lat="71.0715611147" lon="24.8747887321">
		<tag k="name" v="Nissegrunnen" />
		<tag k="natural" v="shoal" />
		<tag k="place" v="locality" />
		<tag k="ssr:stedsnr" v="687681" />
	</node>
	<node id="-794591" lat="71.052900004" lon="24.4582776568">
		<tag k="name" v="Vestervåggrunnen" />
		<tag k="natural" v="shoal" />
		<tag k="place" v="locality" />
		<tag k="ssr:stedsnr" v="687622" />
	</node>
	<node id="-794590" lat="71.0239861158" lon="24.2810054479">
		<tag k="fixme" v="multiple name tags, choose one and add the other to alt_name" />
		<tag k="name" v="Vestervåggrunnen;Øvre Vestervåggrunnen" />
		<tag k="natural" v="shoal" />
		<tag k="place" v="locality" />
		<tag k="ssr:stedsnr" v="687620" />
	</node>
	<node id="-794589" lat="71.1024416662" lon="24.0960887816">
		<tag k="name" v="Langskjæret" />
		<tag k="place" v="islet" />
		<tag k="ssr:stedsnr" v="687613" />
	</node>
	<node id="-794586" lat="71.0664333369" lon="24.0926082403">
		<tag k="alt_name" v="Seterbukta" />
		<tag k="name" v="Sæterbukta" />
		<tag k="natural" v="bay" />
		<tag k="ssr:stedsnr" v="687587" />
	</node>
	<node id="-794585" lat="71.088524999" lon="23.8764498956">
		<tag k="name" v="Råsa" />
		<tag k="natural" v="shoal" />
		<tag k="place" v="locality" />
		<tag k="ssr:stedsnr" v="687585" />
	</node>
	<node id="-794584" lat="71.0829388899" lon="23.9888332329">
		<tag k="name" v="Flaget" />
		<tag k="natural" v="strait" />
		<tag k="ssr:stedsnr" v="687583" />
	</node>
	<node id="-794583" lat="71.0751749995" lon="23.9570193358">
		<tag k="name" v="Stokkneset" />
		<tag k="natural" v="cape" />
		<tag k="ssr:stedsnr" v="687578" />
	</node>
	<node id="-794582" lat="71.0685138862" lon="23.9482304724">
		<tag k="name" v="Skjerkeila" />
		<tag k="natural" v="bay" />
		<tag k="ssr:stedsnr" v="687567" />
	</node>
	<node id="-794581" lat="71.0295694502" lon="23.9920499069">
		<tag k="alt_name" v="Sandneset" />
		<tag k="name" v="Sandklubben" />
		<tag k="natural" v="cape" />
		<tag k="ssr:stedsnr" v="687554" />
	</node>
	<node id="-794580" lat="71.0145916689" lon="23.89880547">
		<tag k="name" v="Trollvika" />
		<tag k="natural" v="bay" />
		<tag k="ssr:stedsnr" v="687544" />
	</node>
	<node id="-794578" lat="71.1218277795" lon="24.2553137762">
		<tag k="name" v="Båen" />
		<tag k="natural" v="shoal" />
		<tag k="place" v="locality" />
		<tag k="ssr:stedsnr" v="687528" />
	</node>
	<node id="-794577" lat="71.1194250062" lon="24.1725832339">
		<tag k="name" v="Rossmålhella" />
		<tag k="natural" v="shoal" />
		<tag k="place" v="locality" />
		<tag k="ssr:stedsnr" v="687529" />
	</node>
	<node id="-794576" lat="71.1003083384" lon="23.9659498989">
		<tag k="name" v="Jernsteinskallen" />
		<tag k="natural" v="shoal" />
		<tag k="place" v="locality" />
		<tag k="ssr:stedsnr" v="687500" />
	</node>
	<node id="-794573" lat="70.9236000016" lon="25.0965498336">
		<tag k="alt_name:no" v="Konglevik" />
		<tag k="name" v="Kongelvika - Márri" />
		<tag k="name:no" v="Kongelvika" />
		<tag k="name:se" v="Márri" />
		<tag k="natural" v="bay" />
		<tag k="old_name:se" v="Marri" />
		<tag k="ssr:stedsnr" v="687423" />
	</node>
	<node id="-794567" lat="70.8321888934" lon="24.4318804402">
		<tag k="name" v="Kvitneset" />
		<tag k="natural" v="cape" />
		<tag k="ssr:stedsnr" v="687367" />
	</node>
	<node id="-794566" lat="70.8206361159" lon="24.5982665362">
		<tag k="name" v="Petterneset" />
		<tag k="natural" v="cape" />
		<tag k="ssr:stedsnr" v="687358" />
	</node>
	<node id="-794565" lat="70.8204000047" lon="24.4488859762">
		<tag k="name" v="Amundvikneset" />
		<tag k="natural" v="cape" />
		<tag k="ssr:stedsnr" v="687357" />
	</node>
	<node id="-794563" lat="70.7662805637" lon="24.2810776541">
		<tag k="alt_name:no" v="Spinosskjera" />
		<tag k="fixme" v="consider seamark:type=rock or natural=shoal" />
		<tag k="name" v="Speinosskjæret - Speinnošlásis" />
		<tag k="name:no" v="Speinosskjæret" />
		<tag k="name:se" v="Speinnošlásis" />
		<tag k="old_name:se" v="Speinušlasis" />
		<tag k="place" v="islet" />
		<tag k="ssr:stedsnr" v="687329" />
	</node>
	<node id="-794561" lat="70.7643833369" lon="24.321599881">
		<tag k="name" v="Hamna" />
		<tag k="natural" v="bay" />
		<tag k="ssr:stedsnr" v="687315" />
	</node>
	<node id="-794560" lat="70.918458338" lon="24.6155915222">
		<tag k="fixme" v="multiple name tags, choose one and add the other to alt_name" />
		<tag k="name" v="Storbukta;Store Sandbukta" />
		<tag k="natural" v="bay" />
		<tag k="ssr:stedsnr" v="687279" />
	</node>
	<node id="-794558" lat="70.8352138968" lon="24.4389137618">
		<tag k="alt_name:no" v="Klubben" />
		<tag k="name" v="Kvitnesklubben - Vilgesnjárga" />
		<tag k="name:no" v="Kvitnesklubben" />
		<tag k="name:se" v="Vilgesnjárga" />
		<tag k="natural" v="cape" />
		<tag k="old_name:se" v="Vilgesnjarga" />
		<tag k="ssr:stedsnr" v="687258" />
	</node>
	<node id="-794556" lat="70.9944027817" lon="24.164658238">
		<tag k="fixme" v="multiple name tags, choose one and add the other to alt_name" />
		<tag k="name" v="Tarevika;Torvelvik;Torvvika" />
		<tag k="natural" v="bay" />
		<tag k="ssr:stedsnr" v="687225" />
	</node>
	<node id="-794555" lat="70.9312361141" lon="24.1472610078">
		<tag k="name" v="Daudmannsvika" />
		<tag k="natural" v="bay" />
		<tag k="ssr:stedsnr" v="687221" />
	</node>
	<node id="-794554" lat="70.9277555575" lon="24.0899248839">
		<tag k="name" v="Jonneset" />
		<tag k="natural" v="cape" />
		<tag k="ssr:stedsnr" v="687217" />
	</node>
	<node id="-794553" lat="70.9578361174" lon="24.5461109919">
		<tag k="alt_name" v="Nebbegrunnen, øvre" />
		<tag k="name" v="Øvre Nebbegrunnen" />
		<tag k="natural" v="shoal" />
		<tag k="place" v="locality" />
		<tag k="ssr:stedsnr" v="687204" />
	</node>
	<node id="-794549" lat="70.8622944476" lon="25.358022022">
		<tag k="name" v="Veidnesbukta - Dávlegohppi" />
		<tag k="name:no" v="Veidnesbukta" />
		<tag k="name:se" v="Dávlegohppi" />
		<tag k="natural" v="bay" />
		<tag k="old_name:se" v="Davlegåppi" />
		<tag k="ssr:stedsnr" v="687019" />
	</node>
	<node id="-794547" lat="71.0967666711" lon="24.0693193557">
		<tag k="fixme" v="consider seamark:type=rock or natural=shoal" />
		<tag k="name" v="Rundskjæret" />
		<tag k="place" v="islet" />
		<tag k="ssr:stedsnr" v="654987" />
	</node>
	<node id="-794546" lat="71.0956000038" lon="24.1616471172">
		<tag k="name" v="Hella" />
		<tag k="place" v="locality" />
		<tag k="seamark:type" v="rock" />
		<tag k="ssr:stedsnr" v="654984" />
	</node>
	<node id="-794545" lat="71.0086194434" lon="24.0431776904">
		<tag k="name" v="Storsand" />
		<tag k="natural" v="bay" />
		<tag k="ssr:stedsnr" v="654846" />
	</node>
	<node id="-794544" lat="70.9197388903" lon="24.532741542">
		<tag k="name" v="Landsundet" />
		<tag k="natural" v="strait" />
		<tag k="ssr:stedsnr" v="654802" />
	</node>
	<node id="-794543" lat="70.8704472247" lon="24.6416248493">
		<tag k="name" v="Tromsebukta" />
		<tag k="natural" v="bay" />
		<tag k="ssr:stedsnr" v="654362" />
	</node>
	<node id="-794540" lat="71.0571944482" lon="25.0782220666">
		<tag k="name" v="Austre Kulskallan" />
		<tag k="natural" v="shoal" />
		<tag k="place" v="locality" />
		<tag k="ssr:stedsnr" v="654001" />
	</node>
	<node id="-794539" lat="70.8611111152" lon="24.3138387851">
		<tag k="name" v="Lillemolla" />
		<tag k="natural" v="bay" />
		<tag k="ssr:stedsnr" v="635772" />
	</node>
	<node id="-794538" lat="70.6951805636" lon="24.6341081926">
		<tag k="name" v="Mollvik" />
		<tag k="natural" v="bay" />
		<tag k="ssr:stedsnr" v="635755" />
	</node>
	<node id="-794536" lat="71.0853361185" lon="24.8000609672">
		<tag k="name" v="Vika" />
		<tag k="natural" v="bay" />
		<tag k="ssr:stedsnr" v="635037" />
	</node>
	<node id="-794530" lat="70.8803833333" lon="24.9334831758">
		<tag k="name" v="Hamneklubben" />
		<tag k="natural" v="cape" />
		<tag k="ssr:stedsnr" v="633429" />
	</node>
	<node id="-794529" lat="71.0134583371" lon="25.018491512">
		<tag k="name" v="Finnvikneset" />
		<tag k="natural" v="cape" />
		<tag k="ssr:stedsnr" v="633150" />
	</node>
	<node id="-794527" lat="71.0013888966" lon="25.0013887297">
		<tag k="name" v="Raet" />
		<tag k="place" v="locality" />
		<tag k="ssr:stedsnr" v="631388" />
	</node>
	<node id="-794522" lat="70.9753083381" lon="24.0549554568">
		<tag k="name" v="Gargolandet" />
		<tag k="natural" v="beach" />
		<tag k="place" v="locality" />
		<tag k="ssr:stedsnr" v="631166" />
	</node>
	<node id="-794516" lat="71.0014111166" lon="23.911930474">
		<tag k="name" v="Neset" />
		<tag k="natural" v="cape" />
		<tag k="ssr:stedsnr" v="630338" />
	</node>
	<node id="-794514" lat="71.0783833326" lon="24.0109721168">
		<tag k="name" v="Råttvika" />
		<tag k="natural" v="bay" />
		<tag k="ssr:stedsnr" v="630112" />
	</node>
	<node id="-794512" lat="71.0741722257" lon="24.0249693429">
		<tag k="name" v="Segelbergbukta" />
		<tag k="natural" v="bay" />
		<tag k="ssr:stedsnr" v="630107" />
	</node>
	<node id="-794510" lat="71.1104694462" lon="24.8799804251">
		<tag k="name" v="Næringsgrunnen" />
		<tag k="natural" v="shoal" />
		<tag k="place" v="locality" />
		<tag k="ssr:stedsnr" v="627674" />
	</node>
	<node id="-794507" lat="70.8577083333" lon="24.4933998646">
		<tag k="name" v="Marigrunnen" />
		<tag k="natural" v="shoal" />
		<tag k="place" v="locality" />
		<tag k="ssr:stedsnr" v="627285" />
	</node>
	<node id="-794506" lat="70.8572277805" lon="24.4357109805">
		<tag k="name" v="Storgrunnen" />
		<tag k="natural" v="shoal" />
		<tag k="place" v="locality" />
		<tag k="ssr:stedsnr" v="627284" />
	</node>
	<node id="-794505" lat="70.7101583379" lon="24.5424359656">
		<tag k="name" v="Kvalneset - Fálesnjárga" />
		<tag k="name:no" v="Kvalneset" />
		<tag k="name:se" v="Fálesnjárga" />
		<tag k="natural" v="cape" />
		<tag k="old_name:se" v="Falesnjarga" />
		<tag k="ssr:stedsnr" v="627202" />
	</node>
	<node id="-794504" lat="70.7462500043" lon="24.4965831959">
		<tag k="fixme" v="multiple name tags, choose one and add the other to alt_name" />
		<tag k="name" v="Avneset;Hamnneset - Ávenjárga" />
		<tag k="name:no" v="Avneset;Hamnneset" />
		<tag k="name:se" v="Ávenjárga" />
		<tag k="natural" v="cape" />
		<tag k="old_name:se" v="Avenjarga" />
		<tag k="ssr:stedsnr" v="627181" />
	</node>
	<node id="-794495" lat="71.0331111127" lon="24.9948248566">
		<tag k="name" v="Steinvika" />
		<tag k="natural" v="bay" />
		<tag k="ssr:stedsnr" v="626686" />
	</node>
	<node id="-794494" lat="71.0299527816" lon="24.7635970712">
		<tag k="name" v="Straumsneset" />
		<tag k="natural" v="cape" />
		<tag k="ssr:stedsnr" v="626682" />
	</node>
	<node id="-794492" lat="71.088863894" lon="24.8179165398">
		<tag k="name" v="Magnusneset" />
		<tag k="natural" v="cape" />
		<tag k="ssr:stedsnr" v="626662" />
	</node>
	<node id="-794491" lat="71.0832138909" lon="24.9895804085">
		<tag k="name" v="Knausen" />
		<tag k="natural" v="shoal" />
		<tag k="place" v="locality" />
		<tag k="ssr:stedsnr" v="626663" />
	</node>
	<node id="-794488" lat="71.0049944499" lon="24.18239989">
		<tag k="alt_name" v="Ufferbåen" />
		<tag k="name" v="Oterbåen" />
		<tag k="natural" v="shoal" />
		<tag k="place" v="locality" />
		<tag k="ssr:stedsnr" v="626624" />
	</node>
	<node id="-794487" lat="71.0152611116" lon="24.5458359843">
		<tag k="fixme" v="multiple name tags, choose one and add the other to alt_name" />
		<tag k="name" v="Gavlodden;Vestre Gavlodden" />
		<tag k="natural" v="cape" />
		<tag k="ssr:stedsnr" v="626623" />
	</node>
	<node id="-794486" lat="71.0917611133" lon="24.0689193511">
		<tag k="name" v="Langholmen" />
		<tag k="place" v="islet" />
		<tag k="ssr:stedsnr" v="626620" />
	</node>
	<node id="-794485" lat="71.1176027758" lon="24.5996526583">
		<tag k="name" v="Skjæringsgrunnen" />
		<tag k="natural" v="shoal" />
		<tag k="place" v="locality" />
		<tag k="ssr:stedsnr" v="626616" />
	</node>
	<node id="-794483" lat="71.0827083331" lon="24.2312832283">
		<tag k="name" v="Gåsøygrunnen" />
		<tag k="natural" v="shoal" />
		<tag k="place" v="locality" />
		<tag k="ssr:stedsnr" v="626598" />
	</node>
	<node id="-794482" lat="71.0713888913" lon="23.9494415673">
		<tag k="name" v="Mafjordnæringen" />
		<tag k="natural" v="cape" />
		<tag k="ssr:stedsnr" v="626592" />
	</node>
	<node id="-794481" lat="71.0595361107" lon="23.9675776808">
		<tag k="alt_name:no" v="Ingøy" />
		<tag k="name" v="Ingøya - Fávle-Iččát" />
		<tag k="name:no" v="Ingøya" />
		<tag k="name:se" v="Fávle-Iččát" />
		<tag k="old_name:se" v="Favle-Ižžat" />
		<tag k="place" v="island" />
		<tag k="ssr:stedsnr" v="626588" />
	</node>
	<node id="-794479" lat="71.0191138864" lon="23.8878749134">
		<tag k="name" v="Skjerkvalholmen" />
		<tag k="place" v="islet" />
		<tag k="ssr:stedsnr" v="626569" />
	</node>
	<node id="-794478" lat="71.0030555548" lon="23.9140248967">
		<tag k="alt_name" v="Tufjord" />
		<tag k="bay" v="fjord" />
		<tag k="name" v="Tufjorden" />
		<tag k="natural" v="bay" />
		<tag k="ssr:stedsnr" v="626561" />
	</node>
	<node id="-794463" lat="70.810011113" lon="24.5540720823">
		<tag k="name" v="Flua" />
		<tag k="natural" v="shoal" />
		<tag k="place" v="locality" />
		<tag k="ssr:stedsnr" v="626419" />
	</node>
	<node id="-794462" lat="70.7919361172" lon="24.2065054341">
		<tag k="name" v="Mellomgrunnen" />
		<tag k="natural" v="shoal" />
		<tag k="place" v="locality" />
		<tag k="ssr:stedsnr" v="626407" />
	</node>
	<node id="-794460" lat="70.8829333339" lon="24.295886007">
		<tag k="name" v="Jensvalen" />
		<tag k="natural" v="bay" />
		<tag k="ssr:stedsnr" v="626344" />
	</node>
	<node id="-794459" lat="70.8670833385" lon="24.2225971156">
		<tag k="name" v="Reinøya - Reainnát" />
		<tag k="name:no" v="Reinøya" />
		<tag k="name:se" v="Reainnát" />
		<tag k="old_name:se" v="Ræinat" />
		<tag k="place" v="island" />
		<tag k="ssr:stedsnr" v="626343" />
	</node>
	<node id="-794458" lat="70.8848777792" lon="24.2418221088">
		<tag k="name" v="Reinøykalven - Uhca Reaidná" />
		<tag k="name:no" v="Reinøykalven" />
		<tag k="name:se" v="Uhca Reaidná" />
		<tag k="old_name:se" v="Ræidna, ucca" />
		<tag k="place" v="island" />
		<tag k="ssr:stedsnr" v="626341" />
	</node>
	<node id="-794457" lat="70.9023027785" lon="24.5498609718">
		<tag k="name" v="Skjarvebukta" />
		<tag k="natural" v="bay" />
		<tag k="ssr:stedsnr" v="626311" />
	</node>
	<node id="-794456" lat="70.919736115" lon="24.6057248649">
		<tag k="name" v="Bærvika" />
		<tag k="natural" v="bay" />
		<tag k="ssr:stedsnr" v="626303" />
	</node>
	<node id="-794455" lat="70.8310750072" lon="24.2491610021">
		<tag k="name" v="Grytvika" />
		<tag k="natural" v="bay" />
		<tag k="ssr:stedsnr" v="626297" />
	</node>
	<node id="-794454" lat="70.8473777822" lon="24.4349998794">
		<tag k="name" v="Kvitnesholmen" />
		<tag k="place" v="islet" />
		<tag k="ssr:stedsnr" v="626293" />
	</node>
	<node id="-794453" lat="70.8237499997" lon="24.2567832237">
		<tag k="fixme" v="consider seamark:type=rock or natural=shoal" />
		<tag k="name" v="Skjærhattvikskjæret" />
		<tag k="place" v="islet" />
		<tag k="ssr:stedsnr" v="626282" />
	</node>
	<node id="-794452" lat="70.9980555597" lon="24.2043915749">
		<tag k="fixme" v="multiple name tags, choose one and add the other to alt_name" />
		<tag k="name" v="Bismarvika;Bissalvika" />
		<tag k="natural" v="bay" />
		<tag k="ssr:stedsnr" v="626255" />
	</node>
	<node id="-794451" lat="70.986802777" lon="24.2243526762">
		<tag k="name" v="Lillegrunnen" />
		<tag k="natural" v="shoal" />
		<tag k="place" v="locality" />
		<tag k="ssr:stedsnr" v="626250" />
	</node>
	<node id="-794450" lat="70.9948500055" lon="24.1590415519">
		<tag k="name" v="Kalveneset" />
		<tag k="natural" v="cape" />
		<tag k="ssr:stedsnr" v="626240" />
	</node>
	<node id="-794448" lat="70.6879888973" lon="24.5921831914">
		<tag k="fixme" v="multiple name tags, choose one and add the other to alt_name" />
		<tag k="name" v="Krokneset;Krokvikneset - Roahkkenjárga" />
		<tag k="name:no" v="Krokneset;Krokvikneset" />
		<tag k="name:se" v="Roahkkenjárga" />
		<tag k="natural" v="cape" />
		<tag k="old_name:se" v="Roakkenjarga" />
		<tag k="ssr:stedsnr" v="626165" />
	</node>
	<node id="-794447" lat="70.9027611178" lon="25.2891609371">
		<tag k="name" v="Storegrunnen" />
		<tag k="natural" v="shoal" />
		<tag k="place" v="locality" />
		<tag k="ssr:stedsnr" v="626058" />
	</node>
	<node id="-794445" lat="70.9973333361" lon="24.2126137768">
		<tag k="fixme" v="consider seamark:type=rock or natural=shoal" />
		<tag k="name" v="Kalveskjæret" />
		<tag k="place" v="islet" />
		<tag k="ssr:stedsnr" v="594805" />
	</node>
	<node id="-794444" lat="70.711722229" lon="24.5436109737">
		<tag k="name" v="Kvalrossbukta" />
		<tag k="natural" v="bay" />
		<tag k="ssr:stedsnr" v="594482" />
	</node>
	<node id="-794443" lat="70.8724194452" lon="24.6240165421">
		<tag k="name" v="Tromseneset" />
		<tag k="natural" v="cape" />
		<tag k="ssr:stedsnr" v="594371" />
	</node>
	<node id="-794442" lat="70.8029000033" lon="24.5331248654">
		<tag k="name" v="Leirvika" />
		<tag k="natural" v="bay" />
		<tag k="ssr:stedsnr" v="594319" />
	</node>
	<node id="-794441" lat="70.8677777803" lon="24.3915109846">
		<tag k="name" v="Nonstadbukta" />
		<tag k="natural" v="bay" />
		<tag k="ssr:stedsnr" v="594303" />
	</node>
	<node id="-794440" lat="70.8777722224" lon="24.2824748692">
		<tag k="name" v="Vesterkeila" />
		<tag k="natural" v="bay" />
		<tag k="ssr:stedsnr" v="594300" />
	</node>
	<node id="-794439" lat="70.9582750047" lon="24.6217581882">
		<tag k="name" v="Kobbevika" />
		<tag k="natural" v="bay" />
		<tag k="ssr:stedsnr" v="594221" />
	</node>
	<node id="-794438" lat="70.9207277824" lon="25.273999806">
		<tag k="name" v="Sørneset" />
		<tag k="natural" v="cape" />
		<tag k="ssr:stedsnr" v="594183" />
	</node>
	<node id="-794437" lat="71.0929944508" lon="24.1910859976">
		<tag k="name" v="Lillegrunnen" />
		<tag k="natural" v="shoal" />
		<tag k="place" v="locality" />
		<tag k="ssr:stedsnr" v="593974" />
	</node>
	<node id="-794436" lat="71.0096694483" lon="24.9750887219">
		<tag k="name" v="Fagerneset" />
		<tag k="natural" v="cape" />
		<tag k="ssr:stedsnr" v="593053" />
	</node>
	<node id="-794435" lat="71.0990916728" lon="24.7782026341">
		<tag k="name" v="Oterneset" />
		<tag k="natural" v="cape" />
		<tag k="ssr:stedsnr" v="593020" />
	</node>
	<node id="-794434" lat="71.0752499999" lon="24.8051415294">
		<tag k="name" v="Russesandbukta" />
		<tag k="natural" v="bay" />
		<tag k="ssr:stedsnr" v="593022" />
	</node>
	<node id="-794433" lat="71.1150444513" lon="24.7281998657">
		<tag k="name" v="Svartholet" />
		<tag k="natural" v="bay" />
		<tag k="ssr:stedsnr" v="593019" />
	</node>
	<node id="-794432" lat="71.094249998" lon="24.1433054586">
		<tag k="name" v="Lille Kartøya" />
		<tag k="place" v="islet" />
		<tag k="ssr:stedsnr" v="588744" />
	</node>
	<node id="-794425" lat="71.0103277824" lon="24.5411998621">
		<tag k="name" v="Innergavlodden" />
		<tag k="natural" v="cape" />
		<tag k="ssr:stedsnr" v="575125" />
	</node>
	<node id="-794424" lat="71.0005722272" lon="24.999810969">
		<tag k="name" v="Hysklubben" />
		<tag k="natural" v="cape" />
		<tag k="ssr:stedsnr" v="574078" />
	</node>
	<node id="-794420" lat="70.870291668" lon="24.9780915021">
		<tag k="name" v="Falkebergstranda" />
		<tag k="natural" v="beach" />
		<tag k="place" v="locality" />
		<tag k="ssr:stedsnr" v="572403" />
	</node>
	<node id="-794418" lat="71.0047194498" lon="25.0195915028">
		<tag k="name" v="Klubben" />
		<tag k="natural" v="cape" />
		<tag k="ssr:stedsnr" v="572155" />
	</node>
	<node id="-794417" lat="71.0095083359" lon="25.0131554048">
		<tag k="name" v="Langskjærbukt" />
		<tag k="natural" v="bay" />
		<tag k="ssr:stedsnr" v="572154" />
	</node>
	<node id="-794416" lat="71.0843388932" lon="24.7093331909">
		<tag k="name" v="Sandvikodden" />
		<tag k="natural" v="cape" />
		<tag k="ssr:stedsnr" v="572140" />
	</node>
	<node id="-794413" lat="70.9900888962" lon="24.6216526517">
		<tag k="name" v="Råskjæringsvika" />
		<tag k="natural" v="bay" />
		<tag k="ssr:stedsnr" v="571438" />
	</node>
	<node id="-794411" lat="71.0172277823" lon="23.9317193477">
		<tag k="name" v="Mollvika" />
		<tag k="natural" v="bay" />
		<tag k="ssr:stedsnr" v="570474" />
	</node>
	<node id="-794410" lat="71.0006611124" lon="23.9056665794">
		<tag k="name" v="Sandvika" />
		<tag k="natural" v="bay" />
		<tag k="ssr:stedsnr" v="570463" />
	</node>
	<node id="-794405" lat="71.0046416696" lon="24.1476082425">
		<tag k="fixme" v="consider seamark:type=rock or natural=shoal" />
		<tag k="name" v="Storstabba" />
		<tag k="place" v="islet" />
		<tag k="ssr:stedsnr" v="570189" />
	</node>
	<node id="-794404" lat="71.0751361135" lon="24.0203137936">
		<tag k="name" v="Segelbergodden" />
		<tag k="natural" v="cape" />
		<tag k="ssr:stedsnr" v="570086" />
	</node>
	<node id="-794401" lat="71.085491673" lon="24.1524332214">
		<tag k="fixme" v="consider seamark:type=rock or natural=shoal" />
		<tag k="name" v="Skrapleia" />
		<tag k="place" v="islet" />
		<tag k="ssr:stedsnr" v="570021" />
	</node>
	<node id="-794397" lat="70.9743499994" lon="24.0614776883">
		<tag k="fixme" v="consider seamark:type=rock or natural=shoal" />
		<tag k="name" v="Gargoskjæret" />
		<tag k="place" v="islet" />
		<tag k="ssr:stedsnr" v="569220" />
	</node>
	<node id="-794395" lat="70.6729750017" lon="24.6260026384">
		<tag k="name" v="Teltvika - Lávvoluokta" />
		<tag k="name:no" v="Teltvika" />
		<tag k="name:se" v="Lávvoluokta" />
		<tag k="natural" v="bay" />
		<tag k="old_name:se" v="Lavvuluokta" />
		<tag k="ssr:stedsnr" v="566893" />
	</node>
	<node id="-794389" lat="71.0192250019" lon="24.8578192989">
		<tag k="name" v="Ryggen" />
		<tag k="natural" v="shoal" />
		<tag k="place" v="locality" />
		<tag k="ssr:stedsnr" v="566669" />
	</node>
	<node id="-794388" lat="71.0337138907" lon="24.0372165579">
		<tag k="name" v="Nordstranda" />
		<tag k="natural" v="beach" />
		<tag k="place" v="locality" />
		<tag k="ssr:stedsnr" v="566615" />
	</node>
	<node id="-794386" lat="71.0013472295" lon="24.1574443396">
		<tag k="name" v="Valen" />
		<tag k="natural" v="bay" />
		<tag k="ssr:stedsnr" v="566604" />
	</node>
	<node id="-794385" lat="71.0162194485" lon="24.5168248885">
		<tag k="alt_name" v="Gavltaren, vestre" />
		<tag k="name" v="Vestre Gavltaren" />
		<tag k="natural" v="shoal" />
		<tag k="place" v="locality" />
		<tag k="ssr:stedsnr" v="566601" />
	</node>
	<node id="-794383" lat="71.0713444448" lon="24.5018443262">
		<tag k="name" v="Fiskarnesgrunnen" />
		<tag k="natural" v="shoal" />
		<tag k="place" v="locality" />
		<tag k="ssr:stedsnr" v="566565" />
	</node>
	<node id="-794380" lat="70.9781805578" lon="25.3218192631">
		<tag k="name" v="Stikkelvågkjerringa" />
		<tag k="natural" v="cape" />
		<tag k="ssr:stedsnr" v="566461" />
	</node>
	<node id="-794379" lat="70.9752166694" lon="24.9890109404">
		<tag k="alt_name" v="Fastlandsholmen" />
		<tag k="name" v="Fastlandsholme" />
		<tag k="natural" v="cape" />
		<tag k="ssr:stedsnr" v="566418" />
	</node>
	<node id="-794376" lat="70.7914333371" lon="24.5705165395">
		<tag k="name" v="Skavika" />
		<tag k="natural" v="bay" />
		<tag k="ssr:stedsnr" v="566370" />
	</node>
	<node id="-794373" lat="70.9989083345" lon="24.9581804023">
		<tag k="name" v="Bjørnvika" />
		<tag k="natural" v="bay" />
		<tag k="ssr:stedsnr" v="566343" />
	</node>
	<node id="-794372" lat="70.983625003" lon="24.9586776165">
		<tag k="name" v="Måsøysundet" />
		<tag k="natural" v="strait" />
		<tag k="ssr:stedsnr" v="566337" />
	</node>
	<node id="-794371" lat="70.7678138958" lon="24.2831498836">
		<tag k="name" v="Rottvika" />
		<tag k="natural" v="bay" />
		<tag k="ssr:stedsnr" v="566333" />
	</node>
	<node id="-794369" lat="70.8455861144" lon="24.3970026695">
		<tag k="name" v="Finnguden" />
		<tag k="natural" v="bay" />
		<tag k="ssr:stedsnr" v="566297" />
	</node>
	<node id="-794368" lat="70.9958861176" lon="24.4705804486">
		<tag k="alt_name" v="Kjerkegrunnen, in" />
		<tag k="name" v="Indre Kjerkegrunnen" />
		<tag k="natural" v="shoal" />
		<tag k="place" v="locality" />
		<tag k="ssr:stedsnr" v="566256" />
	</node>
	<node id="-794367" lat="70.9780722282" lon="24.0679998941">
		<tag k="fixme" v="consider seamark:type=rock or natural=shoal" />
		<tag k="name" v="Gargospira" />
		<tag k="place" v="islet" />
		<tag k="ssr:stedsnr" v="566249" />
	</node>
	<node id="-794366" lat="70.7453916686" lon="24.4558693156">
		<tag k="name" v="Kvitneset" />
		<tag k="natural" v="cape" />
		<tag k="ssr:stedsnr" v="566166" />
	</node>
	<node id="-794365" lat="70.9826361139" lon="23.879599901">
		<tag k="name" v="Skarvodden" />
		<tag k="natural" v="cape" />
		<tag k="ssr:stedsnr" v="566131" />
	</node>
	<node id="-794362" lat="70.8639944479" lon="25.3192442556">
		<tag k="fixme" v="consider seamark:type=rock or natural=shoal" />
		<tag k="name" v="Veidnesskjæret" />
		<tag k="place" v="islet" />
		<tag k="ssr:stedsnr" v="566028" />
	</node>
	<node id="-794361" lat="71.0480111118" lon="24.8073693037">
		<tag k="alt_name" v="Ærskjera;Æskjæran" />
		<tag k="fixme" v="consider seamark:type=rock or natural=shoal" />
		<tag k="name" v="Eskjæran" />
		<tag k="place" v="islet" />
		<tag k="ssr:stedsnr" v="565691" />
	</node>
	<node id="-794360" lat="71.0651194464" lon="24.7709776481">
		<tag k="fixme" v="multiple name tags, choose one and add the other to alt_name" />
		<tag k="name" v="Skjerdingsbukta;Skjæringen;Skjæringssanden" />
		<tag k="natural" v="bay" />
		<tag k="ssr:stedsnr" v="565686" />
	</node>
	<node id="-794359" lat="71.0407722292" lon="25.0380415195">
		<tag k="alt_name" v="Ålmannvika, l" />
		<tag k="name" v="Lille Ålmannvika" />
		<tag k="natural" v="bay" />
		<tag k="ssr:stedsnr" v="565681" />
	</node>
	<node id="-794358" lat="71.0291888925" lon="25.0424998429">
		<tag k="name" v="Gåstabben" />
		<tag k="natural" v="cape" />
		<tag k="ssr:stedsnr" v="565671" />
	</node>
	<node id="-794357" lat="71.0818305621" lon="24.7481943114">
		<tag k="alt_name" v="Kvalvik" />
		<tag k="name" v="Kvalvika" />
		<tag k="natural" v="bay" />
		<tag k="ssr:stedsnr" v="565636" />
	</node>
	<node id="-794355" lat="71.0874583362" lon="24.0028165769">
		<tag k="name" v="Garpholmen" />
		<tag k="place" v="islet" />
		<tag k="ssr:stedsnr" v="565602" />
	</node>
	<node id="-794354" lat="71.1114361159" lon="24.0551638028">
		<tag k="name" v="Englan" />
		<tag k="natural" v="shoal" />
		<tag k="place" v="locality" />
		<tag k="ssr:stedsnr" v="565595" />
	</node>
	<node id="-794352" lat="71.0906000058" lon="24.5586304482">
		<tag k="name" v="Brandalsgrunnen" />
		<tag k="natural" v="shoal" />
		<tag k="place" v="locality" />
		<tag k="ssr:stedsnr" v="565580" />
	</node>
	<node id="-794351" lat="71.0639944458" lon="24.1403499057">
		<tag k="alt_name" v="Langkiholmen" />
		<tag k="name" v="Småkjeholman" />
		<tag k="place" v="islet" />
		<tag k="ssr:stedsnr" v="565570" />
	</node>
	<node id="-794350" lat="71.0859305567" lon="23.9796887918">
		<tag k="alt_name" v="Sandnakken" />
		<tag k="name" v="Sandholmnakken" />
		<tag k="natural" v="cape" />
		<tag k="ssr:stedsnr" v="565566" />
	</node>
	<node id="-794349" lat="71.0784305615" lon="23.9479943424">
		<tag k="name" v="Mafjordleia" />
		<tag k="natural" v="strait" />
		<tag k="ssr:stedsnr" v="565557" />
	</node>
	<node id="-794348" lat="71.0382055601" lon="23.9185415749">
		<tag k="alt_name" v="Storsteinnesgrunnen" />
		<tag k="name" v="Storsteingrunnen" />
		<tag k="natural" v="shoal" />
		<tag k="place" v="locality" />
		<tag k="ssr:stedsnr" v="565549" />
	</node>
	<node id="-794347" lat="71.0353500031" lon="23.9858943624">
		<tag k="name" v="Trollfjordneset" />
		<tag k="natural" v="cape" />
		<tag k="ssr:stedsnr" v="565547" />
	</node>
	<node id="-794346" lat="70.9522027855" lon="25.2594720493">
		<tag k="alt_name" v="Nebbegrunnen, in" />
		<tag k="name" v="Indre Nebbegrunnen" />
		<tag k="natural" v="shoal" />
		<tag k="place" v="locality" />
		<tag k="ssr:stedsnr" v="565452" />
	</node>
	<node id="-794345" lat="70.9432027829" lon="25.3115220486">
		<tag k="name" v="Finnstadvika" />
		<tag k="natural" v="bay" />
		<tag k="ssr:stedsnr" v="565448" />
	</node>
	<node id="-794344" lat="70.907477786" lon="24.9419303907">
		<tag k="name" v="Innereidet" />
		<tag k="place" v="locality" />
		<tag k="ssr:stedsnr" v="565414" />
	</node>
	<node id="-794343" lat="70.8779250038" lon="25.0952276227">
		<tag k="name" v="Márrenjárga" />
		<tag k="name:se" v="Márrenjárga" />
		<tag k="natural" v="cape" />
		<tag k="old_name:se" v="Marrenjarga" />
		<tag k="ssr:stedsnr" v="565374" />
	</node>
	<node id="-794342" lat="70.8245888931" lon="24.5697498664">
		<tag k="name" v="Hellneset" />
		<tag k="natural" v="cape" />
		<tag k="ssr:stedsnr" v="565339" />
	</node>
	<node id="-794341" lat="70.8039861158" lon="24.189594331">
		<tag k="fixme" v="multiple name tags, choose one and add the other to alt_name; consider seamark:type=rock or natural=shoal" />
		<tag k="name" v="Rypeskjæran;Rypøyskjæran" />
		<tag k="place" v="islet" />
		<tag k="ssr:stedsnr" v="565336" />
	</node>
	<node id="-794338" lat="70.9827027787" lon="24.6037776387">
		<tag k="alt_name" v="Trollkjærkvika" />
		<tag k="name" v="Trollkjerkevika" />
		<tag k="natural" v="bay" />
		<tag k="ssr:stedsnr" v="565233" />
	</node>
	<node id="-794336" lat="70.9589333388" lon="24.5689776646">
		<tag k="bay" v="fjord" />
		<tag k="name" v="Myrfjorden - Sieiddevuotna" />
		<tag k="name:no" v="Myrfjorden" />
		<tag k="name:se" v="Sieiddevuotna" />
		<tag k="natural" v="bay" />
		<tag k="old_name:se" v="Sieidevuodna" />
		<tag k="ssr:stedsnr" v="565185" />
	</node>
	<node id="-794332" lat="70.9209638926" lon="25.362502577">
		<tag k="name" v="Indre Gavas - Siskkit Gávaš" />
		<tag k="name:no" v="Indre Gavas" />
		<tag k="name:se" v="Siskkit Gávaš" />
		<tag k="natural" v="bay" />
		<tag k="old_name:se" v="Gavaš, siskit" />
		<tag k="ssr:stedsnr" v="565049" />
	</node>
	<node id="-794329" lat="71.0935750001" lon="24.1023193317">
		<tag k="name" v="Kartøyskallen" />
		<tag k="natural" v="shoal" />
		<tag k="place" v="locality" />
		<tag k="ssr:stedsnr" v="533991" />
	</node>
	<node id="-794327" lat="70.97584445" lon="24.1129943424">
		<tag k="name" v="Teistberggrunnen" />
		<tag k="natural" v="shoal" />
		<tag k="place" v="locality" />
		<tag k="ssr:stedsnr" v="533830" />
	</node>
	<node id="-794326" lat="70.8719805575" lon="24.6073776319">
		<tag k="name" v="Hammarbukta" />
		<tag k="natural" v="bay" />
		<tag k="ssr:stedsnr" v="533360" />
	</node>
	<node id="-794325" lat="70.8201388972" lon="24.4514332019">
		<tag k="name" v="Amundvika" />
		<tag k="natural" v="bay" />
		<tag k="ssr:stedsnr" v="533304" />
	</node>
	<node id="-794324" lat="70.8987666715" lon="25.1852748192">
		<tag k="name" v="Rekviknæringen" />
		<tag k="natural" v="cape" />
		<tag k="ssr:stedsnr" v="533243" />
	</node>
	<node id="-794323" lat="70.8765138915" lon="25.2223275973">
		<tag k="name" v="Lille Studentervika" />
		<tag k="natural" v="bay" />
		<tag k="ssr:stedsnr" v="533242" />
	</node>
	<node id="-794320" lat="71.0158277814" lon="24.5440748755">
		<tag k="fixme" v="consider seamark:type=rock or natural=shoal" />
		<tag k="name" v="Gavlskjæret" />
		<tag k="place" v="islet" />
		<tag k="ssr:stedsnr" v="514150" />
	</node>
	<node id="-794315" lat="71.0065833385" lon="25.0062276357">
		<tag k="name" v="Handelen" />
		<tag k="natural" v="bay" />
		<tag k="ssr:stedsnr" v="512125" />
	</node>
	<node id="-794310" lat="70.8169666725" lon="24.6196359891">
		<tag k="name" v="Kragervika" />
		<tag k="natural" v="bay" />
		<tag k="ssr:stedsnr" v="511424" />
	</node>
	<node id="-794308" lat="70.7947444495" lon="24.6239637511">
		<tag k="name" v="Pålbukta" />
		<tag k="natural" v="bay" />
		<tag k="ssr:stedsnr" v="510398" />
	</node>
	<node id="-794303" lat="70.9796611124" lon="24.0685943333">
		<tag k="name" v="Gørken" />
		<tag k="natural" v="cape" />
		<tag k="ssr:stedsnr" v="509176" />
	</node>
	<node id="-794302" lat="71.0805138867" lon="24.0654638016">
		<tag k="name" v="Kvænneset" />
		<tag k="natural" v="cape" />
		<tag k="ssr:stedsnr" v="509107" />
	</node>
	<node id="-794301" lat="71.0822333353" lon="24.0137582432">
		<tag k="name" v="Fjøsbukta" />
		<tag k="natural" v="bay" />
		<tag k="ssr:stedsnr" v="509100" />
	</node>
	<node id="-794300" lat="71.0777527793" lon="24.0063610213">
		<tag k="fixme" v="consider seamark:type=rock or natural=shoal" />
		<tag k="name" v="Finnesskjæret" />
		<tag k="place" v="islet" />
		<tag k="ssr:stedsnr" v="509096" />
	</node>
	<node id="-794299" lat="71.0771944462" lon="24.0158860151">
		<tag k="name" v="Langbukta" />
		<tag k="natural" v="bay" />
		<tag k="ssr:stedsnr" v="509090" />
	</node>
	<node id="-794298" lat="71.0759833352" lon="24.1594193473">
		<tag k="name" v="Likholmsundet" />
		<tag k="natural" v="strait" />
		<tag k="ssr:stedsnr" v="509014" />
	</node>
	<node id="-794297" lat="71.0848416655" lon="24.1178082257">
		<tag k="name" v="Gilkoven" />
		<tag k="natural" v="cape" />
		<tag k="ssr:stedsnr" v="509009" />
	</node>
	<node id="-794294" lat="71.0812944479" lon="24.1076999076">
		<tag k="name" v="Stompevika" />
		<tag k="natural" v="bay" />
		<tag k="ssr:stedsnr" v="509004" />
	</node>
	<node id="-794293" lat="71.0832888931" lon="24.1175387919">
		<tag k="name" v="Lyngholmvalen" />
		<tag k="natural" v="bay" />
		<tag k="ssr:stedsnr" v="509005" />
	</node>
	<node id="-794291" lat="70.9776000002" lon="24.1257026677">
		<tag k="bay" v="fjord" />
		<tag k="name" v="Langfjorden" />
		<tag k="natural" v="bay" />
		<tag k="ssr:stedsnr" v="506526" />
	</node>
	<node id="-794290" lat="70.9348250079" lon="24.9215859568">
		<tag k="alt_name" v="Kulabukta, yt" />
		<tag k="fixme" v="multiple name tags, choose one and add the other to alt_name" />
		<tag k="name" v="Ytre Kula;Ytre Kulabukta" />
		<tag k="natural" v="bay" />
		<tag k="ssr:stedsnr" v="506428" />
	</node>
	<node id="-794288" lat="70.7120750013" lon="24.5829581879">
		<tag k="name" v="Latterbukta - Láhttárgohppi" />
		<tag k="name:no" v="Latterbukta" />
		<tag k="name:se" v="Láhttárgohppi" />
		<tag k="natural" v="bay" />
		<tag k="old_name:se" v="Lattargåppi" />
		<tag k="ssr:stedsnr" v="506196" />
	</node>
	<node id="-794283" lat="71.0123000014" lon="25.0176248447">
		<tag k="alt_name" v="Finnvik" />
		<tag k="name" v="Finnvika" />
		<tag k="natural" v="bay" />
		<tag k="ssr:stedsnr" v="505727" />
	</node>
	<node id="-794282" lat="71.0242666667" lon="25.0304803939">
		<tag k="alt_name" v="Skjåvika, store" />
		<tag k="fixme" v="multiple name tags, choose one and add the other to alt_name" />
		<tag k="name" v="Sjåvika;Skjåvikbukta;Store Skjåvika" />
		<tag k="natural" v="bay" />
		<tag k="ssr:stedsnr" v="505724" />
	</node>
	<node id="-794281" lat="71.0409583381" lon="24.9909248508">
		<tag k="name" v="Silbanova" />
		<tag k="natural" v="cape" />
		<tag k="ssr:stedsnr" v="505692" />
	</node>
	<node id="-794280" lat="71.0434972289" lon="24.9811165257">
		<tag k="name" v="Trollhaugbukta" />
		<tag k="natural" v="bay" />
		<tag k="ssr:stedsnr" v="505690" />
	</node>
	<node id="-794279" lat="71.0562500078" lon="25.0731609512">
		<tag k="fixme" v="multiple name tags, choose one and add the other to alt_name" />
		<tag k="name" v="Kolskallan;Vestre Kulskallan" />
		<tag k="natural" v="shoal" />
		<tag k="place" v="locality" />
		<tag k="ssr:stedsnr" v="505684" />
	</node>
	<node id="-794277" lat="71.0444222257" lon="24.9367192944">
		<tag k="fixme" v="multiple name tags, choose one and add the other to alt_name" />
		<tag k="name" v="Hartvikrorneset;Rorneset" />
		<tag k="natural" v="cape" />
		<tag k="ssr:stedsnr" v="505679" />
	</node>
	<node id="-794274" lat="71.0985583369" lon="24.8376248509">
		<tag k="name" v="Sandkeila" />
		<tag k="natural" v="bay" />
		<tag k="ssr:stedsnr" v="505642" />
	</node>
	<node id="-794272" lat="71.0600388873" lon="24.5066415536">
		<tag k="alt_name" v="Nipergrunnen" />
		<tag k="name" v="Nipegrunnen" />
		<tag k="natural" v="shoal" />
		<tag k="place" v="locality" />
		<tag k="ssr:stedsnr" v="505634" />
	</node>
	<node id="-794271" lat="71.0659194457" lon="24.4639026448">
		<tag k="alt_name" v="Geitingsgrunnen, vestre" />
		<tag k="name" v="Vestre Geitingsgrunnen" />
		<tag k="natural" v="shoal" />
		<tag k="place" v="locality" />
		<tag k="ssr:stedsnr" v="505633" />
	</node>
	<node id="-794270" lat="71.0447666705" lon="24.5777443119">
		<tag k="name" v="Breisundet" />
		<tag k="natural" v="strait" />
		<tag k="ssr:stedsnr" v="505631" />
	</node>
	<node id="-794269" lat="71.0125055559" lon="24.04065824">
		<tag k="alt_name" v="Evika" />
		<tag k="name" v="Eidvika" />
		<tag k="natural" v="bay" />
		<tag k="ssr:stedsnr" v="505619" />
	</node>
	<node id="-794268" lat="71.0229694503" lon="24.0614498916">
		<tag k="alt_name" v="Eidnessundet;Sandbukta" />
		<tag k="name" v="Eidnessanden" />
		<tag k="natural" v="bay" />
		<tag k="ssr:stedsnr" v="505614" />
	</node>
	<node id="-794267" lat="71.0120249996" lon="24.2207137808">
		<tag k="alt_name" v="Stoppelnæringsgrunnen" />
		<tag k="name" v="Stoppelnæringen" />
		<tag k="natural" v="shoal" />
		<tag k="place" v="locality" />
		<tag k="ssr:stedsnr" v="505609" />
	</node>
	<node id="-794266" lat="71.0841166708" lon="24.002594347">
		<tag k="name" v="Jonholmen" />
		<tag k="place" v="islet" />
		<tag k="ssr:stedsnr" v="505591" />
	</node>
	<node id="-794265" lat="71.0844972257" lon="24.179824906">
		<tag k="alt_name" v="Gåsøya" />
		<tag k="name" v="Store Gåsøya" />
		<tag k="old_name" v="Gåsøya, store" />
		<tag k="place" v="island" />
		<tag k="ssr:stedsnr" v="505584" />
	</node>
	<node id="-794264" lat="71.0721250035" lon="24.0111721349">
		<tag k="bay" v="fjord" />
		<tag k="name" v="Mafjorden" />
		<tag k="natural" v="bay" />
		<tag k="ssr:stedsnr" v="505582" />
	</node>
	<node id="-794263" lat="71.0047416722" lon="23.8677888098">
		<tag k="name" v="Langskjæret" />
		<tag k="place" v="islet" />
		<tag k="ssr:stedsnr" v="505544" />
	</node>
	<node id="-794262" lat="71.1220527844" lon="24.1017804548">
		<tag k="name" v="Beskallen" />
		<tag k="natural" v="shoal" />
		<tag k="place" v="locality" />
		<tag k="ssr:stedsnr" v="505539" />
	</node>
	<node id="-794261" lat="71.0942416732" lon="23.9815998958">
		<tag k="name" v="Fruholmen" />
		<tag k="place" v="islet" />
		<tag k="ssr:stedsnr" v="505509" />
	</node>
	<node id="-794259" lat="70.965241669" lon="25.4006387045">
		<tag k="name" v="Slettelvlandet" />
		<tag k="natural" v="beach" />
		<tag k="place" v="locality" />
		<tag k="ssr:stedsnr" v="505471" />
	</node>
	<node id="-794255" lat="70.8785888977" lon="25.0182081665">
		<tag k="name" v="Lykteneset" />
		<tag k="natural" v="cape" />
		<tag k="ssr:stedsnr" v="505395" />
	</node>
	<node id="-794254" lat="70.8853805575" lon="24.9486248536">
		<tag k="name" v="Hamnegrunnen" />
		<tag k="natural" v="shoal" />
		<tag k="place" v="locality" />
		<tag k="ssr:stedsnr" v="505388" />
	</node>
	<node id="-794252" lat="70.9993166668" lon="24.7065026383">
		<tag k="name" v="Kråkungneset" />
		<tag k="natural" v="cape" />
		<tag k="ssr:stedsnr" v="505354" />
	</node>
	<node id="-794249" lat="70.8845972259" lon="24.5882748552">
		<tag k="bay" v="fjord" />
		<tag k="name" v="Bakfjorden - Báhkavuotna" />
		<tag k="name:no" v="Bakfjorden" />
		<tag k="name:se" v="Báhkavuotna" />
		<tag k="natural" v="bay" />
		<tag k="old_name:se" v="Bakkavuodna" />
		<tag k="ssr:stedsnr" v="505331" />
	</node>
	<node id="-794248" lat="70.8899500013" lon="24.2864137612">
		<tag k="name" v="Lilleskallen" />
		<tag k="natural" v="shoal" />
		<tag k="place" v="locality" />
		<tag k="ssr:stedsnr" v="505323" />
	</node>
	<node id="-794247" lat="70.8604833378" lon="24.1819498819">
		<tag k="name" v="Kjellaren" />
		<tag k="natural" v="cape" />
		<tag k="ssr:stedsnr" v="505314" />
	</node>
	<node id="-794246" lat="70.9158611112" lon="24.0689971259">
		<tag k="name" v="Vegvika" />
		<tag k="natural" v="bay" />
		<tag k="ssr:stedsnr" v="505300" />
	</node>
	<node id="-794245" lat="70.9197000008" lon="24.5683359744">
		<tag k="name" v="Hattelandet" />
		<tag k="natural" v="beach" />
		<tag k="place" v="locality" />
		<tag k="ssr:stedsnr" v="505291" />
	</node>
	<node id="-794244" lat="70.8517222241" lon="24.4400804395">
		<tag k="name" v="Holmegrunnen" />
		<tag k="natural" v="shoal" />
		<tag k="place" v="locality" />
		<tag k="ssr:stedsnr" v="505280" />
	</node>
	<node id="-794243" lat="70.9975749981" lon="24.1403249055">
		<tag k="fixme" v="multiple name tags, choose one and add the other to alt_name" />
		<tag k="name" v="Kalven;Kråkneset;Krokneset" />
		<tag k="natural" v="cape" />
		<tag k="ssr:stedsnr" v="505243" />
	</node>
	<node id="-794242" lat="70.941705559" lon="24.1929137912">
		<tag k="name" v="Malineset" />
		<tag k="natural" v="cape" />
		<tag k="ssr:stedsnr" v="505219" />
	</node>
	<node id="-794241" lat="70.9548333396" lon="24.4680248665">
		<tag k="name" v="Hestegrunnen" />
		<tag k="natural" v="shoal" />
		<tag k="place" v="locality" />
		<tag k="ssr:stedsnr" v="505214" />
	</node>
	<node id="-794239" lat="70.7286027849" lon="24.5106887643">
		<tag k="name" v="Avløysinga" />
		<tag k="natural" v="cape" />
		<tag k="ssr:stedsnr" v="505196" />
	</node>
	<node id="-794236" lat="70.9447055564" lon="23.9467110211">
		<tag k="name" v="Molvikodden" />
		<tag k="natural" v="cape" />
		<tag k="ssr:stedsnr" v="505142" />
	</node>
	<node id="-794232" lat="70.9192166674" lon="25.2899803812">
		<tag k="name" v="Stor-Kobbøya - Gáhppovuonsuolu" />
		<tag k="name:no" v="Stor-Kobbøya" />
		<tag k="name:se" v="Gáhppovuonsuolu" />
		<tag k="old_name:se" v="Gappuvuonsuolo" />
		<tag k="place" v="island" />
		<tag k="ssr:stedsnr" v="505054" />
	</node>
	<node id="-794230" lat="70.9669722219" lon="24.2018248835">
		<tag k="name" v="Fugleberget" />
		<tag k="natural" v="cape" />
		<tag k="ssr:stedsnr" v="472809" />
	</node>
	<node id="-794229" lat="71.0280611128" lon="24.299572121">
		<tag k="name" v="Ytre Vestervåggrunnen" />
		<tag k="natural" v="shoal" />
		<tag k="place" v="locality" />
		<tag k="ssr:stedsnr" v="472760" />
	</node>
	<node id="-794228" lat="71.0209500016" lon="25.0401081706">
		<tag k="name" v="Kvalen" />
		<tag k="natural" v="shoal" />
		<tag k="place" v="locality" />
		<tag k="ssr:stedsnr" v="472046" />
	</node>
	<node id="-794227" lat="70.8557277801" lon="24.3261470955">
		<tag k="name" v="Innerrevet" />
		<tag k="natural" v="cape" />
		<tag k="ssr:stedsnr" v="454821" />
	</node>
	<node id="-794225" lat="71.0032305585" lon="24.5797332167">
		<tag k="fixme" v="consider seamark:type=rock or natural=shoal" />
		<tag k="name" v="Skarvsteinen" />
		<tag k="place" v="islet" />
		<tag k="ssr:stedsnr" v="454134" />
	</node>
	<node id="-794222" lat="71.0197055606" lon="24.9438526369">
		<tag k="alt_name" v="Snekkarvika" />
		<tag k="name" v="Snekkarhagen" />
		<tag k="natural" v="bay" />
		<tag k="ssr:stedsnr" v="454056" />
	</node>
	<node id="-794220" lat="71.0752416677" lon="24.7955220769">
		<tag k="name" v="Vestre Russesand" />
		<tag k="natural" v="bay" />
		<tag k="ssr:stedsnr" v="454020" />
	</node>
	<node id="-794219" lat="71.0096222256" lon="25.0158804117">
		<tag k="name" v="Ringen" />
		<tag k="natural" v="bay" />
		<tag k="ssr:stedsnr" v="451148" />
	</node>
	<node id="-794215" lat="70.6976055607" lon="24.6508776247">
		<tag k="name" v="Omnsbukta" />
		<tag k="natural" v="bay" />
		<tag k="ssr:stedsnr" v="449340" />
	</node>
	<node id="-794214" lat="71.00476111" lon="24.132386015">
		<tag k="fixme" v="consider seamark:type=rock or natural=shoal" />
		<tag k="name" v="Storskjæret" />
		<tag k="place" v="islet" />
		<tag k="ssr:stedsnr" v="449232" />
	</node>
	<node id="-794212" lat="71.0787055545" lon="24.014824912">
		<tag k="name" v="Sørkjosen" />
		<tag k="natural" v="bay" />
		<tag k="ssr:stedsnr" v="449089" />
	</node>
	<node id="-794209" lat="71.0658972273" lon="24.0400999184">
		<tag k="name" v="Lyngholmen" />
		<tag k="place" v="islet" />
		<tag k="ssr:stedsnr" v="449003" />
	</node>
	<node id="-794205" lat="71.0072416695" lon="24.9792359695">
		<tag k="name" v="Vestervågen" />
		<tag k="natural" v="bay" />
		<tag k="ssr:stedsnr" v="445739" />
	</node>
	<node id="-794204" lat="71.0195055633" lon="25.0334720549">
		<tag k="alt_name" v="Sjåholmen" />
		<tag k="name" v="Skjåholmen" />
		<tag k="place" v="islet" />
		<tag k="ssr:stedsnr" v="445732" />
	</node>
	<node id="-794203" lat="71.021852781" lon="24.9424415205">
		<tag k="name" v="Hattvika" />
		<tag k="natural" v="bay" />
		<tag k="ssr:stedsnr" v="445728" />
	</node>
	<node id="-794201" lat="71.0396194504" lon="25.0432276188">
		<tag k="alt_name" v="Ålmannvika, store" />
		<tag k="name" v="Store Ålmannvika" />
		<tag k="natural" v="bay" />
		<tag k="ssr:stedsnr" v="445695" />
	</node>
	<node id="-794199" lat="71.1033583361" lon="24.7021415264">
		<tag k="name" v="Omnanbukta" />
		<tag k="natural" v="bay" />
		<tag k="ssr:stedsnr" v="445674" />
	</node>
	<node id="-794198" lat="71.1579472305" lon="24.9465526262">
		<tag k="name" v="Middagshauggrunnen" />
		<tag k="natural" v="shoal" />
		<tag k="place" v="locality" />
		<tag k="ssr:stedsnr" v="445671" />
	</node>
	<node id="-794197" lat="71.066036116" lon="24.584735992">
		<tag k="name" v="Geitingen" />
		<tag k="place" v="islet" />
		<tag k="ssr:stedsnr" v="445646" />
	</node>
	<node id="-794196" lat="71.0586250077" lon="24.6186470878">
		<tag k="name" v="Geitingsbukta" />
		<tag k="natural" v="bay" />
		<tag k="ssr:stedsnr" v="445641" />
	</node>
	<node id="-794195" lat="71.0243944459" lon="24.5816082049">
		<tag k="alt_name" v="Gavltaren, austre" />
		<tag k="name" v="Austre Gavltaren" />
		<tag k="natural" v="shoal" />
		<tag k="place" v="locality" />
		<tag k="ssr:stedsnr" v="445637" />
	</node>
	<node id="-794194" lat="71.0732944437" lon="24.1442804404">
		<tag k="name" v="Laukholmen" />
		<tag k="place" v="islet" />
		<tag k="ssr:stedsnr" v="445578" />
	</node>
	<node id="-794188" lat="70.9378694499" lon="25.0363637347">
		<tag k="name" v="Molvika" />
		<tag k="natural" v="bay" />
		<tag k="ssr:stedsnr" v="445448" />
	</node>
	<node id="-794187" lat="70.9634111121" lon="25.1078692819">
		<tag k="name" v="Banken" />
		<tag k="natural" v="shoal" />
		<tag k="place" v="locality" />
		<tag k="ssr:stedsnr" v="445441" />
	</node>
	<node id="-794185" lat="70.9725527821" lon="24.8546887532">
		<tag k="bay" v="fjord" />
		<tag k="name" v="Kullfjorden - Seahkkavuotna" />
		<tag k="name:no" v="Kullfjorden" />
		<tag k="name:se" v="Seahkkavuotna" />
		<tag k="natural" v="bay" />
		<tag k="old_name:se" v="Sækkavuodna" />
		<tag k="ssr:stedsnr" v="445429" />
	</node>
	<node id="-794184" lat="71.0327888903" lon="23.9588249028">
		<tag k="name" v="Kjellaren" />
		<tag k="natural" v="cape" />
		<tag k="ssr:stedsnr" v="445424" />
	</node>
	<node id="-794182" lat="70.8131555603" lon="24.5047554405">
		<tag k="alt_name" v="Svartbergneset, yt" />
		<tag k="loc_name" v="Svartbergneset" />
		<tag k="name" v="Ytre Svartbergneset" />
		<tag k="natural" v="cape" />
		<tag k="ssr:stedsnr" v="445392" />
	</node>
	<node id="-794181" lat="70.7877250058" lon="24.2454970968">
		<tag k="name" v="Hattvikneset" />
		<tag k="natural" v="cape" />
		<tag k="ssr:stedsnr" v="445384" />
	</node>
	<node id="-794176" lat="71.0220750077" lon="24.979022058">
		<tag k="alt_name:no" v="Måsøy" />
		<tag k="name" v="Måsøya - Muosáidsuolu" />
		<tag k="name:no" v="Måsøya" />
		<tag k="name:se" v="Muosáidsuolu" />
		<tag k="old_name:se" v="Muosaidsuolo;Muoáidsuolo" />
		<tag k="place" v="island" />
		<tag k="ssr:stedsnr" v="445346" />
	</node>
	<node id="-794175" lat="70.7515722217" lon="24.3504804399">
		<tag k="alt_name" v="Neverneset" />
		<tag k="name" v="Støvneset" />
		<tag k="natural" v="cape" />
		<tag k="ssr:stedsnr" v="445330" />
	</node>
	<node id="-794174" lat="70.876750001" lon="24.3512721122">
		<tag k="name" v="Burstadneset - Gáibbošnjárga" />
		<tag k="name:no" v="Burstadneset" />
		<tag k="name:se" v="Gáibbošnjárga" />
		<tag k="natural" v="cape" />
		<tag k="old_name:se" v="Gaibušnjarga" />
		<tag k="ssr:stedsnr" v="445327" />
	</node>
	<node id="-794173" lat="70.8713138905" lon="24.2421137724">
		<tag k="name" v="Mattisholet" />
		<tag k="natural" v="bay" />
		<tag k="ssr:stedsnr" v="445323" />
	</node>
	<node id="-794172" lat="70.870161115" lon="24.3923832188">
		<tag k="fixme" v="consider seamark:type=rock or natural=shoal" />
		<tag k="name" v="Nonstadnesskjæret" />
		<tag k="place" v="islet" />
		<tag k="ssr:stedsnr" v="445318" />
	</node>
	<node id="-794170" lat="70.9193916673" lon="24.4966970986">
		<tag k="name" v="Molla" />
		<tag k="natural" v="bay" />
		<tag k="ssr:stedsnr" v="445305" />
	</node>
	<node id="-794169" lat="70.8599333413" lon="24.3948776464">
		<tag k="name" v="Rotvikkeila" />
		<tag k="natural" v="bay" />
		<tag k="ssr:stedsnr" v="445261" />
	</node>
	<node id="-794167" lat="70.9987027829" lon="24.1906887961">
		<tag k="fixme" v="consider seamark:type=rock or natural=shoal" />
		<tag k="name" v="Kalvoffer" />
		<tag k="place" v="islet" />
		<tag k="ssr:stedsnr" v="445230" />
	</node>
	<node id="-794166" lat="70.9389583328" lon="24.1401860055">
		<tag k="name" v="Rolvsøyhamn" />
		<tag k="natural" v="bay" />
		<tag k="ssr:stedsnr" v="445210" />
	</node>
	<node id="-794165" lat="70.9567083376" lon="24.1942248883">
		<tag k="alt_name" v="Dyfjorden, yt" />
		<tag k="loc_name" v="Dyfjorden" />
		<tag k="name" v="Ytre Dyfjorden" />
		<tag k="natural" v="bay" />
		<tag k="ssr:stedsnr" v="445201" />
	</node>
	<node id="-794163" lat="70.7006500053" lon="24.5971832069">
		<tag k="name" v="Jordholmen - Gieddesuolu" />
		<tag k="name:no" v="Jordholmen" />
		<tag k="name:se" v="Gieddesuolu" />
		<tag k="old_name:se" v="Gieddesuolo" />
		<tag k="place" v="islet" />
		<tag k="ssr:stedsnr" v="445177" />
	</node>
	<node id="-794161" lat="70.7498277786" lon="24.3594304167">
		<tag k="name" v="Tennholmen - Čearretlássá" />
		<tag k="name:no" v="Tennholmen" />
		<tag k="name:se" v="Čearretlássá" />
		<tag k="old_name:se" v="Čærretlassa" />
		<tag k="place" v="islet" />
		<tag k="ssr:stedsnr" v="445163" />
	</node>
	<node id="-794160" lat="70.9622222276" lon="23.7611110288">
		<tag k="name" v="Joskallen" />
		<tag k="natural" v="shoal" />
		<tag k="place" v="locality" />
		<tag k="ssr:stedsnr" v="445139" />
	</node>
	<node id="-794158" lat="70.9754972251" lon="23.894436016">
		<tag k="bay" v="fjord" />
		<tag k="name" v="Valfjorden" />
		<tag k="natural" v="bay" />
		<tag k="ssr:stedsnr" v="445135" />
	</node>
	<node id="-794157" lat="70.9902972296" lon="23.8817082356">
		<tag k="alt_name" v="Tufjord Mollvika;Mollvika" />
		<tag k="name" v="Molvika" />
		<tag k="natural" v="bay" />
		<tag k="ssr:stedsnr" v="445132" />
	</node>
	<node id="-794156" lat="70.81785556" lon="25.321455356">
		<tag k="bay" v="fjord" />
		<tag k="name" v="Austerbotnen - Bealččagohppi" />
		<tag k="name:no" v="Austerbotnen" />
		<tag k="name:se" v="Bealččagohppi" />
		<tag k="natural" v="bay" />
		<tag k="old_name:se" v="Bælčagåppi" />
		<tag k="ssr:stedsnr" v="445123" />
	</node>
	<node id="-794153" lat="71.0783472234" lon="24.8312192876">
		<tag k="alt_name" v="Sortviknesset" />
		<tag k="name" v="Svartvikneset" />
		<tag k="natural" v="cape" />
		<tag k="ssr:stedsnr" v="444669" />
	</node>
	<node id="-794152" lat="71.0740666724" lon="24.6239387656">
		<tag k="name" v="Spissbergvika" />
		<tag k="natural" v="bay" />
		<tag k="ssr:stedsnr" v="444629" />
	</node>
	<node id="-794151" lat="71.0840083365" lon="24.8066359579">
		<tag k="name" v="Svartvika" />
		<tag k="natural" v="bay" />
		<tag k="ssr:stedsnr" v="444625" />
	</node>
	<node id="-794149" lat="71.0777944508" lon="24.738863755">
		<tag k="name" v="Spellneset" />
		<tag k="natural" v="cape" />
		<tag k="ssr:stedsnr" v="444622" />
	</node>
	<node id="-794148" lat="71.1004833344" lon="24.8451526299">
		<tag k="name" v="Torvkeila" />
		<tag k="natural" v="bay" />
		<tag k="ssr:stedsnr" v="444614" />
	</node>
	<node id="-794146" lat="71.0882472271" lon="24.0537943623">
		<tag k="name" v="Avløysinga" />
		<tag k="place" v="islet" />
		<tag k="ssr:stedsnr" v="444575" />
	</node>
	<node id="-794145" lat="71.1110416716" lon="24.0948610122">
		<tag k="name" v="Langskjærgrunnen" />
		<tag k="natural" v="shoal" />
		<tag k="place" v="locality" />
		<tag k="ssr:stedsnr" v="444572" />
	</node>
	<node id="-794144" lat="71.0814333385" lon="23.9597610263">
		<tag k="name" v="Fallet" />
		<tag k="natural" v="shoal" />
		<tag k="place" v="locality" />
		<tag k="ssr:stedsnr" v="444547" />
	</node>
	<node id="-794142" lat="71.0385833349" lon="23.9717832516">
		<tag k="alt_name" v="Trollfjordsundet" />
		<tag k="name" v="Trollsundet" />
		<tag k="natural" v="strait" />
		<tag k="ssr:stedsnr" v="444538" />
	</node>
	<node id="-794141" lat="71.0417444492" lon="23.9451499182">
		<tag k="name" v="Fallgrunnen" />
		<tag k="natural" v="shoal" />
		<tag k="place" v="locality" />
		<tag k="ssr:stedsnr" v="444537" />
	</node>
	<node id="-794140" lat="71.0121916678" lon="23.9385999059">
		<tag k="alt_name" v="Trollvikbukta" />
		<tag k="name" v="Trollvikbotn" />
		<tag k="natural" v="bay" />
		<tag k="ssr:stedsnr" v="444525" />
	</node>
	<node id="-794139" lat="71.1203055618" lon="24.0810999007">
		<tag k="name" v="Lineskallen" />
		<tag k="natural" v="shoal" />
		<tag k="place" v="locality" />
		<tag k="ssr:stedsnr" v="444522" />
	</node>
	<node id="-794138" lat="71.091786114" lon="23.9916776772">
		<tag k="alt_name" v="Kvannholmen, austre" />
		<tag k="name" v="Austre Kvannholmen" />
		<tag k="place" v="islet" />
		<tag k="ssr:stedsnr" v="444484" />
	</node>
	<node id="-794137" lat="71.0972416655" lon="23.9818304611">
		<tag k="fixme" v="consider seamark:type=rock or natural=shoal" />
		<tag k="name" v="Kvalen" />
		<tag k="place" v="islet" />
		<tag k="ssr:stedsnr" v="444483" />
	</node>
	<node id="-794135" lat="70.9479916674" lon="25.446719247">
		<tag k="name" v="Lille-Gåsvika - Oarjjit Goalseluokta" />
		<tag k="name:no" v="Lille-Gåsvika" />
		<tag k="name:se" v="Oarjjit Goalseluokta" />
		<tag k="natural" v="bay" />
		<tag k="old_name:se" v="Goalseluokta oarjit" />
		<tag k="ssr:stedsnr" v="444445" />
	</node>
	<node id="-794134" lat="70.9049666711" lon="25.0479220476">
		<tag k="alt_name" v="Sommarset, yt" />
		<tag k="name" v="Ytre Sommarset" />
		<tag k="natural" v="cape" />
		<tag k="ssr:stedsnr" v="444409" />
	</node>
	<node id="-794133" lat="70.9233277773" lon="24.8365665263">
		<tag k="name" v="Kanonodden" />
		<tag k="natural" v="cape" />
		<tag k="ssr:stedsnr" v="444406" />
	</node>
	<node id="-794132" lat="70.8717833373" lon="24.9656915035">
		<tag k="name" v="Lamasneset" />
		<tag k="natural" v="cape" />
		<tag k="ssr:stedsnr" v="444374" />
	</node>
	<node id="-794131" lat="70.892508338" lon="25.0310637159">
		<tag k="name" v="Kristianneset" />
		<tag k="natural" v="cape" />
		<tag k="ssr:stedsnr" v="444366" />
	</node>
	<node id="-794128" lat="70.9026416698" lon="25.1624942757">
		<tag k="name" v="Rekvika - Sismárgohppi" />
		<tag k="name:no" v="Rekvika" />
		<tag k="name:se" v="Sismárgohppi" />
		<tag k="natural" v="bay" />
		<tag k="old_name:se" v="Sismargåppi" />
		<tag k="ssr:stedsnr" v="444357" />
	</node>
	<node id="-794126" lat="70.8426722253" lon="24.4423220892">
		<tag k="name" v="Ytre Kvitnesodden" />
		<tag k="natural" v="cape" />
		<tag k="old_name" v="Kvitnesodden, yt" />
		<tag k="ssr:stedsnr" v="444254" />
	</node>
	<node id="-794123" lat="70.6725750079" lon="24.5975498523">
		<tag k="name" v="Vekselvikgrunnen" />
		<tag k="natural" v="shoal" />
		<tag k="place" v="locality" />
		<tag k="ssr:stedsnr" v="444149" />
	</node>
	<node id="-794122" lat="70.9319694472" lon="23.940236025">
		<tag k="name" v="Knarrkjerringvika" />
		<tag k="natural" v="bay" />
		<tag k="ssr:stedsnr" v="444136" />
	</node>
	<node id="-794121" lat="70.6858611172" lon="24.575283204">
		<tag k="name" v="Måsholmen - Gáirosuolu" />
		<tag k="name:no" v="Måsholmen" />
		<tag k="name:se" v="Gáirosuolu" />
		<tag k="old_name:se" v="Gairusolo" />
		<tag k="place" v="islet" />
		<tag k="ssr:stedsnr" v="444124" />
	</node>
	<node id="-794118" lat="70.9026194481" lon="25.3787942631">
		<tag k="fixme" v="multiple name tags, choose one and add the other to alt_name" />
		<tag k="loc_name:no" v="Sinkelvika" />
		<tag k="name" v="Sinkelvika, yt;Ytre Sinkelvika - Suoŋkaluovttat" />
		<tag k="name:no" v="Sinkelvika, yt;Ytre Sinkelvika" />
		<tag k="name:se" v="Suoŋkaluovttat" />
		<tag k="natural" v="bay" />
		<tag k="old_name:se" v="Suoŋkaluovtat" />
		<tag k="ssr:stedsnr" v="444032" />
	</node>
	<node id="-794117" lat="70.8224611165" lon="24.0847443329">
		<tag k="name" v="Bjørnøya - Biertnat" />
		<tag k="name:no" v="Bjørnøya" />
		<tag k="name:se" v="Biertnat" />
		<tag k="old_name:se" v="Bierdnat" />
		<tag k="place" v="island" />
		<tag k="ssr:stedsnr" v="444242" />
	</node>
	<node id="-794110" lat="70.9910666719" lon="24.6227387643">
		<tag k="name" v="Råskjæringsneset" />
		<tag k="natural" v="cape" />
		<tag k="ssr:stedsnr" v="267374" />
	</node>
	<node id="-794109" lat="71.0039861148" lon="24.144688776">
		<tag k="name" v="Vevika" />
		<tag k="natural" v="bay" />
		<tag k="ssr:stedsnr" v="267220" />
	</node>
	<node id="-794108" lat="70.9933250051" lon="24.1554582391">
		<tag k="name" v="Oldavioholmen" />
		<tag k="place" v="islet" />
		<tag k="ssr:stedsnr" v="267218" />
	</node>
	<node id="-794102" lat="70.6845055597" lon="24.6279998663">
		<tag k="name" v="Lillefjordneset - Vuoŧkevuonnjárga" />
		<tag k="name:no" v="Lillefjordneset" />
		<tag k="name:se" v="Vuoŧkevuonnjárga" />
		<tag k="natural" v="cape" />
		<tag k="ssr:stedsnr" v="263825" />
	</node>
	<node id="-794100" lat="71.123630557" lon="24.6301415273">
		<tag k="name" v="Staurgrunnen" />
		<tag k="natural" v="shoal" />
		<tag k="place" v="locality" />
		<tag k="ssr:stedsnr" v="263666" />
	</node>
	<node id="-794099" lat="71.1470833361" lon="24.7828276516">
		<tag k="name" v="Nilsråsa" />
		<tag k="natural" v="shoal" />
		<tag k="place" v="locality" />
		<tag k="ssr:stedsnr" v="263663" />
	</node>
	<node id="-794098" lat="71.0554305606" lon="24.5507637633">
		<tag k="name" v="Latøygrunnen" />
		<tag k="natural" v="shoal" />
		<tag k="place" v="locality" />
		<tag k="ssr:stedsnr" v="263629" />
	</node>
	<node id="-794097" lat="71.0279555561" lon="24.4921748728">
		<tag k="name" v="Staurgrunnen" />
		<tag k="natural" v="shoal" />
		<tag k="place" v="locality" />
		<tag k="ssr:stedsnr" v="263620" />
	</node>
	<node id="-794084" lat="70.9602055566" lon="24.8343081749">
		<tag k="name" v="Storvikgrunnen" />
		<tag k="natural" v="shoal" />
		<tag k="place" v="locality" />
		<tag k="ssr:stedsnr" v="263431" />
	</node>
	<node id="-794083" lat="70.7510750007" lon="24.3670082051">
		<tag k="name" v="Reinofferbukta" />
		<tag k="natural" v="bay" />
		<tag k="ssr:stedsnr" v="263375" />
	</node>
	<node id="-794079" lat="70.8954472266" lon="24.5884332064">
		<tag k="name" v="Skjarvelandet" />
		<tag k="natural" v="beach" />
		<tag k="place" v="locality" />
		<tag k="ssr:stedsnr" v="263344" />
	</node>
	<node id="-794076" lat="70.8756000001" lon="24.3657804252">
		<tag k="fixme" v="consider seamark:type=rock or natural=shoal" />
		<tag k="name" v="Steinen" />
		<tag k="place" v="islet" />
		<tag k="ssr:stedsnr" v="263336" />
	</node>
	<node id="-794075" lat="70.9290666666" lon="24.5503998592">
		<tag k="alt_name" v="Tarevika" />
		<tag k="name" v="Tarvika" />
		<tag k="natural" v="bay" />
		<tag k="ssr:stedsnr" v="263335" />
	</node>
	<node id="-794074" lat="70.9253416687" lon="24.5479498773">
		<tag k="name" v="Straumsneset" />
		<tag k="natural" v="cape" />
		<tag k="ssr:stedsnr" v="263333" />
	</node>
	<node id="-794073" lat="70.9216805596" lon="24.485722109">
		<tag k="name" v="Lille Latøya - Duolbaláhttá" />
		<tag k="name:no" v="Lille Latøya" />
		<tag k="name:se" v="Duolbaláhttá" />
		<tag k="old_name:no" v="Latøya, l" />
		<tag k="old_name:se" v="Duolbalatta" />
		<tag k="place" v="island" />
		<tag k="ssr:stedsnr" v="263332" />
	</node>
	<node id="-794072" lat="70.9086583337" lon="24.5809026324">
		<tag k="name" v="Sætervika" />
		<tag k="natural" v="bay" />
		<tag k="ssr:stedsnr" v="263327" />
	</node>
	<node id="-794071" lat="70.8476583346" lon="24.4049998655">
		<tag k="fixme" v="consider seamark:type=rock or natural=shoal" />
		<tag k="name" v="Finngudskjæret" />
		<tag k="place" v="islet" />
		<tag k="ssr:stedsnr" v="263295" />
	</node>
	<node id="-794069" lat="70.9882166697" lon="24.0229471289">
		<tag k="alt_name" v="Valfjordbotten" />
		<tag k="name" v="Valfjordbotn" />
		<tag k="natural" v="bay" />
		<tag k="ssr:stedsnr" v="263276" />
	</node>
	<node id="-794065" lat="70.7041416686" lon="24.6026359622">
		<tag k="bay" v="fjord" />
		<tag k="fixme" v="multiple name tags, choose one and add the other to alt_name" />
		<tag k="name" v="Lillefjorden - Uhcavuonaš;Vuoŧkevuotna" />
		<tag k="name:no" v="Lillefjorden" />
		<tag k="name:se" v="Uhcavuonaš;Vuoŧkevuotna" />
		<tag k="natural" v="bay" />
		<tag k="ssr:stedsnr" v="263195" />
	</node>
	<node id="-794064" lat="70.8120944527" lon="25.2665692555">
		<tag k="name" v="Kjerringvika" />
		<tag k="natural" v="bay" />
		<tag k="ssr:stedsnr" v="263118" />
	</node>
	<node id="-794063" lat="70.8892138916" lon="25.3179470301">
		<tag k="fixme" v="consider seamark:type=rock or natural=shoal" />
		<tag k="name" v="Kobbeskjæret - Gáhppovuonlásis" />
		<tag k="name:no" v="Kobbeskjæret" />
		<tag k="name:se" v="Gáhppovuonlásis" />
		<tag k="old_name:se" v="Gappuvuonlasis" />
		<tag k="place" v="islet" />
		<tag k="ssr:stedsnr" v="263049" />
	</node>
	<node id="-794057" lat="71.0292250039" lon="24.7251526415">
		<tag k="name" v="Sirielva" />
		<tag k="natural" v="bay" />
		<tag k="ssr:stedsnr" v="262684" />
	</node>
	<node id="-794056" lat="71.0399916735" lon="25.1034581665">
		<tag k="name" v="Kvannligrunnen" />
		<tag k="natural" v="shoal" />
		<tag k="place" v="locality" />
		<tag k="ssr:stedsnr" v="262682" />
	</node>
	<node id="-794055" lat="71.0511888906" lon="25.1039248358">
		<tag k="name" v="Storskallen" />
		<tag k="natural" v="shoal" />
		<tag k="place" v="locality" />
		<tag k="ssr:stedsnr" v="262674" />
	</node>
	<node id="-794052" lat="71.1058888917" lon="24.8401915277">
		<tag k="fixme" v="multiple name tags, choose one and add the other to alt_name; consider seamark:type=rock or natural=shoal" />
		<tag k="name" v="Rundskjæret;Lilleskjæret" />
		<tag k="place" v="islet" />
		<tag k="ssr:stedsnr" v="262632" />
	</node>
	<node id="-794051" lat="71.0986333384" lon="24.0698832291">
		<tag k="fixme" v="consider seamark:type=rock or natural=shoal" />
		<tag k="name" v="Lilleskarvbaren" />
		<tag k="place" v="islet" />
		<tag k="ssr:stedsnr" v="262601" />
	</node>
	<node id="-794049" lat="71.0620833376" lon="24.0099998932">
		<tag k="name" v="Langnesklubben" />
		<tag k="natural" v="cape" />
		<tag k="ssr:stedsnr" v="262579" />
	</node>
	<node id="-794048" lat="71.0704527765" lon="23.9831221291">
		<tag k="name" v="Porthola" />
		<tag k="natural" v="bay" />
		<tag k="ssr:stedsnr" v="262568" />
	</node>
	<node id="-794047" lat="71.0442000056" lon="23.9684860255">
		<tag k="name" v="Hammarneset" />
		<tag k="natural" v="cape" />
		<tag k="ssr:stedsnr" v="262562" />
	</node>
	<node id="-794045" lat="70.9202916682" lon="25.0389026151">
		<tag k="bay" v="fjord" />
		<tag k="name" v="Ryggefjorden - Čielgevuotna" />
		<tag k="name:no" v="Ryggefjorden" />
		<tag k="name:se" v="Čielgevuotna" />
		<tag k="natural" v="bay" />
		<tag k="old_name:se" v="Čielgevuodna" />
		<tag k="ssr:stedsnr" v="262447" />
	</node>
	<node id="-794044" lat="70.9075166716" lon="24.9662915218">
		<tag k="name" v="Kabelbukta" />
		<tag k="natural" v="bay" />
		<tag k="ssr:stedsnr" v="262446" />
	</node>
	<node id="-794043" lat="70.9179250056" lon="24.9253304094">
		<tag k="name" v="Risvika" />
		<tag k="natural" v="bay" />
		<tag k="ssr:stedsnr" v="262442" />
	</node>
	<node id="-794042" lat="70.9233444467" lon="24.8705304055">
		<tag k="alt_name" v="Nordmannsvik, yt" />
		<tag k="name" v="Ytre Nordmannsvika" />
		<tag k="natural" v="bay" />
		<tag k="ssr:stedsnr" v="262440" />
	</node>
	<node id="-794040" lat="70.9187583369" lon="24.8218276319">
		<tag k="name" v="Vesterbotn - Veahčervuotna" />
		<tag k="name:no" v="Vesterbotn" />
		<tag k="name:se" v="Veahčervuotna" />
		<tag k="natural" v="bay" />
		<tag k="old_name:se" v="Væččervuodna" />
		<tag k="ssr:stedsnr" v="262439" />
	</node>
	<node id="-794036" lat="70.8279972292" lon="24.4305137555">
		<tag k="name" v="Fartøyvikneset" />
		<tag k="natural" v="cape" />
		<tag k="ssr:stedsnr" v="262355" />
	</node>
	<node id="-794035" lat="70.8068583389" lon="24.2717637854">
		<tag k="name" v="Jogašluokta" />
		<tag k="name:se" v="Jogašluokta" />
		<tag k="natural" v="bay" />
		<tag k="old_name:se" v="Jågašluokta" />
		<tag k="ssr:stedsnr" v="262336" />
	</node>
	<node id="-794031" lat="70.9437833327" lon="23.9338693483">
		<tag k="bay" v="fjord" />
		<tag k="name" v="Stoppelfjorden" />
		<tag k="natural" v="bay" />
		<tag k="ssr:stedsnr" v="262141" />
	</node>
	<node id="-794030" lat="70.6858111158" lon="24.6014998575">
		<tag k="name" v="Krokvika - Roahkkegávva" />
		<tag k="name:no" v="Krokvika" />
		<tag k="name:se" v="Roahkkegávva" />
		<tag k="natural" v="bay" />
		<tag k="old_name:se" v="Roakkegavva" />
		<tag k="ssr:stedsnr" v="262126" />
	</node>
	<node id="-794029" lat="70.941283341" lon="25.3126498201">
		<tag k="name" v="Finnstadneset" />
		<tag k="natural" v="cape" />
		<tag k="ssr:stedsnr" v="262056" />
	</node>
	<node id="-794025" lat="70.9937583354" lon="24.1797415697">
		<tag k="name" v="Kobbevika" />
		<tag k="natural" v="bay" />
		<tag k="ssr:stedsnr" v="230815" />
	</node>
	<node id="-794024" lat="70.9241777801" lon="25.2591664913">
		<tag k="name" v="Lillebåen" />
		<tag k="natural" v="shoal" />
		<tag k="place" v="locality" />
		<tag k="ssr:stedsnr" v="230190" />
	</node>
	<node id="-794023" lat="71.013636114" lon="25.0612248525">
		<tag k="name" v="Småskallen" />
		<tag k="natural" v="shoal" />
		<tag k="place" v="locality" />
		<tag k="ssr:stedsnr" v="230070" />
	</node>
	<node id="-794022" lat="71.1132250056" lon="24.7115720827">
		<tag k="name" v="Kvænnesen" />
		<tag k="natural" v="cape" />
		<tag k="ssr:stedsnr" v="230025" />
	</node>
	<node id="-794020" lat="70.9966666723" lon="24.6091304402">
		<tag k="name" v="Storvika" />
		<tag k="natural" v="bay" />
		<tag k="ssr:stedsnr" v="211144" />
	</node>
	<node id="-794018" lat="71.0749305597" lon="24.7418137576">
		<tag k="name" v="Buckstøa" />
		<tag k="natural" v="bay" />
		<tag k="ssr:stedsnr" v="211007" />
	</node>
	<node id="-794016" lat="70.820005559" lon="24.6078720934">
		<tag k="alt_name" v="Reinoksevika" />
		<tag k="name" v="Petternesbukt" />
		<tag k="natural" v="bay" />
		<tag k="ssr:stedsnr" v="208503" />
	</node>
	<node id="-794011" lat="70.7977305626" lon="24.5624637686">
		<tag k="name" v="Skavikneset" />
		<tag k="natural" v="cape" />
		<tag k="ssr:stedsnr" v="208444" />
	</node>
	<node id="-794010" lat="70.8141388916" lon="24.6223998547">
		<tag k="name" v="Ytrevika" />
		<tag k="natural" v="bay" />
		<tag k="ssr:stedsnr" v="208441" />
	</node>
	<node id="-794009" lat="70.9632055597" lon="24.6732804148">
		<tag k="name" v="Eiterfjordbotn" />
		<tag k="natural" v="bay" />
		<tag k="ssr:stedsnr" v="208425" />
	</node>
	<node id="-794008" lat="70.9637250067" lon="24.6179998812">
		<tag k="name" v="Djupvika" />
		<tag k="natural" v="bay" />
		<tag k="ssr:stedsnr" v="208418" />
	</node>
	<node id="-794006" lat="71.00956945" lon="24.9888803896">
		<tag k="name" v="Bukta" />
		<tag k="natural" v="bay" />
		<tag k="ssr:stedsnr" v="208396" />
	</node>
	<node id="-794005" lat="71.0049222243" lon="24.9797470719">
		<tag k="name" v="Lenningen" />
		<tag k="natural" v="bay" />
		<tag k="ssr:stedsnr" v="208395" />
	</node>
	<node id="-794004" lat="71.0076916682" lon="24.9940720557">
		<tag k="name" v="Vestervågsanden" />
		<tag k="natural" v="beach" />
		<tag k="place" v="locality" />
		<tag k="ssr:stedsnr" v="208393" />
	</node>
	<node id="-794003" lat="71.0206611142" lon="25.0324470725">
		<tag k="name" v="Østre Holmbukta" />
		<tag k="natural" v="bay" />
		<tag k="ssr:stedsnr" v="208384" />
	</node>
	<node id="-793997" lat="70.9998805618" lon="23.9065026845">
		<tag k="name" v="Djupvikneset" />
		<tag k="natural" v="cape" />
		<tag k="ssr:stedsnr" v="206340" />
	</node>
	<node id="-793993" lat="71.0614305591" lon="24.0159526824">
		<tag k="name" v="Langnesbukta" />
		<tag k="natural" v="bay" />
		<tag k="ssr:stedsnr" v="206023" />
	</node>
	<node id="-793992" lat="71.0660527759" lon="24.0251610206">
		<tag k="fixme" v="consider seamark:type=rock or natural=shoal" />
		<tag k="name" v="Skarvnakken" />
		<tag k="place" v="islet" />
		<tag k="ssr:stedsnr" v="206008" />
	</node>
	<node id="-793989" lat="71.0791472281" lon="23.9983415798">
		<tag k="fixme" v="consider seamark:type=rock or natural=shoal" />
		<tag k="name" v="Prestholmspira" />
		<tag k="place" v="islet" />
		<tag k="ssr:stedsnr" v="206112" />
	</node>
	<node id="-793988" lat="71.0807138892" lon="24.0090721374">
		<tag k="name" v="Finnesvågen" />
		<tag k="natural" v="bay" />
		<tag k="ssr:stedsnr" v="206111" />
	</node>
	<node id="-793987" lat="71.0759194474" lon="24.0187610199">
		<tag k="name" v="Edorbukta" />
		<tag k="natural" v="bay" />
		<tag k="ssr:stedsnr" v="206108" />
	</node>
	<node id="-793979" lat="71.0024500011" lon="24.6776943118">
		<tag k="name" v="Garpholmvika" />
		<tag k="natural" v="bay" />
		<tag k="ssr:stedsnr" v="202731" />
	</node>
	<node id="-793978" lat="71.0227083381" lon="25.0332442855">
		<tag k="alt_name" v="Skjåvika, l;Lille Sjåvika" />
		<tag k="name" v="Lille Skjåvika" />
		<tag k="natural" v="bay" />
		<tag k="ssr:stedsnr" v="202728" />
	</node>
	<node id="-793977" lat="71.0554222261" lon="24.7997498542">
		<tag k="alt_name" v="Kiholmen" />
		<tag k="name" v="Kjeholmen" />
		<tag k="place" v="islet" />
		<tag k="ssr:stedsnr" v="202704" />
	</node>
	<node id="-793975" lat="71.0326638938" lon="24.7790359599">
		<tag k="name" v="Purkevika" />
		<tag k="natural" v="bay" />
		<tag k="ssr:stedsnr" v="202686" />
	</node>
	<node id="-793971" lat="71.0827944486" lon="24.646435969">
		<tag k="name" v="Skinnstadvika" />
		<tag k="natural" v="bay" />
		<tag k="ssr:stedsnr" v="202658" />
	</node>
	<node id="-793970" lat="71.0464416656" lon="24.0248193403">
		<tag k="name" v="Stokkneset" />
		<tag k="natural" v="cape" />
		<tag k="ssr:stedsnr" v="202651" />
	</node>
	<node id="-793969" lat="71.0567055609" lon="24.6152637622">
		<tag k="name" v="Lille-Geitingsodden" />
		<tag k="natural" v="cape" />
		<tag k="ssr:stedsnr" v="202641" />
	</node>
	<node id="-793968" lat="71.0034250068" lon="24.0645610011">
		<tag k="alt_name" v="Nordhamna, in" />
		<tag k="name" v="Indre Nordhamna" />
		<tag k="natural" v="bay" />
		<tag k="ssr:stedsnr" v="202637" />
	</node>
	<node id="-793967" lat="71.0690305608" lon="24.1249554605">
		<tag k="fixme" v="consider seamark:type=rock or natural=shoal" />
		<tag k="name" v="Småvikran" />
		<tag k="place" v="islet" />
		<tag k="ssr:stedsnr" v="202605" />
	</node>
	<node id="-793965" lat="71.0699999983" lon="23.9878721309">
		<tag k="name" v="Portholneset" />
		<tag k="natural" v="cape" />
		<tag k="ssr:stedsnr" v="202589" />
	</node>
	<node id="-793963" lat="71.0459750041" lon="23.9594943496">
		<tag k="name" v="Fallneset" />
		<tag k="natural" v="cape" />
		<tag k="ssr:stedsnr" v="202583" />
	</node>
	<node id="-793962" lat="71.0473833355" lon="23.9600776824">
		<tag k="name" v="Fallvika" />
		<tag k="natural" v="bay" />
		<tag k="ssr:stedsnr" v="202582" />
	</node>
	<node id="-793961" lat="71.0321111134" lon="23.9363610305">
		<tag k="fixme" v="multiple name tags, choose one and add the other to alt_name" />
		<tag k="name" v="Storsteinneset;Stortindneset" />
		<tag k="natural" v="cape" />
		<tag k="ssr:stedsnr" v="202576" />
	</node>
	<node id="-793960" lat="71.0027805565" lon="23.8881776767">
		<tag k="name" v="Kjerkeneset" />
		<tag k="natural" v="cape" />
		<tag k="ssr:stedsnr" v="202564" />
	</node>
	<node id="-793959" lat="70.7931194499" lon="24.1699582228">
		<tag k="name" v="Store Rypøya - Rihpat" />
		<tag k="name:no" v="Store Rypøya" />
		<tag k="name:se" v="Rihpat" />
		<tag k="old_name:no" v="Rypøya, store" />
		<tag k="old_name:se" v="Rippat" />
		<tag k="place" v="island" />
		<tag k="ssr:stedsnr" v="202552" />
	</node>
	<node id="-793958" lat="70.8627388906" lon="24.3135887626">
		<tag k="alt_name" v="Stormolla" />
		<tag k="name" v="Molla" />
		<tag k="natural" v="bay" />
		<tag k="ssr:stedsnr" v="202551" />
	</node>
	<node id="-793951" lat="70.9742805595" lon="24.7395831884">
		<tag k="name" v="Boalonjárga" />
		<tag k="name:se" v="Boalonjárga" />
		<tag k="natural" v="cape" />
		<tag k="old_name:se" v="Boalunjarga" />
		<tag k="ssr:stedsnr" v="202413" />
	</node>
	<node id="-793950" lat="70.9751027767" lon="24.9709081833">
		<tag k="name" v="Fastlandsbukta" />
		<tag k="natural" v="bay" />
		<tag k="ssr:stedsnr" v="202411" />
	</node>
	<node id="-793949" lat="71.0622138962" lon="24.7708026321">
		<tag k="alt_name" v="Elvevik" />
		<tag k="name" v="Elvevika" />
		<tag k="natural" v="bay" />
		<tag k="ssr:stedsnr" v="202402" />
	</node>
	<node id="-793945" lat="70.812213892" lon="24.5004415394">
		<tag k="alt_name" v="Svartbergvika, in" />
		<tag k="name" v="Indre Svartbergvika" />
		<tag k="natural" v="bay" />
		<tag k="ssr:stedsnr" v="202379" />
	</node>
	<node id="-793944" lat="70.8312166682" lon="24.5685387518">
		<tag k="alt_name:se" v="Guoskala;Goeskela" />
		<tag k="name" v="Guoskat" />
		<tag k="name:se" v="Guoskat" />
		<tag k="place" v="island" />
		<tag k="ssr:stedsnr" v="202362" />
	</node>
	<node id="-793943" lat="70.8099805601" lon="24.0317332411">
		<tag k="name" v="Bjørnøyskallen" />
		<tag k="natural" v="shoal" />
		<tag k="place" v="locality" />
		<tag k="ssr:stedsnr" v="202349" />
	</node>
	<node id="-793940" lat="70.9732388952" lon="24.681452649">
		<tag k="bay" v="fjord" />
		<tag k="name" v="Eiterfjorden - Árresvuotna" />
		<tag k="name:no" v="Eiterfjorden" />
		<tag k="name:se" v="Árresvuotna" />
		<tag k="natural" v="bay" />
		<tag k="old_name:se" v="Arresvuodna" />
		<tag k="ssr:stedsnr" v="202332" />
	</node>
	<node id="-793938" lat="70.8780277769" lon="24.2868748791">
		<tag k="name" v="Reinøyvalen" />
		<tag k="natural" v="bay" />
		<tag k="ssr:stedsnr" v="202311" />
	</node>
	<node id="-793937" lat="70.8836000055" lon="24.3022665612">
		<tag k="name" v="Reinøyspira" />
		<tag k="natural" v="cape" />
		<tag k="ssr:stedsnr" v="202310" />
	</node>
	<node id="-793936" lat="70.8691194458" lon="24.2638221043">
		<tag k="name" v="Purkevika" />
		<tag k="natural" v="bay" />
		<tag k="ssr:stedsnr" v="202304" />
	</node>
	<node id="-793935" lat="70.8689277792" lon="24.3738415415">
		<tag k="name" v="Tarevika" />
		<tag k="natural" v="bay" />
		<tag k="ssr:stedsnr" v="202302" />
	</node>
	<node id="-793934" lat="70.9272000038" lon="24.4270332187">
		<tag k="name" v="Store Latøya - Čohkaláhttá" />
		<tag k="name:no" v="Store Latøya" />
		<tag k="name:se" v="Čohkaláhttá" />
		<tag k="old_name:no" v="Latøya, store" />
		<tag k="old_name:se" v="Čåkkalatta" />
		<tag k="place" v="island" />
		<tag k="ssr:stedsnr" v="202295" />
	</node>
	<node id="-793933" lat="70.9162222262" lon="24.6018998644">
		<tag k="name" v="Klubben" />
		<tag k="place" v="islet" />
		<tag k="ssr:stedsnr" v="202291" />
	</node>
	<node id="-793932" lat="70.9149694504" lon="24.5822304258">
		<tag k="name" v="Selvika - Čuovgavuotna" />
		<tag k="name:no" v="Selvika" />
		<tag k="name:se" v="Čuovgavuotna" />
		<tag k="natural" v="bay" />
		<tag k="old_name:se" v="Čuovgavuodna" />
		<tag k="ssr:stedsnr" v="202290" />
	</node>
	<node id="-793931" lat="70.7275555564" lon="24.4176304245">
		<tag k="name" v="Storgrunnen" />
		<tag k="natural" v="shoal" />
		<tag k="place" v="locality" />
		<tag k="ssr:stedsnr" v="202181" />
	</node>
	<node id="-793929" lat="70.7061888922" lon="24.5774498507">
		<tag k="name" v="Sommarneset - Geassenjárga" />
		<tag k="name:no" v="Sommarneset" />
		<tag k="name:se" v="Geassenjárga" />
		<tag k="natural" v="cape" />
		<tag k="old_name:se" v="Gæssenjarga" />
		<tag k="ssr:stedsnr" v="202174" />
	</node>
	<node id="-793928" lat="70.7427194497" lon="24.5080970914">
		<tag k="alt_name:no" v="Slåtten" />
		<tag k="name" v="Slåttenbukta - Muotkegohppi" />
		<tag k="name:no" v="Slåttenbukta" />
		<tag k="name:se" v="Muotkegohppi" />
		<tag k="natural" v="bay" />
		<tag k="old_name:se" v="Muotkegåppi" />
		<tag k="ssr:stedsnr" v="202156" />
	</node>
	<node id="-793927" lat="70.9296944451" lon="23.9429887897">
		<tag k="name" v="Gåsvikneset" />
		<tag k="natural" v="cape" />
		<tag k="ssr:stedsnr" v="202141" />
	</node>
	<node id="-793926" lat="70.9875944435" lon="23.8809332449">
		<tag k="name" v="Pålkeilneset" />
		<tag k="natural" v="cape" />
		<tag k="ssr:stedsnr" v="202129" />
	</node>
	<node id="-793921" lat="70.8385666717" lon="24.57959986">
		<tag k="name" v="Kobbevikneset" />
		<tag k="natural" v="cape" />
		<tag k="ssr:stedsnr" v="202276" />
	</node>
	<node id="-793915" lat="70.9811055621" lon="24.2225415484">
		<tag k="name" v="Mefjordgrunnen" />
		<tag k="natural" v="shoal" />
		<tag k="place" v="locality" />
		<tag k="ssr:stedsnr" v="202247" />
	</node>
	<node id="-793914" lat="70.9680472294" lon="24.0527887847">
		<tag k="name" v="Langfjordbotn" />
		<tag k="natural" v="bay" />
		<tag k="ssr:stedsnr" v="202242" />
	</node>
	<node id="-793912" lat="70.9678222254" lon="24.1440498905">
		<tag k="name" v="Kvalvika" />
		<tag k="natural" v="bay" />
		<tag k="ssr:stedsnr" v="202240" />
	</node>
	<node id="-793911" lat="70.9344749992" lon="24.1571610141">
		<tag k="name" v="Spira" />
		<tag k="natural" v="cape" />
		<tag k="ssr:stedsnr" v="202214" />
	</node>
	<node id="-793910" lat="70.92940556" lon="24.1445887854">
		<tag k="name" v="Rolvshamnneset" />
		<tag k="natural" v="cape" />
		<tag k="ssr:stedsnr" v="202211" />
	</node>
	<node id="-793909" lat="70.9341333358" lon="24.4010526577">
		<tag k="name" v="Lysgrunnan" />
		<tag k="natural" v="shoal" />
		<tag k="place" v="locality" />
		<tag k="ssr:stedsnr" v="202209" />
	</node>
	<node id="-793908" lat="70.9381250007" lon="24.4543970977">
		<tag k="name" v="Småskallen" />
		<tag k="natural" v="shoal" />
		<tag k="place" v="locality" />
		<tag k="ssr:stedsnr" v="202207" />
	</node>
	<node id="-793907" lat="70.9530722287" lon="24.5451887762">
		<tag k="name" v="Nebben" />
		<tag k="natural" v="cape" />
		<tag k="ssr:stedsnr" v="202203" />
	</node>
	<node id="-793905" lat="71.1019249983" lon="24.060572124">
		<tag k="fixme" v="consider seamark:type=rock or natural=shoal" />
		<tag k="name" v="Stabben" />
		<tag k="place" v="islet" />
		<tag k="ssr:stedsnr" v="169977" />
	</node>
	<node id="-793904" lat="70.9873583339" lon="24.1244971284">
		<tag k="fixme" v="consider seamark:type=rock or natural=shoal" />
		<tag k="name" v="Gunnarnesskjæret" />
		<tag k="place" v="islet" />
		<tag k="ssr:stedsnr" v="169823" />
	</node>
	<node id="-793902" lat="71.0026750015" lon="25.0206776187">
		<tag k="fixme" v="consider seamark:type=rock or natural=shoal" />
		<tag k="name" v="Steinen" />
		<tag k="place" v="islet" />
		<tag k="ssr:stedsnr" v="150059" />
	</node>
	<node id="-793898" lat="71.0734333356" lon="24.741849853">
		<tag k="name" v="Lillevik" />
		<tag k="natural" v="bay" />
		<tag k="ssr:stedsnr" v="150006" />
	</node>
	<node id="-793894" lat="70.7901333388" lon="24.6079665311">
		<tag k="name" v="Gargoneset" />
		<tag k="natural" v="cape" />
		<tag k="ssr:stedsnr" v="147427" />
	</node>
	<node id="-793889" lat="71.0145166665" lon="25.0182803946">
		<tag k="name" v="Stian" />
		<tag k="natural" v="bay" />
		<tag k="ssr:stedsnr" v="147394" />
	</node>
	<node id="-793884" lat="71.0661111105" lon="24.5943470965">
		<tag k="name" v="Geitingsundet" />
		<tag k="natural" v="strait" />
		<tag k="ssr:stedsnr" v="145402" />
	</node>
	<node id="-793882" lat="70.8031583354" lon="24.6221637626">
		<tag k="name" v="Ongelneset" />
		<tag k="natural" v="cape" />
		<tag k="ssr:stedsnr" v="145396" />
	</node>
	<node id="-793881" lat="70.8642750005" lon="24.680263747">
		<tag k="name" v="Pollen" />
		<tag k="natural" v="bay" />
		<tag k="ssr:stedsnr" v="145395" />
	</node>
	<node id="-793880" lat="70.8520277866" lon="25.3602692592">
		<tag k="name" v="Steingamneset" />
		<tag k="natural" v="cape" />
		<tag k="ssr:stedsnr" v="145341" />
	</node>
	<node id="-793876" lat="71.0681916739" lon="24.0400304508">
		<tag k="name" v="Holmestrand" />
		<tag k="natural" v="beach" />
		<tag k="place" v="locality" />
		<tag k="ssr:stedsnr" v="145120" />
	</node>
	<node id="-793875" lat="71.0477888889" lon="24.0180471348">
		<tag k="name" v="Vikranbukta" />
		<tag k="natural" v="bay" />
		<tag k="ssr:stedsnr" v="145038" />
	</node>
	<node id="-793874" lat="71.0745861143" lon="24.0712637969">
		<tag k="name" v="Valan" />
		<tag k="natural" v="cape" />
		<tag k="ssr:stedsnr" v="145012" />
	</node>
	<node id="-793867" lat="70.6656138927" lon="24.6478248534">
		<tag k="name" v="Skogvika - Sváskkogávva" />
		<tag k="name:no" v="Skogvika" />
		<tag k="name:se" v="Sváskkogávva" />
		<tag k="natural" v="bay" />
		<tag k="old_name:se" v="Svaškugavva" />
		<tag k="ssr:stedsnr" v="141860" />
	</node>
	<node id="-793864" lat="71.1007166675" lon="24.7696137409">
		<tag k="name" v="Tarevikbukta" />
		<tag k="natural" v="bay" />
		<tag k="ssr:stedsnr" v="141649" />
	</node>
	<node id="-793863" lat="71.1132777776" lon="24.7335137473">
		<tag k="name" v="Krykkjeskjåen" />
		<tag k="natural" v="bay" />
		<tag k="ssr:stedsnr" v="141646" />
	</node>
	<node id="-793862" lat="71.1351333374" lon="25.0613193009">
		<tag k="name" v="Mellomgrunnen" />
		<tag k="natural" v="shoal" />
		<tag k="place" v="locality" />
		<tag k="ssr:stedsnr" v="141644" />
	</node>
	<node id="-793861" lat="71.0463249972" lon="24.0352776902">
		<tag k="name" v="Båtkeila" />
		<tag k="natural" v="bay" />
		<tag k="ssr:stedsnr" v="141635" />
	</node>
	<node id="-793859" lat="71.0370583335" lon="24.020174894">
		<tag k="fixme" v="consider seamark:type=rock or natural=shoal" />
		<tag k="name" v="Flåskjæret" />
		<tag k="place" v="islet" />
		<tag k="ssr:stedsnr" v="141624" />
	</node>
	<node id="-793856" lat="71.083811112" lon="24.0102332239">
		<tag k="alt_name" v="Toften" />
		<tag k="name" v="Tufta" />
		<tag k="natural" v="cape" />
		<tag k="ssr:stedsnr" v="141594" />
	</node>
	<node id="-793855" lat="71.0907500071" lon="24.1135026713">
		<tag k="alt_name" v="Kartøya, store" />
		<tag k="fixme" v="multiple name tags, choose one and add the other to alt_name" />
		<tag k="name" v="Kartøya;Store Kartøya" />
		<tag k="place" v="island" />
		<tag k="ssr:stedsnr" v="141591" />
	</node>
	<node id="-793854" lat="71.0770722228" lon="24.1405415755">
		<tag k="name" v="Gåsnes" />
		<tag k="natural" v="cape" />
		<tag k="ssr:stedsnr" v="141585" />
	</node>
	<node id="-793853" lat="71.0077805564" lon="24.7829498644">
		<tag k="name" v="Trollfjordnesgrunnen" />
		<tag k="natural" v="shoal" />
		<tag k="place" v="locality" />
		<tag k="ssr:stedsnr" v="141687" />
	</node>
	<node id="-793850" lat="71.0390444454" lon="24.7765748647">
		<tag k="alt_name" v="Skarvbergbukta" />
		<tag k="name" v="Molla" />
		<tag k="natural" v="bay" />
		<tag k="ssr:stedsnr" v="141655" />
	</node>
	<node id="-793849" lat="71.0427111106" lon="24.945999847">
		<tag k="name" v="Hartvikroren" />
		<tag k="natural" v="bay" />
		<tag k="ssr:stedsnr" v="141653" />
	</node>
	<node id="-793848" lat="71.1091444496" lon="24.7487165311">
		<tag k="name" v="Keila" />
		<tag k="natural" v="bay" />
		<tag k="ssr:stedsnr" v="141651" />
	</node>
	<node id="-793846" lat="70.9789500075" lon="25.3298859257">
		<tag k="name" v="Stikkelvågnæringen" />
		<tag k="natural" v="cape" />
		<tag k="ssr:stedsnr" v="141458" />
	</node>
	<node id="-793843" lat="70.8030027768" lon="24.5864748712">
		<tag k="name" v="Snefjordholmen - Muorralsuolu" />
		<tag k="name:no" v="Snefjordholmen" />
		<tag k="name:se" v="Muorralsuolu" />
		<tag k="place" v="island" />
		<tag k="ssr:stedsnr" v="141386" />
	</node>
	<node id="-793842" lat="70.8028111124" lon="24.5296859866">
		<tag k="name" v="Sinkos - Čiŋkošgáddi" />
		<tag k="name:no" v="Sinkos" />
		<tag k="name:se" v="Čiŋkošgáddi" />
		<tag k="natural" v="beach" />
		<tag k="old_name:se" v="Čiŋkušgaddi" />
		<tag k="place" v="locality" />
		<tag k="ssr:stedsnr" v="141385" />
	</node>
	<node id="-793841" lat="70.7794111144" lon="24.2438998751">
		<tag k="name" v="Bekkevika" />
		<tag k="natural" v="bay" />
		<tag k="ssr:stedsnr" v="141375" />
	</node>
	<node id="-793839" lat="70.8303916721" lon="24.5895331991">
		<tag k="alt_name" v="Kobbevika, in;Indre Kobbevik" />
		<tag k="fixme" v="multiple name tags, choose one and add the other to alt_name" />
		<tag k="name" v="Store Kobbevika;Indre Kobbevika" />
		<tag k="natural" v="bay" />
		<tag k="ssr:stedsnr" v="141366" />
	</node>
	<node id="-793835" lat="70.9073444456" lon="25.0518498355">
		<tag k="name" v="Måsneset" />
		<tag k="natural" v="cape" />
		<tag k="ssr:stedsnr" v="141448" />
	</node>
	<node id="-793834" lat="70.9417138916" lon="25.040380406">
		<tag k="name" v="Hornvika" />
		<tag k="natural" v="bay" />
		<tag k="ssr:stedsnr" v="141436" />
	</node>
	<node id="-793833" lat="70.929144448" lon="24.836980395">
		<tag k="name" v="Sandvikneset" />
		<tag k="natural" v="cape" />
		<tag k="ssr:stedsnr" v="141435" />
	</node>
	<node id="-793832" lat="71.0934277846" lon="24.7004609905">
		<tag k="bay" v="fjord" />
		<tag k="name" v="Akkarfjorden" />
		<tag k="natural" v="bay" />
		<tag k="ssr:stedsnr" v="141425" />
	</node>
	<node id="-793829" lat="70.8667250088" lon="25.0228414987">
		<tag k="name" v="Álka" />
		<tag k="name:se" v="Álka" />
		<tag k="natural" v="bay" />
		<tag k="old_name:se" v="Alka" />
		<tag k="ssr:stedsnr" v="141414" />
	</node>
	<node id="-793827" lat="70.8757361173" lon="25.002274847">
		<tag k="alt_name" v="Alkanes" />
		<tag k="name" v="Alkeneset" />
		<tag k="natural" v="cape" />
		<tag k="ssr:stedsnr" v="141404" />
	</node>
	<node id="-793824" lat="70.8809111109" lon="24.1872082241">
		<tag k="name" v="Rypøygrunnen" />
		<tag k="natural" v="shoal" />
		<tag k="place" v="locality" />
		<tag k="ssr:stedsnr" v="141325" />
	</node>
	<node id="-793823" lat="70.8763750027" lon="24.3583998872">
		<tag k="name" v="Auskarkeila" />
		<tag k="natural" v="bay" />
		<tag k="ssr:stedsnr" v="141320" />
	</node>
	<node id="-793822" lat="70.9257500029" lon="24.3857970956">
		<tag k="name" v="Nebbegrunnen" />
		<tag k="natural" v="shoal" />
		<tag k="place" v="locality" />
		<tag k="ssr:stedsnr" v="141316" />
	</node>
	<node id="-793821" lat="70.9212500018" lon="24.0779221288">
		<tag k="name" v="Buldervika" />
		<tag k="natural" v="bay" />
		<tag k="ssr:stedsnr" v="141315" />
	</node>
	<node id="-793820" lat="70.9328916704" lon="24.5481109915">
		<tag k="alt_name" v="Båtkeila" />
		<tag k="name" v="Båtvika" />
		<tag k="natural" v="bay" />
		<tag k="ssr:stedsnr" v="141310" />
	</node>
	<node id="-793819" lat="70.9258138956" lon="24.4186471123">
		<tag k="name" v="Straumneset" />
		<tag k="natural" v="cape" />
		<tag k="ssr:stedsnr" v="141307" />
	</node>
	<node id="-793818" lat="70.973113888" lon="24.1428249025">
		<tag k="name" v="Kvalvikneset" />
		<tag k="natural" v="cape" />
		<tag k="ssr:stedsnr" v="141251" />
	</node>
	<node id="-793817" lat="71.0074861101" lon="24.607402657">
		<tag k="name" v="Havøya - Ávvá" />
		<tag k="name:no" v="Havøya" />
		<tag k="name:se" v="Ávvá" />
		<tag k="old_name:se" v="Avva" />
		<tag k="place" v="island" />
		<tag k="ssr:stedsnr" v="141239" />
	</node>
	<node id="-793815" lat="70.9581083384" lon="24.6058248647">
		<tag k="name" v="Høyholmen" />
		<tag k="place" v="islet" />
		<tag k="ssr:stedsnr" v="141209" />
	</node>
	<node id="-793814" lat="70.9625250019" lon="24.60073597">
		<tag k="alt_name" v="Hamna, in" />
		<tag k="name" v="Indre Hamna" />
		<tag k="natural" v="bay" />
		<tag k="ssr:stedsnr" v="141201" />
	</node>
	<node id="-793813" lat="70.9494416679" lon="24.2155998975">
		<tag k="name" v="Dyfjordneset" />
		<tag k="natural" v="cape" />
		<tag k="ssr:stedsnr" v="141196" />
	</node>
	<node id="-793812" lat="70.9519027815" lon="24.1817498889">
		<tag k="alt_name" v="Dyfjorden, in" />
		<tag k="name" v="Indre Dyfjorden" />
		<tag k="natural" v="bay" />
		<tag k="ssr:stedsnr" v="141193" />
	</node>
	<node id="-793810" lat="70.9630861128" lon="24.2182609981">
		<tag k="fixme" v="multiple name tags, choose one and add the other to alt_name; consider seamark:type=rock or natural=shoal" />
		<tag k="name" v="Krykkjenesskjæret;Krykkjeskjæret" />
		<tag k="place" v="islet" />
		<tag k="ssr:stedsnr" v="141184" />
	</node>
	<node id="-793809" lat="70.6933166706" lon="24.5960581844">
		<tag k="alt_name:no" v="Brattnesset" />
		<tag k="name" v="Brottneset - Doaddjinnjárga" />
		<tag k="name:no" v="Brottneset" />
		<tag k="name:se" v="Doaddjinnjárga" />
		<tag k="natural" v="cape" />
		<tag k="old_name:se" v="Doaddjinnjarga" />
		<tag k="ssr:stedsnr" v="141180" />
	</node>
	<node id="-793808" lat="70.9727388918" lon="23.9206360135">
		<tag k="name" v="Rossvikodden" />
		<tag k="natural" v="cape" />
		<tag k="ssr:stedsnr" v="141133" />
	</node>
	<node id="-793807" lat="70.8302055576" lon="25.3316247976">
		<tag k="name" v="Skjærneset - Seakkesnjárga" />
		<tag k="name:no" v="Skjærneset" />
		<tag k="name:se" v="Seakkesnjárga" />
		<tag k="natural" v="cape" />
		<tag k="old_name:se" v="Sæggesnjarga" />
		<tag k="ssr:stedsnr" v="141125" />
	</node>
	<node id="-793804" lat="70.8667111179" lon="24.5823498834">
		<tag k="name" v="Breivika - Govdaluokta" />
		<tag k="name:no" v="Breivika" />
		<tag k="name:se" v="Govdaluokta" />
		<tag k="natural" v="bay" />
		<tag k="old_name:se" v="Gåvdaluokta" />
		<tag k="ssr:stedsnr" v="141279" />
	</node>
	<node id="-793803" lat="70.8641249995" lon="24.3981415407">
		<tag k="alt_name" v="Rottvikneset" />
		<tag k="name" v="Rotvikneset" />
		<tag k="natural" v="cape" />
		<tag k="ssr:stedsnr" v="141274" />
	</node>
	<node id="-793801" lat="71.0628000057" lon="24.8346720806">
		<tag k="name" v="Lysgrunnan" />
		<tag k="natural" v="shoal" />
		<tag k="place" v="locality" />
		<tag k="ssr:stedsnr" v="140659" />
	</node>
	<node id="-793800" lat="71.0939527812" lon="24.060574913">
		<tag k="fixme" v="consider seamark:type=rock or natural=shoal" />
		<tag k="name" v="Storskarvbaren" />
		<tag k="place" v="islet" />
		<tag k="ssr:stedsnr" v="140576" />
	</node>
	<node id="-793798" lat="71.0999638889" lon="24.9582331841">
		<tag k="name" v="Kjerkegrunnen" />
		<tag k="natural" v="shoal" />
		<tag k="place" v="locality" />
		<tag k="ssr:stedsnr" v="140613" />
	</node>
	<node id="-793796" lat="71.0706555617" lon="23.9341110274">
		<tag k="alt_name" v="Storskjer, vestre" />
		<tag k="fixme" v="multiple name tags, choose one and add the other to alt_name" />
		<tag k="name" v="Vesterskjæran;Vestre Storskjer" />
		<tag k="place" v="islet" />
		<tag k="ssr:stedsnr" v="140544" />
	</node>
	<node id="-793795" lat="71.06082778" lon="23.9476721354">
		<tag k="name" v="Skablineset" />
		<tag k="natural" v="cape" />
		<tag k="ssr:stedsnr" v="140534" />
	</node>
	<node id="-793793" lat="71.0008638935" lon="23.8631471302">
		<tag k="fixme" v="consider seamark:type=rock or natural=shoal" />
		<tag k="name" v="Leikua" />
		<tag k="place" v="islet" />
		<tag k="ssr:stedsnr" v="140515" />
	</node>
	<node id="-793792" lat="71.1087111151" lon="24.0235498953">
		<tag k="name" v="Grasholmskallen" />
		<tag k="natural" v="shoal" />
		<tag k="place" v="locality" />
		<tag k="ssr:stedsnr" v="140507" />
	</node>
	<node id="-793790" lat="70.8446888916" lon="24.4359998688">
		<tag k="alt_name" v="Sommerbukta;Sommarvika" />
		<tag k="name" v="Sommarbukta" />
		<tag k="natural" v="bay" />
		<tag k="ssr:stedsnr" v="140282" />
	</node>
	<node id="-793789" lat="70.9494611133" lon="23.9457860042">
		<tag k="name" v="Stoppelfjordmolvika" />
		<tag k="natural" v="bay" />
		<tag k="ssr:stedsnr" v="140117" />
	</node>
	<node id="-793788" lat="70.9549777759" lon="23.8898082492">
		<tag k="name" v="Stoppelfjordnæringen" />
		<tag k="natural" v="cape" />
		<tag k="ssr:stedsnr" v="140115" />
	</node>
	<node id="-793787" lat="70.9629138904" lon="24.5980832108">
		<tag k="name" v="Klubben" />
		<tag k="natural" v="cape" />
		<tag k="ssr:stedsnr" v="109767" />
	</node>
	<node id="-793786" lat="70.9440638944" lon="24.5503054296">
		<tag k="name" v="Elvevika" />
		<tag k="natural" v="bay" />
		<tag k="ssr:stedsnr" v="109766" />
	</node>
	<node id="-793785" lat="70.9184305602" lon="24.5558609835">
		<tag k="fixme" v="consider seamark:type=rock or natural=shoal" />
		<tag k="name" v="Hatteskjæran" />
		<tag k="place" v="islet" />
		<tag k="ssr:stedsnr" v="109762" />
	</node>
	<node id="-793784" lat="70.8768083333" lon="24.6920220823">
		<tag k="name" v="Vassberget" />
		<tag k="natural" v="cape" />
		<tag k="ssr:stedsnr" v="109365" />
	</node>
	<node id="-793783" lat="70.8694277827" lon="24.6958609607">
		<tag k="name" v="Lillebukta" />
		<tag k="natural" v="bay" />
		<tag k="ssr:stedsnr" v="109357" />
	</node>
	<node id="-793782" lat="70.8562722254" lon="24.3914054231">
		<tag k="name" v="Rottvika" />
		<tag k="natural" v="bay" />
		<tag k="ssr:stedsnr" v="109293" />
	</node>
	<node id="-793781" lat="70.9225305611" lon="24.8126832">
		<tag k="name" v="Nordstrand" />
		<tag k="natural" v="beach" />
		<tag k="place" v="locality" />
		<tag k="ssr:stedsnr" v="109222" />
	</node>
	<node id="-793780" lat="70.6893222274" lon="24.596158195">
		<tag k="name" v="Mastervika" />
		<tag k="natural" v="bay" />
		<tag k="ssr:stedsnr" v="109452" />
	</node>
	<node id="-793779" lat="70.996847226" lon="24.9705415245">
		<tag k="name" v="Klubben" />
		<tag k="natural" v="cape" />
		<tag k="ssr:stedsnr" v="108051" />
	</node>
	<node id="-793778" lat="71.089100008" lon="24.6924748633">
		<tag k="name" v="Holmen" />
		<tag k="natural" v="cape" />
		<tag k="ssr:stedsnr" v="108025" />
	</node>
	<node id="-793776" lat="71.0458638865" lon="23.9514276902">
		<tag k="name" v="Fallet" />
		<tag k="natural" v="shoal" />
		<tag k="place" v="locality" />
		<tag k="ssr:stedsnr" v="93255" />
	</node>
	<node id="-793771" lat="71.0669166725" lon="24.7657498698">
		<tag k="name" v="Lillesanden" />
		<tag k="natural" v="bay" />
		<tag k="ssr:stedsnr" v="89028" />
	</node>
	<node id="-793762" lat="70.9994666656" lon="23.8537832362">
		<tag k="fixme" v="consider seamark:type=rock or natural=shoal" />
		<tag k="name" v="Gekkoskjæret" />
		<tag k="place" v="islet" />
		<tag k="ssr:stedsnr" v="85478" />
	</node>
	<node id="-793761" lat="71.003947224" lon="23.9131276789">
		<tag k="name" v="Lamnes" />
		<tag k="natural" v="cape" />
		<tag k="ssr:stedsnr" v="85458" />
	</node>
	<node id="-793760" lat="70.9887833322" lon="24.0090693492">
		<tag k="name" v="Sandbukta" />
		<tag k="natural" v="bay" />
		<tag k="ssr:stedsnr" v="85449" />
	</node>
	<node id="-793759" lat="70.9936583367" lon="24.6555693223">
		<tag k="name" v="Trangsundet" />
		<tag k="natural" v="strait" />
		<tag k="ssr:stedsnr" v="85288" />
	</node>
	<node id="-793756" lat="71.0566277799" lon="24.0928693465">
		<tag k="name" v="Eidnesbukta" />
		<tag k="natural" v="bay" />
		<tag k="ssr:stedsnr" v="85030" />
	</node>
	<node id="-793754" lat="71.0884805565" lon="24.1155110202">
		<tag k="name" v="Kartøysundet" />
		<tag k="natural" v="strait" />
		<tag k="ssr:stedsnr" v="85004" />
	</node>
	<node id="-793749" lat="71.051625003" lon="24.1075804578">
		<tag k="name" v="Eidnesklubben" />
		<tag k="natural" v="cape" />
		<tag k="ssr:stedsnr" v="81648" />
	</node>
	<node id="-793748" lat="71.059322224" lon="24.0223721275">
		<tag k="name" v="Langneset" />
		<tag k="natural" v="cape" />
		<tag k="ssr:stedsnr" v="81645" />
	</node>
	<node id="-793747" lat="71.0421194467" lon="24.0523471316">
		<tag k="alt_name" v="Kuhellarn;Kuhellaren" />
		<tag k="name" v="Kuhelleran" />
		<tag k="natural" v="cape" />
		<tag k="ssr:stedsnr" v="81641" />
	</node>
	<node id="-793746" lat="71.0037277839" lon="24.12687211">
		<tag k="name" v="Myrvika" />
		<tag k="natural" v="bay" />
		<tag k="ssr:stedsnr" v="81627" />
	</node>
	<node id="-793745" lat="71.0060027787" lon="24.1448054519">
		<tag k="fixme" v="multiple name tags, choose one and add the other to alt_name; consider seamark:type=rock or natural=shoal" />
		<tag k="name" v="Kvalskjera;Valskjæran" />
		<tag k="place" v="islet" />
		<tag k="ssr:stedsnr" v="81625" />
	</node>
	<node id="-793744" lat="71.0149583399" lon="24.6962831887">
		<tag k="name" v="Kalveryggen" />
		<tag k="natural" v="shoal" />
		<tag k="place" v="locality" />
		<tag k="ssr:stedsnr" v="81726" />
	</node>
	<node id="-793743" lat="71.1148083367" lon="25.0559998575">
		<tag k="alt_name" v="Stabbegrunnen, øvre" />
		<tag k="name" v="Øvre Stabbegrunnen" />
		<tag k="natural" v="shoal" />
		<tag k="place" v="locality" />
		<tag k="ssr:stedsnr" v="81680" />
	</node>
	<node id="-793742" lat="71.0641638961" lon="24.110533232">
		<tag k="alt_name" v="Maritholmen" />
		<tag k="name" v="Grasholmen" />
		<tag k="place" v="islet" />
		<tag k="ssr:stedsnr" v="81592" />
	</node>
	<node id="-793740" lat="71.081058334" lon="24.3485915584">
		<tag k="name" v="Trondgrunnen" />
		<tag k="natural" v="shoal" />
		<tag k="place" v="locality" />
		<tag k="ssr:stedsnr" v="81585" />
	</node>
	<node id="-793739" lat="70.7971888945" lon="24.5549582052">
		<tag k="alt_name" v="Gytevik;Gytvika" />
		<tag k="name" v="Djupvika" />
		<tag k="natural" v="bay" />
		<tag k="ssr:stedsnr" v="81546" />
	</node>
	<node id="-793738" lat="70.914733339" lon="24.6050248807">
		<tag k="name" v="Skjåneset" />
		<tag k="natural" v="cape" />
		<tag k="ssr:stedsnr" v="81543" />
	</node>
	<node id="-793731" lat="70.9488527792" lon="24.7925581956">
		<tag k="alt_name" v="Storvika, in" />
		<tag k="name" v="Indre Storvika" />
		<tag k="natural" v="bay" />
		<tag k="ssr:stedsnr" v="81441" />
	</node>
	<node id="-793729" lat="71.00068334" lon="25.0095081857">
		<tag k="alt_name" v="Mollvika;Mollvikbukta" />
		<tag k="name" v="Molvika" />
		<tag k="natural" v="bay" />
		<tag k="ssr:stedsnr" v="81428" />
	</node>
	<node id="-793728" lat="70.7858833361" lon="24.2485332049">
		<tag k="alt_name" v="Hattvika" />
		<tag k="name" v="Hattevika" />
		<tag k="natural" v="bay" />
		<tag k="ssr:stedsnr" v="81397" />
	</node>
	<node id="-793722" lat="70.762347221" lon="24.3116859994">
		<tag k="fixme" v="multiple name tags, choose one and add the other to alt_name" />
		<tag k="name" v="Sauhamnneset;Ytre Sauhamnneset - Njunnošnjárga" />
		<tag k="name:no" v="Sauhamnneset;Ytre Sauhamnneset" />
		<tag k="name:se" v="Njunnošnjárga" />
		<tag k="natural" v="cape" />
		<tag k="old_name:se" v="Njunnušnjarga" />
		<tag k="ssr:stedsnr" v="81343" />
	</node>
	<node id="-793720" lat="70.9243861189" lon="24.3917387614">
		<tag k="name" v="Nipgrunnen" />
		<tag k="natural" v="shoal" />
		<tag k="place" v="locality" />
		<tag k="ssr:stedsnr" v="81313" />
	</node>
	<node id="-793719" lat="70.9223333351" lon="24.555858212">
		<tag k="alt_name" v="Hattebukta" />
		<tag k="name" v="Hattevika" />
		<tag k="natural" v="bay" />
		<tag k="ssr:stedsnr" v="81304" />
	</node>
	<node id="-793714" lat="70.9331749986" lon="24.0957804612">
		<tag k="name" v="Sørhamn" />
		<tag k="natural" v="bay" />
		<tag k="ssr:stedsnr" v="81241" />
	</node>
	<node id="-793712" lat="70.9465722242" lon="24.5465637666">
		<tag k="name" v="Sommarbukta" />
		<tag k="natural" v="bay" />
		<tag k="ssr:stedsnr" v="81229" />
	</node>
	<node id="-793711" lat="70.7322277793" lon="24.528949872">
		<tag k="name" v="Gorbus - Gurbbošgohppi" />
		<tag k="name:no" v="Gorbus" />
		<tag k="name:se" v="Gurbbošgohppi" />
		<tag k="natural" v="bay" />
		<tag k="old_name:se" v="Gurbušgåppi" />
		<tag k="ssr:stedsnr" v="81199" />
	</node>
	<node id="-793710" lat="70.7207500023" lon="24.5276554102">
		<tag k="name" v="Akneset - Áhkonjárga" />
		<tag k="name:no" v="Akneset" />
		<tag k="name:se" v="Áhkonjárga" />
		<tag k="natural" v="cape" />
		<tag k="old_name:se" v="Akkunjarga" />
		<tag k="ssr:stedsnr" v="81197" />
	</node>
	<node id="-793708" lat="70.8814055555" lon="25.3835220373">
		<tag k="name" v="Oterneset" />
		<tag k="natural" v="cape" />
		<tag k="ssr:stedsnr" v="81027" />
	</node>
	<node id="-793706" lat="70.9835777768" lon="23.9156138066">
		<tag k="name" v="Båtholmen" />
		<tag k="place" v="islet" />
		<tag k="ssr:stedsnr" v="81129" />
	</node>
	<node id="-793701" lat="70.7026416666" lon="24.6304637443">
		<tag k="alt_name" v="Djupbukta" />
		<tag k="name" v="Djupvika" />
		<tag k="natural" v="bay" />
		<tag k="ssr:stedsnr" v="80836" />
	</node>
	<node id="-793700" lat="71.0736888934" lon="24.7904748649">
		<tag k="alt_name" v="Hardevika" />
		<tag k="name" v="Hardervika" />
		<tag k="natural" v="bay" />
		<tag k="ssr:stedsnr" v="80680" />
	</node>
	<node id="-793699" lat="71.115277777" lon="24.5972220971">
		<tag k="name" v="Akkarfjordskallen" />
		<tag k="natural" v="shoal" />
		<tag k="place" v="locality" />
		<tag k="ssr:stedsnr" v="80597" />
	</node>
	<node id="-793698" lat="71.0805583392" lon="24.0010915661">
		<tag k="name" v="Prestholmen" />
		<tag k="place" v="islet" />
		<tag k="ssr:stedsnr" v="80588" />
	</node>
	<node id="-793697" lat="71.0851138918" lon="24.0359554564">
		<tag k="name" v="Rekvika" />
		<tag k="natural" v="bay" />
		<tag k="ssr:stedsnr" v="80589" />
	</node>
	<node id="-793696" lat="71.082852781" lon="24.1309554439">
		<tag k="alt_name" v="Rørnes;Rønes" />
		<tag k="name" v="Røyrnes" />
		<tag k="natural" v="cape" />
		<tag k="ssr:stedsnr" v="80580" />
	</node>
	<node id="-793695" lat="71.0832277838" lon="24.1135915728">
		<tag k="name" v="Lyngholmen" />
		<tag k="place" v="islet" />
		<tag k="ssr:stedsnr" v="80579" />
	</node>
	<node id="-793694" lat="71.0750694477" lon="23.9416638107">
		<tag k="alt_name" v="Storskjer, austre" />
		<tag k="fixme" v="multiple name tags, choose one and add the other to alt_name" />
		<tag k="name" v="Storskjær;Austre Storskjer" />
		<tag k="place" v="islet" />
		<tag k="ssr:stedsnr" v="80564" />
	</node>
	<node id="-793693" lat="71.0536194456" lon="23.9454721387">
		<tag k="name" v="Smøromnneset" />
		<tag k="natural" v="cape" />
		<tag k="ssr:stedsnr" v="80560" />
	</node>
	<node id="-793692" lat="71.021088888" lon="23.8952860105">
		<tag k="alt_name" v="Skjerkvalen" />
		<tag k="name" v="Skjærvalen" />
		<tag k="natural" v="bay" />
		<tag k="ssr:stedsnr" v="80552" />
	</node>
	<node id="-793691" lat="71.005283339" lon="23.8916221343">
		<tag k="name" v="Tapperkeila" />
		<tag k="natural" v="bay" />
		<tag k="ssr:stedsnr" v="80549" />
	</node>
	<node id="-793689" lat="71.0914916695" lon="23.9837165644">
		<tag k="alt_name" v="Kvannholmen, vestre" />
		<tag k="fixme" v="multiple name tags, choose one and add the other to alt_name" />
		<tag k="name" v="Kvannholman;Vestre Kvannholmen" />
		<tag k="place" v="islet" />
		<tag k="ssr:stedsnr" v="80504" />
	</node>
	<node id="-793687" lat="70.8011638869" lon="24.2569026692">
		<tag k="name" v="Roamšenjárga" />
		<tag k="name:se" v="Roamšenjárga" />
		<tag k="natural" v="cape" />
		<tag k="old_name:se" v="Roamšenjarga" />
		<tag k="ssr:stedsnr" v="80380" />
	</node>
	<node id="-793686" lat="70.8310277788" lon="24.4317720849">
		<tag k="alt_name" v="Fartøyvika, yt" />
		<tag k="fixme" v="multiple name tags, choose one and add the other to alt_name" />
		<tag k="name" v="Fartøyvika;Ytre Fartøyvika" />
		<tag k="natural" v="bay" />
		<tag k="ssr:stedsnr" v="80365" />
	</node>
	<node id="-793684" lat="70.8360194511" lon="24.4309026629">
		<tag k="name" v="Kvitnesvågen" />
		<tag k="natural" v="bay" />
		<tag k="ssr:stedsnr" v="80276" />
	</node>
	<node id="-793683" lat="70.8318444482" lon="23.9376332451">
		<tag k="alt_name" v="Håøyagrunnen" />
		<tag k="name" v="Håjagrunnen" />
		<tag k="natural" v="shoal" />
		<tag k="place" v="locality" />
		<tag k="ssr:stedsnr" v="80166" />
	</node>
	<node id="-793681" lat="70.8392972253" lon="25.3401331546">
		<tag k="name" v="Øyregrunnen" />
		<tag k="natural" v="shoal" />
		<tag k="place" v="locality" />
		<tag k="ssr:stedsnr" v="80008" />
	</node>
	<node id="-793679" lat="70.6763083386" lon="24.6158859774">
		<tag k="fixme" v="consider seamark:type=rock or natural=shoal" />
		<tag k="name" v="Vekselvikskjæret - Vieksaluohlássá" />
		<tag k="name:no" v="Vekselvikskjæret" />
		<tag k="name:se" v="Vieksaluohlássá" />
		<tag k="old_name:se" v="Vieksaluoklassa" />
		<tag k="place" v="islet" />
		<tag k="ssr:stedsnr" v="80125" />
	</node>
	<node id="-793677" lat="70.7950916695" lon="24.1631137804">
		<tag k="name" v="Rypøyan" />
		<tag k="place" v="island" />
		<tag k="ssr:stedsnr" v="48999" />
	</node>
	<node id="-793676" lat="71.0353111162" lon="24.0216998941">
		<tag k="name" v="Floneset" />
		<tag k="natural" v="cape" />
		<tag k="ssr:stedsnr" v="48925" />
	</node>
	<node id="-793675" lat="71.0266166698" lon="23.9939637977">
		<tag k="name" v="Kalveneset" />
		<tag k="natural" v="cape" />
		<tag k="ssr:stedsnr" v="48923" />
	</node>
	<node id="-793674" lat="70.9890916661" lon="24.0723998875">
		<tag k="name" v="Ørnberget" />
		<tag k="natural" v="cape" />
		<tag k="ssr:stedsnr" v="48820" />
	</node>
	<node id="-793673" lat="70.9204472286" lon="24.5603582113">
		<tag k="name" v="Hatteneset" />
		<tag k="natural" v="cape" />
		<tag k="ssr:stedsnr" v="48783" />
	</node>
	<node id="-793670" lat="70.889469444" lon="24.6298359703">
		<tag k="name" v="Saulineset" />
		<tag k="natural" v="cape" />
		<tag k="ssr:stedsnr" v="48350" />
	</node>
	<node id="-793669" lat="70.7899222266" lon="24.223986003">
		<tag k="name" v="Lysgrunnen" />
		<tag k="natural" v="shoal" />
		<tag k="place" v="locality" />
		<tag k="ssr:stedsnr" v="48255" />
	</node>
	<node id="-793668" lat="71.0856972234" lon="23.986830455">
		<tag k="name" v="Sandholmen" />
		<tag k="place" v="islet" />
		<tag k="ssr:stedsnr" v="32258" />
	</node>
	<node id="-793667" lat="70.8596250073" lon="24.305577665">
		<tag k="name" v="Lyktneset" />
		<tag k="natural" v="cape" />
		<tag k="ssr:stedsnr" v="29791" />
	</node>
	<node id="-793664" lat="71.0153416687" lon="24.6004693028">
		<tag k="name" v="Gavlbukta" />
		<tag k="natural" v="bay" />
		<tag k="ssr:stedsnr" v="29145" />
	</node>
	<node id="-793658" lat="71.0878444485" lon="24.8219054124">
		<tag k="fixme" v="consider seamark:type=rock or natural=shoal" />
		<tag k="name" v="Magnusskjæret" />
		<tag k="place" v="islet" />
		<tag k="ssr:stedsnr" v="29047" />
	</node>
	<node id="-793657" lat="71.0835444486" lon="24.8023887587">
		<tag k="name" v="Elvevika" />
		<tag k="natural" v="bay" />
		<tag k="ssr:stedsnr" v="29044" />
	</node>
	<node id="-793655" lat="71.0902750013" lon="24.8221748523">
		<tag k="name" v="Langkjeila" />
		<tag k="natural" v="bay" />
		<tag k="ssr:stedsnr" v="29016" />
	</node>
	<node id="-793653" lat="70.7856083377" lon="24.5910748737">
		<tag k="name" v="Seibergneset" />
		<tag k="natural" v="cape" />
		<tag k="ssr:stedsnr" v="26505" />
	</node>
	<node id="-793652" lat="71.0852805577" lon="24.7190248523">
		<tag k="fixme" v="consider seamark:type=rock or natural=shoal" />
		<tag k="name" v="Mefjordskjæret" />
		<tag k="place" v="islet" />
		<tag k="ssr:stedsnr" v="26460" />
	</node>
	<node id="-793649" lat="70.8122500045" lon="24.6230776432">
		<tag k="name" v="Indrevika" />
		<tag k="natural" v="bay" />
		<tag k="ssr:stedsnr" v="26452" />
	</node>
	<node id="-793647" lat="71.0140583318" lon="23.9340193551">
		<tag k="name" v="Langkjeila" />
		<tag k="natural" v="bay" />
		<tag k="ssr:stedsnr" v="24534" />
	</node>
	<node id="-793646" lat="70.9980916693" lon="23.900952673">
		<tag k="name" v="Vassvika" />
		<tag k="natural" v="bay" />
		<tag k="ssr:stedsnr" v="24519" />
	</node>
	<node id="-793645" lat="70.7893694441" lon="24.608122079">
		<tag k="name" v="Elvenes" />
		<tag k="natural" v="cape" />
		<tag k="ssr:stedsnr" v="24387" />
	</node>
	<node id="-793642" lat="70.9997138877" lon="24.1390999016">
		<tag k="name" v="Lillekroknes" />
		<tag k="natural" v="cape" />
		<tag k="ssr:stedsnr" v="24250" />
	</node>
	<node id="-793639" lat="71.0815666687" lon="24.064288797">
		<tag k="fixme" v="consider seamark:type=rock or natural=shoal" />
		<tag k="name" v="Petterspira" />
		<tag k="place" v="islet" />
		<tag k="ssr:stedsnr" v="24096" />
	</node>
	<node id="-793637" lat="71.0826527796" lon="24.0020249135">
		<tag k="name" v="Jonsundet" />
		<tag k="natural" v="strait" />
		<tag k="ssr:stedsnr" v="24092" />
	</node>
	<node id="-793633" lat="70.6595861189" lon="24.6577887515">
		<tag k="name" v="Kysservika - Čussaluokta" />
		<tag k="name:no" v="Kysservika" />
		<tag k="name:se" v="Čussaluokta" />
		<tag k="natural" v="bay" />
		<tag k="ssr:stedsnr" v="20869" />
	</node>
	<node id="-793628" lat="71.0084611167" lon="24.9124442872">
		<tag k="name" v="Vestervåggrunnen" />
		<tag k="natural" v="shoal" />
		<tag k="place" v="locality" />
		<tag k="ssr:stedsnr" v="20740" />
	</node>
	<node id="-793627" lat="71.0216138918" lon="25.0550804062">
		<tag k="name" v="Skjåvikbåen" />
		<tag k="natural" v="shoal" />
		<tag k="place" v="locality" />
		<tag k="ssr:stedsnr" v="20729" />
	</node>
	<node id="-793624" lat="71.0497805619" lon="24.9234137325">
		<tag k="fixme" v="consider seamark:type=rock or natural=shoal" />
		<tag k="name" v="Kalveskjæret" />
		<tag k="place" v="islet" />
		<tag k="ssr:stedsnr" v="20705" />
	</node>
	<node id="-793622" lat="71.0407777789" lon="25.0438248343">
		<tag k="name" v="Ålmannvikneset" />
		<tag k="natural" v="cape" />
		<tag k="ssr:stedsnr" v="20694" />
	</node>
	<node id="-793620" lat="71.0655527827" lon="24.6048831955">
		<tag k="name" v="Stor-Geitingsodden" />
		<tag k="natural" v="cape" />
		<tag k="ssr:stedsnr" v="20662" />
	</node>
	<node id="-793619" lat="71.0504722266" lon="24.0917137794">
		<tag k="name" v="Eidneset" />
		<tag k="natural" v="cape" />
		<tag k="ssr:stedsnr" v="20657" />
	</node>
	<node id="-793618" lat="71.0321333367" lon="24.0093749077">
		<tag k="name" v="Buvikneset" />
		<tag k="natural" v="cape" />
		<tag k="ssr:stedsnr" v="20655" />
	</node>
	<node id="-793614" lat="71.0081499992" lon="24.2750693306">
		<tag k="name" v="Saramanngrunnen" />
		<tag k="natural" v="shoal" />
		<tag k="place" v="locality" />
		<tag k="ssr:stedsnr" v="20633" />
	</node>
	<node id="-793613" lat="71.089711113" lon="24.0785943373">
		<tag k="alt_name" v="Svennholmen" />
		<tag k="name" v="Henrikholmen" />
		<tag k="place" v="islet" />
		<tag k="ssr:stedsnr" v="20627" />
	</node>
	<node id="-793612" lat="71.1153777778" lon="24.1889415543">
		<tag k="alt_name" v="Rossmåland" />
		<tag k="name" v="Rossmålland" />
		<tag k="natural" v="shoal" />
		<tag k="place" v="locality" />
		<tag k="ssr:stedsnr" v="20621" />
	</node>
	<node id="-793611" lat="71.0839166689" lon="24.0196776882">
		<tag k="name" v="Vika" />
		<tag k="natural" v="bay" />
		<tag k="ssr:stedsnr" v="20620" />
	</node>
	<node id="-793610" lat="71.0929222207" lon="24.279005458">
		<tag k="name" v="Reinøyskallen" />
		<tag k="natural" v="shoal" />
		<tag k="place" v="locality" />
		<tag k="ssr:stedsnr" v="20617" />
	</node>
	<node id="-793609" lat="71.0938111187" lon="24.2275582213">
		<tag k="alt_name" v="Gåsøynaget, yt" />
		<tag k="name" v="Ytre Gåsøysnaget" />
		<tag k="natural" v="shoal" />
		<tag k="place" v="locality" />
		<tag k="ssr:stedsnr" v="20614" />
	</node>
	<node id="-793608" lat="71.0770638942" lon="24.0783221208">
		<tag k="name" v="Knutholmen" />
		<tag k="place" v="islet" />
		<tag k="ssr:stedsnr" v="20607" />
	</node>
	<node id="-793606" lat="71.0800555625" lon="23.9853276838">
		<tag k="name" v="Terningen" />
		<tag k="place" v="islet" />
		<tag k="ssr:stedsnr" v="20583" />
	</node>
	<node id="-793605" lat="71.0817500008" lon="23.9772499106">
		<tag k="alt_name" v="Terningsteinan" />
		<tag k="name" v="Steinan" />
		<tag k="place" v="islet" />
		<tag k="ssr:stedsnr" v="20580" />
	</node>
	<node id="-793593" lat="70.9163750057" lon="24.8037693088">
		<tag k="name" v="Sekken" />
		<tag k="natural" v="bay" />
		<tag k="ssr:stedsnr" v="20429" />
	</node>
	<node id="-793592" lat="70.916330562" lon="24.8439693001">
		<tag k="alt_name" v="Nordmannsvik, in" />
		<tag k="fixme" v="multiple name tags, choose one and add the other to alt_name" />
		<tag k="name" v="Store Nordmannsvik;Indre Nordmannsvik" />
		<tag k="natural" v="bay" />
		<tag k="ssr:stedsnr" v="20427" />
	</node>
	<node id="-793591" lat="70.9581916711" lon="24.7799887387">
		<tag k="name" v="Kabelneset" />
		<tag k="natural" v="cape" />
		<tag k="ssr:stedsnr" v="20415" />
	</node>
	<node id="-793590" lat="70.9521583342" lon="25.1804387061">
		<tag k="name" v="Abagrunnen" />
		<tag k="natural" v="shoal" />
		<tag k="place" v="locality" />
		<tag k="ssr:stedsnr" v="20416" />
	</node>
	<node id="-793585" lat="70.8133305575" lon="24.2727137606">
		<tag k="name" v="Elvevika" />
		<tag k="natural" v="bay" />
		<tag k="ssr:stedsnr" v="20348" />
	</node>
	<node id="-793584" lat="70.83526945" lon="24.5900859853">
		<tag k="alt_name" v="Kobbevika, yt" />
		<tag k="fixme" v="multiple name tags, choose one and add the other to alt_name" />
		<tag k="name" v="Lille Kobbevika;Ytre Kobbevika" />
		<tag k="natural" v="bay" />
		<tag k="ssr:stedsnr" v="20345" />
	</node>
	<node id="-793578" lat="70.8568111111" lon="24.3171859797">
		<tag k="name" v="Ytre Pollen" />
		<tag k="natural" v="bay" />
		<tag k="old_name" v="Pollen, yt" />
		<tag k="ssr:stedsnr" v="20266" />
	</node>
	<node id="-793575" lat="70.8412194498" lon="24.2414165413">
		<tag k="name" v="Vesternesnæringen" />
		<tag k="natural" v="cape" />
		<tag k="ssr:stedsnr" v="20254" />
	</node>
	<node id="-793574" lat="70.8563527831" lon="24.5678720848">
		<tag k="name" v="Marilandet" />
		<tag k="natural" v="beach" />
		<tag k="place" v="locality" />
		<tag k="ssr:stedsnr" v="20253" />
	</node>
	<node id="-793573" lat="70.8491861137" lon="24.3992776689">
		<tag k="name" v="Nonstadvika - Siidagohppi" />
		<tag k="name:no" v="Nonstadvika" />
		<tag k="name:se" v="Siidagohppi" />
		<tag k="natural" v="bay" />
		<tag k="old_name:se" v="Siidagåppi" />
		<tag k="ssr:stedsnr" v="20251" />
	</node>
	<node id="-793572" lat="70.9706611155" lon="24.1213749042">
		<tag k="name" v="Elvevika" />
		<tag k="natural" v="bay" />
		<tag k="ssr:stedsnr" v="20246" />
	</node>
	<node id="-793567" lat="70.9515333334" lon="24.512677649">
		<tag k="alt_name" v="Nebbegrunnen, bortre" />
		<tag k="name" v="Bortre Nebbegrunnen" />
		<tag k="natural" v="shoal" />
		<tag k="place" v="locality" />
		<tag k="ssr:stedsnr" v="20201" />
	</node>
	<node id="-793565" lat="70.9743250036" lon="23.7832499154">
		<tag k="name" v="Votten" />
		<tag k="natural" v="shoal" />
		<tag k="place" v="locality" />
		<tag k="ssr:stedsnr" v="20130" />
	</node>
	<node id="-793564" lat="70.8041277856" lon="25.2346831442">
		<tag k="bay" v="fjord" />
		<tag k="name" v="Vesterbotnen - Oalangohppi" />
		<tag k="name:no" v="Vesterbotnen" />
		<tag k="name:se" v="Oalangohppi" />
		<tag k="natural" v="bay" />
		<tag k="old_name:se" v="Oalangåppi" />
		<tag k="ssr:stedsnr" v="20101" />
	</node>
	<node id="-793563" lat="70.8549222298" lon="25.3110053816">
		<tag k="name" v="Veidnesgrunnen" />
		<tag k="natural" v="shoal" />
		<tag k="place" v="locality" />
		<tag k="ssr:stedsnr" v="20008" />
	</node>
	<node id="-793562" lat="71.0948777826" lon="24.0135165825">
		<tag k="name" v="Kamsen" />
		<tag k="natural" v="shoal" />
		<tag k="place" v="locality" />
		<tag k="ssr:stedsnr" v="898985" />
	</node>
	<node id="-793561" lat="71.1153055554" lon="23.9839665799">
		<tag k="name" v="Revlet" />
		<tag k="natural" v="shoal" />
		<tag k="place" v="locality" />
		<tag k="ssr:stedsnr" v="898983" />
	</node>
	<node id="-793560" lat="70.9841722236" lon="23.8996999178">
		<tag k="name" v="Skarvnæringen" />
		<tag k="natural" v="cape" />
		<tag k="ssr:stedsnr" v="898928" />
	</node>
	<node id="-793558" lat="70.8087444537" lon="25.2388942591">
		<tag k="name" v="Kobbesteinen" />
		<tag k="place" v="locality" />
		<tag k="seamark:type" v="rock" />
		<tag k="ssr:stedsnr" v="898910" />
	</node>
	<node id="-793557" lat="70.9204472286" lon="24.5603582113">
		<tag k="name" v="Sæter" />
		<tag k="natural" v="cape" />
		<tag k="ssr:stedsnr" v="898787" />
	</node>
	<node id="-793555" lat="70.8699583399" lon="24.6560470913">
		<tag k="name" v="Varneset" />
		<tag k="natural" v="cape" />
		<tag k="ssr:stedsnr" v="898354" />
	</node>
	<node id="-793554" lat="70.8586083382" lon="24.3041054282">
		<tag k="name" v="Fyrneset" />
		<tag k="natural" v="cape" />
		<tag k="ssr:stedsnr" v="898294" />
	</node>
	<node id="-793553" lat="70.9586972234" lon="24.6301998615">
		<tag k="name" v="Kobbevikneset" />
		<tag k="natural" v="cape" />
		<tag k="ssr:stedsnr" v="898212" />
	</node>
	<node id="-793552" lat="70.9572972266" lon="25.2981442529">
		<tag k="fixme" v="consider seamark:type=rock or natural=shoal" />
		<tag k="name" v="Nebbeskjæret" />
		<tag k="place" v="islet" />
		<tag k="ssr:stedsnr" v="898176" />
	</node>
	<node id="-793551" lat="70.9024888949" lon="24.314424882">
		<tag k="name" v="Storskallen" />
		<tag k="natural" v="shoal" />
		<tag k="place" v="locality" />
		<tag k="ssr:stedsnr" v="898166" />
	</node>
	<node id="-793550" lat="71.0191250026" lon="25.049935951">
		<tag k="name" v="Knausen" />
		<tag k="natural" v="shoal" />
		<tag k="place" v="locality" />
		<tag k="ssr:stedsnr" v="897051" />
	</node>
	<node id="-793549" lat="71.0279527846" lon="25.0406526303">
		<tag k="name" v="Skjåvikneset" />
		<tag k="natural" v="cape" />
		<tag k="ssr:stedsnr" v="897007" />
	</node>
	<node id="-793548" lat="71.0205555552" lon="24.556802651">
		<tag k="fixme" v="multiple name tags, choose one and add the other to alt_name" />
		<tag k="name" v="Austre Gavlodden;Gavlodden;Yttergavlodden" />
		<tag k="natural" v="cape" />
		<tag k="ssr:stedsnr" v="884866" />
	</node>
	<node id="-793546" lat="70.7925694501" lon="24.1447526665">
		<tag k="name" v="Krykjegrunnen" />
		<tag k="natural" v="shoal" />
		<tag k="place" v="locality" />
		<tag k="ssr:stedsnr" v="473992" />
	</node>
	<node id="-793545" lat="71.0821722217" lon="24.117641565">
		<tag k="name" v="Valen" />
		<tag k="natural" v="cape" />
		<tag k="ssr:stedsnr" v="412976" />
	</node>
	<node id="-793544" lat="71.0915250017" lon="24.0397665677">
		<tag k="name" v="Gyltebåen" />
		<tag k="natural" v="shoal" />
		<tag k="place" v="locality" />
		<tag k="ssr:stedsnr" v="412972" />
	</node>
	<node id="-793542" lat="70.8212777838" lon="24.5663581956">
		<tag k="name" v="Hellnesgrunnen" />
		<tag k="natural" v="shoal" />
		<tag k="place" v="locality" />
		<tag k="ssr:stedsnr" v="412289" />
	</node>
	<node id="-793541" lat="70.8399388886" lon="24.4523137612">
		<tag k="name" v="Våggrunnen" />
		<tag k="natural" v="shoal" />
		<tag k="place" v="locality" />
		<tag k="ssr:stedsnr" v="412274" />
	</node>
	<node id="-793540" lat="70.8788972237" lon="24.3542970974">
		<tag k="name" v="Burstadnesflua" />
		<tag k="natural" v="shoal" />
		<tag k="place" v="locality" />
		<tag k="ssr:stedsnr" v="412269" />
	</node>
	<node id="-793539" lat="71.1007111152" lon="24.8536359739">
		<tag k="name" v="Lillegrunnen" />
		<tag k="natural" v="shoal" />
		<tag k="place" v="locality" />
		<tag k="ssr:stedsnr" v="412019" />
	</node>
	<node id="-793538" lat="70.9602777799" lon="24.2450526779">
		<tag k="name" v="Krykkjenesgrunnen" />
		<tag k="natural" v="shoal" />
		<tag k="place" v="locality" />
		<tag k="ssr:stedsnr" v="412724" />
	</node>
	<node id="-793536" lat="71.0071555602" lon="23.8767360279">
		<tag k="name" v="Seiskjæret" />
		<tag k="natural" v="shoal" />
		<tag k="place" v="locality" />
		<tag k="ssr:stedsnr" v="396245" />
	</node>
	<node id="-793535" lat="71.0052277849" lon="23.8527582366">
		<tag k="name" v="Svartoksgrunnen" />
		<tag k="natural" v="shoal" />
		<tag k="place" v="locality" />
		<tag k="ssr:stedsnr" v="396243" />
	</node>
	<node id="-793531" lat="71.0866694447" lon="24.8071304149">
		<tag k="name" v="Sandkroken" />
		<tag k="natural" v="bay" />
		<tag k="ssr:stedsnr" v="393056" />
	</node>
	<node id="-793530" lat="71.077611115" lon="24.8023054262">
		<tag k="name" v="Østre Russesand" />
		<tag k="natural" v="bay" />
		<tag k="ssr:stedsnr" v="393049" />
	</node>
	<node id="-793525" lat="70.6952611155" lon="24.6415526398">
		<tag k="name" v="Rottnes" />
		<tag k="natural" v="cape" />
		<tag k="ssr:stedsnr" v="388334" />
	</node>
	<node id="-793524" lat="70.9937194444" lon="24.1196360167">
		<tag k="alt_name" v="Gunnarneset" />
		<tag k="name" v="Gunnarnesodden" />
		<tag k="natural" v="cape" />
		<tag k="ssr:stedsnr" v="388237" />
	</node>
	<node id="-793520" lat="71.0051555544" lon="24.0629943452">
		<tag k="name" v="Hamneneset" />
		<tag k="natural" v="cape" />
		<tag k="ssr:stedsnr" v="388196" />
	</node>
	<node id="-793518" lat="71.0826527786" lon="24.0059471265">
		<tag k="name" v="Toftesundet" />
		<tag k="natural" v="strait" />
		<tag k="ssr:stedsnr" v="388089" />
	</node>
	<node id="-793515" lat="71.0837499983" lon="24.1007776876">
		<tag k="fixme" v="consider seamark:type=rock or natural=shoal" />
		<tag k="name" v="Skarvenakken" />
		<tag k="place" v="islet" />
		<tag k="ssr:stedsnr" v="388015" />
	</node>
	<node id="-793511" lat="71.0296000033" lon="24.7505748493">
		<tag k="name" v="Straumsnesbukta" />
		<tag k="natural" v="bay" />
		<tag k="ssr:stedsnr" v="384682" />
	</node>
	<node id="-793510" lat="71.0303722269" lon="24.7691387592">
		<tag k="name" v="Straumsnesodden" />
		<tag k="natural" v="cape" />
		<tag k="ssr:stedsnr" v="384679" />
	</node>
	<node id="-793508" lat="71.1052055636" lon="24.6683526392">
		<tag k="name" v="Akkarfjordgrunnen" />
		<tag k="natural" v="shoal" />
		<tag k="place" v="locality" />
		<tag k="ssr:stedsnr" v="384665" />
	</node>
	<node id="-793507" lat="71.1454194498" lon="24.8571359618">
		<tag k="name" v="Øvregrunnen" />
		<tag k="natural" v="shoal" />
		<tag k="place" v="locality" />
		<tag k="ssr:stedsnr" v="384654" />
	</node>
	<node id="-793506" lat="71.0073416713" lon="24.5643998796">
		<tag k="alt_name" v="Sjåvika" />
		<tag k="name" v="Skjåvika" />
		<tag k="natural" v="bay" />
		<tag k="ssr:stedsnr" v="384649" />
	</node>
	<node id="-793505" lat="71.1165027844" lon="24.7601443178">
		<tag k="name" v="Kjerkenesgrunnen" />
		<tag k="natural" v="shoal" />
		<tag k="place" v="locality" />
		<tag k="ssr:stedsnr" v="384644" />
	</node>
	<node id="-793504" lat="71.0500000056" lon="24.1894443371">
		<tag k="name" v="Skogbåen" />
		<tag k="natural" v="shoal" />
		<tag k="place" v="locality" />
		<tag k="ssr:stedsnr" v="384620" />
	</node>
	<node id="-793503" lat="71.0603500067" lon="24.0404776742">
		<tag k="name" v="Østerbotn" />
		<tag k="natural" v="bay" />
		<tag k="ssr:stedsnr" v="384618" />
	</node>
	<node id="-793502" lat="71.0564833377" lon="24.2341193326">
		<tag k="fixme" v="consider seamark:type=rock or natural=shoal" />
		<tag k="name" v="Mefjordskjæret" />
		<tag k="place" v="islet" />
		<tag k="ssr:stedsnr" v="384616" />
	</node>
	<node id="-793501" lat="71.0387805603" lon="24.0154054629">
		<tag k="name" v="Russeskjæret" />
		<tag k="place" v="locality" />
		<tag k="seamark:type" v="rock" />
		<tag k="ssr:stedsnr" v="384605" />
	</node>
	<node id="-793499" lat="71.0355138882" lon="24.4599998786">
		<tag k="name" v="Gavlgrunnen" />
		<tag k="natural" v="shoal" />
		<tag k="place" v="locality" />
		<tag k="ssr:stedsnr" v="384594" />
	</node>
	<node id="-793498" lat="71.0066861164" lon="24.0827999046">
		<tag k="name" v="Lyngvika" />
		<tag k="natural" v="bay" />
		<tag k="ssr:stedsnr" v="384583" />
	</node>
	<node id="-793496" lat="71.0861333385" lon="24.0776887804">
		<tag k="name" v="Saltværingen" />
		<tag k="place" v="island" />
		<tag k="ssr:stedsnr" v="384565" />
	</node>
	<node id="-793495" lat="71.0695805562" lon="24.170041555">
		<tag k="name" v="Likholmgrunnan" />
		<tag k="natural" v="shoal" />
		<tag k="place" v="locality" />
		<tag k="ssr:stedsnr" v="384554" />
	</node>
	<node id="-793494" lat="70.7746527814" lon="24.2503998952">
		<tag k="name" v="Jernneset - Ruovdenjárga" />
		<tag k="name:no" v="Jernneset" />
		<tag k="name:se" v="Ruovdenjárga" />
		<tag k="natural" v="cape" />
		<tag k="old_name:se" v="Ruovdenjarga" />
		<tag k="ssr:stedsnr" v="384514" />
	</node>
	<node id="-793492" lat="71.0141472284" lon="25.0963720472">
		<tag k="name" v="Torveskallen" />
		<tag k="natural" v="shoal" />
		<tag k="place" v="locality" />
		<tag k="ssr:stedsnr" v="384717" />
	</node>
	<node id="-793491" lat="71.0257694516" lon="24.9294359565">
		<tag k="alt_name" v="Hattvikodden" />
		<tag k="name" v="Hattvikneset" />
		<tag k="natural" v="cape" />
		<tag k="ssr:stedsnr" v="384712" />
	</node>
	<node id="-793482" lat="70.9661833351" lon="25.2395276064">
		<tag k="alt_name" v="Nebbegrunnen, yt" />
		<tag k="name" v="Ytre Nebbegrunnen" />
		<tag k="natural" v="shoal" />
		<tag k="place" v="locality" />
		<tag k="ssr:stedsnr" v="384456" />
	</node>
	<node id="-793480" lat="71.0981305577" lon="24.7886720732">
		<tag k="bay" v="fjord" />
		<tag k="name" v="Sandfjorden" />
		<tag k="natural" v="bay" />
		<tag k="ssr:stedsnr" v="384409" />
	</node>
	<node id="-793478" lat="71.0273583358" lon="24.9323109607">
		<tag k="name" v="Elvevika" />
		<tag k="natural" v="bay" />
		<tag k="ssr:stedsnr" v="384403" />
	</node>
	<node id="-793477" lat="70.9887027786" lon="24.7681581898">
		<tag k="name" v="Trollfjordneset" />
		<tag k="natural" v="cape" />
		<tag k="ssr:stedsnr" v="384356" />
	</node>
	<node id="-793476" lat="70.9903916685" lon="24.7011415301">
		<tag k="name" v="Eiterfjordholmen" />
		<tag k="place" v="islet" />
		<tag k="ssr:stedsnr" v="384351" />
	</node>
	<node id="-793472" lat="70.8543916665" lon="24.2541415427">
		<tag k="name" v="Reinøysundet" />
		<tag k="natural" v="strait" />
		<tag k="ssr:stedsnr" v="384325" />
	</node>
	<node id="-793471" lat="70.864388896" lon="24.313060996">
		<tag k="alt_name" v="Mollanesset;Mollneset" />
		<tag k="name" v="Mollanes" />
		<tag k="natural" v="cape" />
		<tag k="ssr:stedsnr" v="384323" />
	</node>
	<node id="-793470" lat="70.9150861091" lon="24.0232054616">
		<tag k="name" v="Storvika" />
		<tag k="natural" v="bay" />
		<tag k="ssr:stedsnr" v="384311" />
	</node>
	<node id="-793469" lat="70.918797226" lon="24.1968998999">
		<tag k="name" v="Storskallen" />
		<tag k="natural" v="shoal" />
		<tag k="place" v="locality" />
		<tag k="ssr:stedsnr" v="384307" />
	</node>
	<node id="-793468" lat="70.920291667" lon="24.5929554198">
		<tag k="name" v="Skovika" />
		<tag k="natural" v="bay" />
		<tag k="ssr:stedsnr" v="384294" />
	</node>
	<node id="-793467" lat="70.8622555565" lon="24.5584498718">
		<tag k="name" v="Jernneset" />
		<tag k="natural" v="cape" />
		<tag k="ssr:stedsnr" v="384280" />
	</node>
	<node id="-793466" lat="70.9917555591" lon="24.6088693211">
		<tag k="name" v="Havøysundet" />
		<tag k="natural" v="strait" />
		<tag k="ssr:stedsnr" v="384241" />
	</node>
	<node id="-793465" lat="70.9971388896" lon="24.1283859966">
		<tag k="fixme" v="multiple name tags, choose one and add the other to alt_name" />
		<tag k="name" v="Skjåneset;Tomasneset" />
		<tag k="natural" v="cape" />
		<tag k="ssr:stedsnr" v="384238" />
	</node>
	<node id="-793464" lat="70.7453250041" lon="24.5337582136">
		<tag k="name" v="Leirklubben - Láiranjárga" />
		<tag k="name:no" v="Leirklubben" />
		<tag k="name:se" v="Láiranjárga" />
		<tag k="natural" v="cape" />
		<tag k="old_name:se" v="Lairanjarga" />
		<tag k="ssr:stedsnr" v="384174" />
	</node>
	<node id="-793463" lat="70.9698583339" lon="23.9228749152">
		<tag k="name" v="Rossvika" />
		<tag k="natural" v="bay" />
		<tag k="ssr:stedsnr" v="384154" />
	</node>
	<node id="-793459" lat="71.0444500015" lon="23.9080193544">
		<tag k="alt_name" v="Kirkeråsa" />
		<tag k="name" v="Kjerkeråsa" />
		<tag k="natural" v="shoal" />
		<tag k="place" v="locality" />
		<tag k="ssr:stedsnr" v="383578" />
	</node>
	<node id="-793457" lat="71.0218027828" lon="23.868111014">
		<tag k="alt_name" v="Kolnæringsgrunnen" />
		<tag k="name" v="Kollnæringsgrunnen" />
		<tag k="natural" v="shoal" />
		<tag k="place" v="locality" />
		<tag k="ssr:stedsnr" v="383571" />
	</node>
	<node id="-793452" lat="70.923075002" lon="25.0099859533">
		<tag k="name" v="Elvevika" />
		<tag k="natural" v="bay" />
		<tag k="ssr:stedsnr" v="383444" />
	</node>
	<node id="-793451" lat="70.9311833411" lon="25.1123026096">
		<tag k="name" v="Avløysinga" />
		<tag k="place" v="islet" />
		<tag k="ssr:stedsnr" v="383439" />
	</node>
	<node id="-793448" lat="70.8134972243" lon="24.5877193173">
		<tag k="fixme" v="consider seamark:type=rock or natural=shoal" />
		<tag k="name" v="Petternesskjæret" />
		<tag k="place" v="islet" />
		<tag k="ssr:stedsnr" v="383393" />
	</node>
	<node id="-793447" lat="70.8269444518" lon="24.429052645">
		<tag k="alt_name" v="Fartøyvika, in" />
		<tag k="fixme" v="multiple name tags, choose one and add the other to alt_name" />
		<tag k="name" v="Fartøyvika;Indre Fartøyvika" />
		<tag k="natural" v="bay" />
		<tag k="ssr:stedsnr" v="383373" />
	</node>
	<node id="-793443" lat="70.8431416716" lon="24.5819220842">
		<tag k="name" v="Finnvika" />
		<tag k="natural" v="bay" />
		<tag k="ssr:stedsnr" v="383293" />
	</node>
	<node id="-793442" lat="70.8083500006" lon="24.5559693008">
		<tag k="bay" v="fjord" />
		<tag k="name" v="Snefjorden - Muorralvuotna" />
		<tag k="name:no" v="Snefjorden" />
		<tag k="name:se" v="Muorralvuotna" />
		<tag k="natural" v="bay" />
		<tag k="ssr:stedsnr" v="383291" />
	</node>
	<node id="-793441" lat="70.9684638915" lon="24.0717360061">
		<tag k="fixme" v="multiple name tags, choose one and add the other to alt_name" />
		<tag k="name" v="Gulineset;Langfjordneset;Lyngneset" />
		<tag k="natural" v="cape" />
		<tag k="ssr:stedsnr" v="383269" />
	</node>
	<node id="-793439" lat="70.963541672" lon="24.5544720886">
		<tag k="name" v="Nipholmen" />
		<tag k="place" v="islet" />
		<tag k="ssr:stedsnr" v="383211" />
	</node>
	<node id="-793437" lat="70.9672666684" lon="24.2047943378">
		<tag k="fixme" v="consider seamark:type=rock or natural=shoal" />
		<tag k="name" v="Fuglebergskjæret" />
		<tag k="place" v="islet" />
		<tag k="ssr:stedsnr" v="383206" />
	</node>
	<node id="-793434" lat="71.0952527783" lon="24.0500304613">
		<tag k="name" v="Seiskjæret" />
		<tag k="place" v="locality" />
		<tag k="seamark:type" v="rock" />
		<tag k="ssr:stedsnr" v="351980" />
	</node>
	<node id="-793433" lat="70.7982611146" lon="25.2344498283">
		<tag k="name" v="Kobbefjordbotn" />
		<tag k="natural" v="bay" />
		<tag k="ssr:stedsnr" v="351894" />
	</node>
	<node id="-793432" lat="70.8043750096" lon="25.2265470353">
		<tag k="name" v="Vassberget" />
		<tag k="natural" v="cape" />
		<tag k="ssr:stedsnr" v="351892" />
	</node>
	<node id="-793431" lat="70.7658777776" lon="24.311469318">
		<tag k="name" v="Nasebukta" />
		<tag k="natural" v="bay" />
		<tag k="ssr:stedsnr" v="351564" />
	</node>
	<node id="-793430" lat="70.6973611147" lon="24.5593109751">
		<tag k="name" v="Avløysningsgrunnen" />
		<tag k="natural" v="shoal" />
		<tag k="place" v="locality" />
		<tag k="ssr:stedsnr" v="351486" />
	</node>
	<node id="-793429" lat="70.8816166753" lon="24.6720804091">
		<tag k="name" v="Mollvikneset" />
		<tag k="natural" v="cape" />
		<tag k="ssr:stedsnr" v="351365" />
	</node>
	<node id="-793427" lat="70.9144361151" lon="25.3675275745">
		<tag k="name" v="Stokkevika" />
		<tag k="natural" v="bay" />
		<tag k="ssr:stedsnr" v="351202" />
	</node>
	<node id="-793426" lat="70.892061119" lon="24.9648803983">
		<tag k="name" v="Ryggen" />
		<tag k="natural" v="shoal" />
		<tag k="place" v="locality" />
		<tag k="ssr:stedsnr" v="351166" />
	</node>
	<node id="-793423" lat="71.0798527791" lon="24.0806582431">
		<tag k="name" v="Ytre Samuelholmen" />
		<tag k="place" v="islet" />
		<tag k="ssr:stedsnr" v="335937" />
	</node>
	<node id="-793422" lat="71.0003111174" lon="24.7068248599">
		<tag k="name" v="Kråkungvika" />
		<tag k="natural" v="bay" />
		<tag k="ssr:stedsnr" v="332137" />
	</node>
	<node id="-793419" lat="70.9974888888" lon="24.9641720706">
		<tag k="name" v="Rødsteinen" />
		<tag k="natural" v="cape" />
		<tag k="ssr:stedsnr" v="332071" />
	</node>
	<node id="-793417" lat="71.0896111128" lon="24.8207665269">
		<tag k="name" v="Russen" />
		<tag k="natural" v="cape" />
		<tag k="ssr:stedsnr" v="332051" />
	</node>
	<node id="-793413" lat="71.0090916703" lon="25.0058581909">
		<tag k="name" v="Østervågsanden" />
		<tag k="natural" v="beach" />
		<tag k="place" v="locality" />
		<tag k="ssr:stedsnr" v="330434" />
	</node>
	<node id="-793411" lat="71.0089500034" lon="25.0189303921">
		<tag k="name" v="Russekorset" />
		<tag k="natural" v="cape" />
		<tag k="ssr:stedsnr" v="330160" />
	</node>
	<node id="-793408" lat="70.9615277782" lon="24.6308248655">
		<tag k="alt_name" v="Fjordbotn" />
		<tag k="name" v="Myrfjordbotn" />
		<tag k="natural" v="bay" />
		<tag k="ssr:stedsnr" v="329405" />
	</node>
	<node id="-793407" lat="71.0039750042" lon="24.6635637446">
		<tag k="name" v="Molvika" />
		<tag k="natural" v="bay" />
		<tag k="ssr:stedsnr" v="328392" />
	</node>
	<node id="-793406" lat="70.997286116" lon="24.6926581906">
		<tag k="name" v="Hallvikneset" />
		<tag k="natural" v="cape" />
		<tag k="ssr:stedsnr" v="328342" />
	</node>
	<node id="-793405" lat="70.9898444504" lon="24.0955610133">
		<tag k="fixme" v="consider seamark:type=rock or natural=shoal" />
		<tag k="name" v="Kråkskjæret" />
		<tag k="place" v="islet" />
		<tag k="ssr:stedsnr" v="328240" />
	</node>
	<node id="-793404" lat="70.9934555593" lon="24.1725887962">
		<tag k="name" v="Kalvelandet" />
		<tag k="natural" v="beach" />
		<tag k="place" v="locality" />
		<tag k="ssr:stedsnr" v="328233" />
	</node>
	<node id="-793401" lat="71.0045555613" lon="23.8612499225">
		<tag k="fixme" v="consider seamark:type=rock or natural=shoal" />
		<tag k="name" v="Svartoksen" />
		<tag k="place" v="islet" />
		<tag k="ssr:stedsnr" v="327497" />
	</node>
	<node id="-793399" lat="70.8338861166" lon="24.2505526686">
		<tag k="name" v="Hattviknæringen" />
		<tag k="natural" v="cape" />
		<tag k="ssr:stedsnr" v="327359" />
	</node>
	<node id="-793398" lat="71.0077694497" lon="24.0399582273">
		<tag k="name" v="Badestrand" />
		<tag k="natural" v="beach" />
		<tag k="place" v="locality" />
		<tag k="ssr:stedsnr" v="327210" />
	</node>
	<node id="-793397" lat="71.0718750009" lon="24.0339054655">
		<tag k="name" v="Køysand" />
		<tag k="natural" v="cape" />
		<tag k="ssr:stedsnr" v="327118" />
	</node>
	<node id="-793396" lat="71.0756361096" lon="24.1419221298">
		<tag k="fixme" v="consider seamark:type=rock or natural=shoal" />
		<tag k="name" v="Gåsnesspira" />
		<tag k="place" v="islet" />
		<tag k="ssr:stedsnr" v="327024" />
	</node>
	<node id="-793395" lat="71.0845694478" lon="24.1303637926">
		<tag k="name" v="Klubben" />
		<tag k="natural" v="cape" />
		<tag k="ssr:stedsnr" v="327007" />
	</node>
	<node id="-793393" lat="71.0895027827" lon="24.0472887837">
		<tag k="fixme" v="consider seamark:type=rock or natural=shoal" />
		<tag k="name" v="Fikenskjæret" />
		<tag k="place" v="islet" />
		<tag k="ssr:stedsnr" v="328013" />
	</node>
	<node id="-793392" lat="70.6942805559" lon="24.6701442996">
		<tag k="name" v="Lillefjordbotn" />
		<tag k="natural" v="bay" />
		<tag k="ssr:stedsnr" v="324047" />
	</node>
	<node id="-793384" lat="71.0220500029" lon="25.0336970509">
		<tag k="alt_name" v="Sjåviknesset" />
		<tag k="name" v="Skjåvikneset" />
		<tag k="natural" v="cape" />
		<tag k="ssr:stedsnr" v="323706" />
	</node>
	<node id="-793382" lat="71.0474472256" lon="24.6770970893">
		<tag k="alt_name" v="Knarrvika, store" />
		<tag k="name" v="Store Knarrvika" />
		<tag k="natural" v="bay" />
		<tag k="ssr:stedsnr" v="323689" />
	</node>
	<node id="-793381" lat="71.0811472231" lon="24.9630748344">
		<tag k="name" v="Nipgrunnen" />
		<tag k="natural" v="shoal" />
		<tag k="place" v="locality" />
		<tag k="ssr:stedsnr" v="323686" />
	</node>
	<node id="-793379" lat="71.037363893" lon="24.703424852">
		<tag k="alt_name" v="Knarrvika, l" />
		<tag k="name" v="Lille Knarrvika" />
		<tag k="natural" v="bay" />
		<tag k="ssr:stedsnr" v="323677" />
	</node>
	<node id="-793377" lat="71.1114388947" lon="24.7627026539">
		<tag k="name" v="Kjerkenesholmen" />
		<tag k="place" v="islet" />
		<tag k="ssr:stedsnr" v="323670" />
	</node>
	<node id="-793376" lat="71.0704277805" lon="24.7293943114">
		<tag k="name" v="Elvevika" />
		<tag k="natural" v="bay" />
		<tag k="ssr:stedsnr" v="323651" />
	</node>
	<node id="-793375" lat="71.0422249994" lon="24.0358165537">
		<tag k="fixme" v="consider seamark:type=rock or natural=shoal" />
		<tag k="name" v="Klubben" />
		<tag k="place" v="islet" />
		<tag k="ssr:stedsnr" v="323623" />
	</node>
	<node id="-793374" lat="71.0167083337" lon="24.1077749037">
		<tag k="name" v="Midtergrunnen" />
		<tag k="natural" v="shoal" />
		<tag k="place" v="locality" />
		<tag k="ssr:stedsnr" v="323613" />
	</node>
	<node id="-793373" lat="71.0850527817" lon="24.0824110185">
		<tag k="alt_name" v="Juksholmen" />
		<tag k="name" v="Jaksholmen" />
		<tag k="place" v="islet" />
		<tag k="ssr:stedsnr" v="323597" />
	</node>
	<node id="-793372" lat="71.0895138898" lon="24.1519526645">
		<tag k="name" v="Svartoksen" />
		<tag k="place" v="islet" />
		<tag k="ssr:stedsnr" v="323591" />
	</node>
	<node id="-793371" lat="71.0783805608" lon="24.0718249064">
		<tag k="alt_name" v="Russehamn" />
		<tag k="name" v="Russehamna" />
		<tag k="natural" v="bay" />
		<tag k="ssr:stedsnr" v="323584" />
	</node>
	<node id="-793370" lat="71.0632333381" lon="24.0358165668">
		<tag k="alt_name" v="Kjerringholman" />
		<tag k="name" v="Kjerringholmen" />
		<tag k="place" v="islet" />
		<tag k="ssr:stedsnr" v="323576" />
	</node>
	<node id="-793369" lat="71.0765000017" lon="23.9876915708">
		<tag k="name" v="Mafjordholmen" />
		<tag k="place" v="islet" />
		<tag k="ssr:stedsnr" v="323564" />
	</node>
	<node id="-793368" lat="71.0286666645" lon="23.9083804699">
		<tag k="name" v="Brosmekeila" />
		<tag k="natural" v="bay" />
		<tag k="ssr:stedsnr" v="323554" />
	</node>
	<node id="-793367" lat="71.0283444486" lon="23.991266562">
		<tag k="name" v="Kalvbukta" />
		<tag k="natural" v="bay" />
		<tag k="ssr:stedsnr" v="323551" />
	</node>
	<node id="-793366" lat="71.0185000008" lon="23.8802971204">
		<tag k="fixme" v="multiple name tags, choose one and add the other to alt_name; consider seamark:type=rock or natural=shoal" />
		<tag k="name" v="Kvalskjæret;Langskjæret" />
		<tag k="place" v="islet" />
		<tag k="ssr:stedsnr" v="323550" />
	</node>
	<node id="-793364" lat="71.0997416707" lon="23.9095637978">
		<tag k="name" v="Hammarøyskallen" />
		<tag k="natural" v="shoal" />
		<tag k="place" v="locality" />
		<tag k="ssr:stedsnr" v="323516" />
	</node>
	<node id="-793363" lat="71.0892138915" lon="23.9656832347">
		<tag k="name" v="Leisund" />
		<tag k="natural" v="strait" />
		<tag k="ssr:stedsnr" v="323517" />
	</node>
	<node id="-793361" lat="70.9667916729" lon="25.3637137097">
		<tag k="name" v="Stikkelvågen" />
		<tag k="natural" v="bay" />
		<tag k="ssr:stedsnr" v="323457" />
	</node>
	<node id="-793359" lat="70.9244861106" lon="24.9162887449">
		<tag k="name" v="Østerbotn" />
		<tag k="natural" v="bay" />
		<tag k="ssr:stedsnr" v="323434" />
	</node>
	<node id="-793357" lat="70.9586166758" lon="25.025116497">
		<tag k="name" v="Værbukta" />
		<tag k="natural" v="bay" />
		<tag k="ssr:stedsnr" v="323410" />
	</node>
	<node id="-793356" lat="71.0270194444" lon="24.0616943432">
		<tag k="name" v="Eidneset" />
		<tag k="natural" v="cape" />
		<tag k="ssr:stedsnr" v="323404" />
	</node>
	<node id="-793354" lat="70.8842444465" lon="25.2128025964">
		<tag k="fixme" v="multiple name tags, choose one and add the other to alt_name" />
		<tag k="name" v="Store Studentervika;Studentervika" />
		<tag k="natural" v="bay" />
		<tag k="ssr:stedsnr" v="323390" />
	</node>
	<node id="-793353" lat="70.8780472277" lon="24.8982915163">
		<tag k="alt_name" v="Vesterbotn" />
		<tag k="name" v="Vesterbotnen" />
		<tag k="natural" v="bay" />
		<tag k="ssr:stedsnr" v="323389" />
	</node>
	<node id="-793351" lat="70.9018055643" lon="24.9588081749">
		<tag k="name" v="Kråkvika" />
		<tag k="natural" v="bay" />
		<tag k="ssr:stedsnr" v="323382" />
	</node>
	<node id="-793347" lat="70.814813893" lon="24.4883887475">
		<tag k="alt_name" v="Svartbergvika, yt" />
		<tag k="name" v="Ytre Svartbergvika" />
		<tag k="natural" v="bay" />
		<tag k="ssr:stedsnr" v="323342" />
	</node>
	<node id="-793345" lat="70.9819611132" lon="24.7257637562">
		<tag k="name" v="Sandvika" />
		<tag k="natural" v="bay" />
		<tag k="ssr:stedsnr" v="323325" />
	</node>
	<node id="-793343" lat="70.8781777791" lon="24.2313804307">
		<tag k="name" v="Blankkeila" />
		<tag k="natural" v="bay" />
		<tag k="ssr:stedsnr" v="323305" />
	</node>
	<node id="-793341" lat="70.8565111186" lon="24.2151859917">
		<tag k="name" v="Bismarvika" />
		<tag k="natural" v="bay" />
		<tag k="ssr:stedsnr" v="323273" />
	</node>
	<node id="-793340" lat="70.981605562" lon="24.250122123">
		<tag k="name" v="Mariagrunnen" />
		<tag k="natural" v="shoal" />
		<tag k="place" v="locality" />
		<tag k="ssr:stedsnr" v="323253" />
	</node>
	<node id="-793338" lat="70.9968083331" lon="24.1104915543">
		<tag k="name" v="Leira" />
		<tag k="natural" v="bay" />
		<tag k="ssr:stedsnr" v="323238" />
	</node>
	<node id="-793337" lat="70.9971305536" lon="23.8437332458">
		<tag k="name" v="Tunæringen" />
		<tag k="natural" v="cape" />
		<tag k="ssr:stedsnr" v="323199" />
	</node>
	<node id="-793336" lat="70.7152555593" lon="24.5658220825">
		<tag k="alt_name:no" v="Bestemorsbukta" />
		<tag k="name" v="Bestemorvika - Áhkogohppi" />
		<tag k="name:no" v="Bestemorvika" />
		<tag k="name:se" v="Áhkogohppi" />
		<tag k="natural" v="bay" />
		<tag k="old_name:se" v="Akkugåppi" />
		<tag k="ssr:stedsnr" v="323194" />
	</node>
	<node id="-793334" lat="70.9676222238" lon="23.9372638046">
		<tag k="alt_name:no" v="Rolvsøy" />
		<tag k="name" v="Rolvsøya - Gádde-Iččát" />
		<tag k="name:no" v="Rolvsøya" />
		<tag k="name:se" v="Gádde-Iččát" />
		<tag k="old_name:se" v="Gadde-Ižžat;Gádde-lččat" />
		<tag k="place" v="island" />
		<tag k="ssr:stedsnr" v="323153" />
	</node>
	<node id="-793333" lat="70.8186611116" lon="25.2953692625">
		<tag k="name" v="Bealča" />
		<tag k="name:se" v="Bealča" />
		<tag k="natural" v="cape" />
		<tag k="old_name:se" v="Bælča;Bealčča" />
		<tag k="ssr:stedsnr" v="323135" />
	</node>
	<node id="-793330" lat="70.9412694529" lon="25.4744525861">
		<tag k="name" v="Vuojahangohppi" />
		<tag k="name:se" v="Vuojahangohppi" />
		<tag k="natural" v="bay" />
		<tag k="old_name:se" v="Vuojahangåppi" />
		<tag k="ssr:stedsnr" v="323074" />
	</node>
	<node id="-793329" lat="70.9344722298" lon="25.341460929">
		<tag k="name" v="Ytre Gavas - Olggut Gávaš" />
		<tag k="name:no" v="Ytre Gavas" />
		<tag k="name:se" v="Olggut Gávaš" />
		<tag k="natural" v="bay" />
		<tag k="old_name:se" v="Gavaš, ålgot" />
		<tag k="ssr:stedsnr" v="323072" />
	</node>
	<node id="-793328" lat="70.9284944513" lon="25.1785137235">
		<tag k="bay" v="fjord" />
		<tag k="name" v="Kobbefjorden - Gáhppovuotna" />
		<tag k="name:no" v="Kobbefjorden" />
		<tag k="name:se" v="Gáhppovuotna" />
		<tag k="natural" v="bay" />
		<tag k="old_name:se" v="Gappuvuodna" />
		<tag k="ssr:stedsnr" v="323049" />
	</node>
	<node id="-793326" lat="70.8864527794" lon="25.3909692425">
		<tag k="alt_name" v="Sinkelvika, in" />
		<tag k="name" v="Indre Sinkelvika" />
		<tag k="natural" v="bay" />
		<tag k="ssr:stedsnr" v="323026" />
	</node>
	<node id="-793325" lat="71.1602777777" lon="24.9444442886">
		<tag k="name" v="Middagshøygrunnen" />
		<tag k="natural" v="shoal" />
		<tag k="place" v="locality" />
		<tag k="ssr:stedsnr" v="303181" />
	</node>
	<node id="-793324" lat="71.0856694467" lon="24.087963791">
		<tag k="name" v="Uran" />
		<tag k="place" v="locality" />
		<tag k="seamark:type" v="rock" />
		<tag k="ssr:stedsnr" v="291976" />
	</node>
	<node id="-793323" lat="70.8456250002" lon="25.236833154">
		<tag k="name" v="Pålsaneset" />
		<tag k="natural" v="cape" />
		<tag k="ssr:stedsnr" v="291908" />
	</node>
	<node id="-793322" lat="70.9688833404" lon="24.1634360079">
		<tag k="name" v="Mortenberget" />
		<tag k="natural" v="cape" />
		<tag k="ssr:stedsnr" v="291825" />
	</node>
	<node id="-793320" lat="70.9129805591" lon="24.5836221029">
		<tag k="fixme" v="consider seamark:type=rock or natural=shoal" />
		<tag k="name" v="Eiaskjæran" />
		<tag k="place" v="islet" />
		<tag k="ssr:stedsnr" v="290759" />
	</node>
	<node id="-793319" lat="71.0203944507" lon="24.9435581708">
		<tag k="name" v="Snekkarvikodden" />
		<tag k="natural" v="cape" />
		<tag k="ssr:stedsnr" v="290064" />
	</node>
	<node id="-793318" lat="71.0659750066" lon="24.5962693104">
		<tag k="fixme" v="consider seamark:type=rock or natural=shoal" />
		<tag k="name" v="Geitingsskjæret" />
		<tag k="place" v="islet" />
		<tag k="ssr:stedsnr" v="290020" />
	</node>
	<node id="-793316" lat="70.6982444459" lon="24.6393804036">
		<tag k="name" v="Langstrand" />
		<tag k="natural" v="beach" />
		<tag k="place" v="locality" />
		<tag k="ssr:stedsnr" v="272741" />
	</node>
	<node id="-793307" lat="71.0196805634" lon="25.0271803918">
		<tag k="name" v="Vestre Holmbukta" />
		<tag k="natural" v="bay" />
		<tag k="ssr:stedsnr" v="269405" />
	</node>
	<node id="-793306" lat="70.8764083402" lon="24.9047692936">
		<tag k="alt_name" v="Stilbukta" />
		<tag k="name" v="Maritbukta" />
		<tag k="natural" v="bay" />
		<tag k="ssr:stedsnr" v="269400" />
	</node>
	<node id="-795092" lat="70.9961916663" lon="24.1105193458">
		<tag k="name" v="Kobbevika" />
		<tag k="natural" v="bay" />
		<tag k="ssr:stedsnr" v="968365" />
	</node>
	<node id="-795090" lat="70.7484722256" lon="24.5146804099">
		<tag k="name" v="Tomteneset" />
		<tag k="natural" v="cape" />
		<tag k="ssr:stedsnr" v="958632" />
	</node>
	<node id="-795089" lat="70.6821694465" lon="24.6138998512">
		<tag k="name" v="Mollvika" />
		<tag k="natural" v="bay" />
		<tag k="ssr:stedsnr" v="958509" />
	</node>
	<node id="-795088" lat="70.823444443" lon="24.5335554339">
		<tag k="name" v="Jernsteingrunnen" />
		<tag k="natural" v="shoal" />
		<tag k="place" v="locality" />
		<tag k="ssr:stedsnr" v="958326" />
	</node>
	<node id="-795087" lat="70.7935055577" lon="24.237363771">
		<tag k="name" v="Lysgrunnen" />
		<tag k="natural" v="shoal" />
		<tag k="place" v="locality" />
		<tag k="ssr:stedsnr" v="958299" />
	</node>
	<node id="-795084" lat="71.0791916719" lon="24.0850221349">
		<tag k="name" v="Indre Samuelholmen" />
		<tag k="place" v="islet" />
		<tag k="ssr:stedsnr" v="942923" />
	</node>
	<node id="-795077" lat="71.0852333353" lon="24.8097581787">
		<tag k="name" v="Svartvikholmen" />
		<tag k="place" v="islet" />
		<tag k="ssr:stedsnr" v="939047" />
	</node>
	<node id="-795073" lat="71.0171861175" lon="25.0181303971">
		<tag k="name" v="Grånesvika" />
		<tag k="natural" v="bay" />
		<tag k="ssr:stedsnr" v="937429" />
	</node>
	<node id="-795071" lat="70.9952027846" lon="24.6373137524">
		<tag k="name" v="Stranda" />
		<tag k="natural" v="beach" />
		<tag k="place" v="locality" />
		<tag k="ssr:stedsnr" v="936437" />
	</node>
	<node id="-795069" lat="71.0013777816" lon="23.8854082492">
		<tag k="name" v="Kirkenesspira" />
		<tag k="natural" v="cape" />
		<tag k="ssr:stedsnr" v="935563" />
	</node>
	<node id="-795068" lat="71.0031916711" lon="24.6848970793">
		<tag k="name" v="Garpholmvikneset" />
		<tag k="natural" v="cape" />
		<tag k="ssr:stedsnr" v="935435" />
	</node>
	<node id="-795063" lat="71.0766638924" lon="24.1661332236">
		<tag k="fixme" v="consider seamark:type=rock or natural=shoal" />
		<tag k="name" v="Likholmskjæret" />
		<tag k="place" v="islet" />
		<tag k="ssr:stedsnr" v="935015" />
	</node>
	<node id="-795060" lat="71.0017111105" lon="23.8988471194">
		<tag k="name" v="Starholmen" />
		<tag k="place" v="islet" />
		<tag k="ssr:stedsnr" v="934488" />
	</node>
	<node id="-795058" lat="71.0714611116" lon="24.0338415676">
		<tag k="fixme" v="consider seamark:type=rock or natural=shoal" />
		<tag k="name" v="Storsteinen" />
		<tag k="place" v="islet" />
		<tag k="ssr:stedsnr" v="934108" />
	</node>
	<node id="-795057" lat="71.0874777784" lon="24.1356137796">
		<tag k="fixme" v="consider seamark:type=rock or natural=shoal" />
		<tag k="name" v="Russespira" />
		<tag k="place" v="islet" />
		<tag k="ssr:stedsnr" v="934021" />
	</node>
	<node id="-795056" lat="70.9568083397" lon="24.8861498548">
		<tag k="alt_name" v="Lysgrunnen, øvre" />
		<tag k="name" v="Øvre Lysgrunnen" />
		<tag k="natural" v="shoal" />
		<tag k="place" v="locality" />
		<tag k="ssr:stedsnr" v="931433" />
	</node>
	<node id="-795055" lat="70.8467888972" lon="24.4155582015">
		<tag k="name" v="Plankevika" />
		<tag k="natural" v="bay" />
		<tag k="ssr:stedsnr" v="931287" />
	</node>
	<node id="-795051" lat="71.0033055596" lon="24.6999720749">
		<tag k="name" v="Materialodden" />
		<tag k="natural" v="cape" />
		<tag k="ssr:stedsnr" v="930736" />
	</node>
	<node id="-795050" lat="71.0168666679" lon="24.9117581901">
		<tag k="name" v="Snekkarvikgrunnen" />
		<tag k="natural" v="shoal" />
		<tag k="place" v="locality" />
		<tag k="ssr:stedsnr" v="930732" />
	</node>
	<node id="-795049" lat="71.0635305564" lon="24.9311637441">
		<tag k="name" v="Kalveskallen" />
		<tag k="natural" v="shoal" />
		<tag k="place" v="locality" />
		<tag k="ssr:stedsnr" v="930698" />
	</node>
	<node id="-795047" lat="71.0460500028" lon="24.7794998724">
		<tag k="alt_name" v="Svinvik" />
		<tag k="name" v="Svinvika" />
		<tag k="natural" v="bay" />
		<tag k="ssr:stedsnr" v="930690" />
	</node>
	<node id="-795046" lat="71.0532583411" lon="24.8266581953">
		<tag k="fixme" v="multiple name tags, choose one and add the other to alt_name; consider seamark:type=rock or natural=shoal" />
		<tag k="name" v="Stangskjæret;Rundskjæret" />
		<tag k="place" v="islet" />
		<tag k="ssr:stedsnr" v="930688" />
	</node>
	<node id="-795045" lat="71.0700638889" lon="24.7832331962">
		<tag k="name" v="Sandneset" />
		<tag k="natural" v="cape" />
		<tag k="ssr:stedsnr" v="930684" />
	</node>
	<node id="-795044" lat="71.1151027811" lon="24.7216887444">
		<tag k="name" v="Avløysinga" />
		<tag k="natural" v="cape" />
		<tag k="ssr:stedsnr" v="930655" />
	</node>
	<node id="-795042" lat="71.0574333391" lon="24.0752110198">
		<tag k="alt_name" v="Langsand" />
		<tag k="name" v="Sanden" />
		<tag k="natural" v="bay" />
		<tag k="ssr:stedsnr" v="930640" />
	</node>
	<node id="-795041" lat="71.0595472234" lon="24.1394693395">
		<tag k="alt_name" v="Kiholmen" />
		<tag k="name" v="Kjeholmen" />
		<tag k="place" v="islet" />
		<tag k="ssr:stedsnr" v="930635" />
	</node>
	<node id="-795040" lat="71.0339444453" lon="24.0486776901">
		<tag k="fixme" v="consider seamark:type=rock or natural=shoal" />
		<tag k="name" v="Kjerringskjæret" />
		<tag k="place" v="islet" />
		<tag k="ssr:stedsnr" v="930633" />
	</node>
	<node id="-795039" lat="71.0989638919" lon="24.1577276882">
		<tag k="alt_name" v="Gåsøya, l" />
		<tag k="name" v="Lille Gåsøya" />
		<tag k="place" v="islet" />
		<tag k="ssr:stedsnr" v="930624" />
	</node>
	<node id="-795038" lat="71.0793777775" lon="24.0101276762">
		<tag k="name" v="Finneset" />
		<tag k="natural" v="cape" />
		<tag k="ssr:stedsnr" v="930617" />
	</node>
	<node id="-795037" lat="71.0798277846" lon="24.0810026791">
		<tag k="name" v="Samuelholman" />
		<tag k="place" v="islet" />
		<tag k="ssr:stedsnr" v="930618" />
	</node>
	<node id="-795035" lat="71.0093833405" lon="23.8935082377">
		<tag k="name" v="Kvalkeila" />
		<tag k="natural" v="bay" />
		<tag k="ssr:stedsnr" v="930567" />
	</node>
	<node id="-795034" lat="71.0952888875" lon="23.9689415641">
		<tag k="fixme" v="multiple name tags, choose one and add the other to alt_name" />
		<tag k="name" v="Skagholman;Skagskjera" />
		<tag k="place" v="islet" />
		<tag k="ssr:stedsnr" v="930524" />
	</node>
	<node id="-795025" lat="70.9634583379" lon="24.7693470687">
		<tag k="alt_name" v="Storvika, yt" />
		<tag k="name" v="Ytre Storvika" />
		<tag k="natural" v="bay" />
		<tag k="ssr:stedsnr" v="930423" />
	</node>
	<node id="-795023" lat="71.0380416718" lon="25.0131359552">
		<tag k="alt_name" v="Sandsfjorden" />
		<tag k="bay" v="fjord" />
		<tag k="name" v="Sandfjorden" />
		<tag k="natural" v="bay" />
		<tag k="ssr:stedsnr" v="930411" />
	</node>
	<node id="-795021" lat="70.8712194501" lon="24.7015609586">
		<tag k="alt_name" v="Skipsbukta" />
		<tag k="name" v="Skibsbukta" />
		<tag k="natural" v="bay" />
		<tag k="ssr:stedsnr" v="930401" />
	</node>
	<node id="-795019" lat="70.8029305565" lon="24.2611415436">
		<tag k="name" v="Stokkrev" />
		<tag k="natural" v="cape" />
		<tag k="ssr:stedsnr" v="930391" />
	</node>
	<node id="-795016" lat="70.9987333351" lon="24.6939415433">
		<tag k="name" v="Hallvika" />
		<tag k="natural" v="bay" />
		<tag k="ssr:stedsnr" v="930358" />
	</node>
	<node id="-795012" lat="70.8766138904" lon="24.2447859877">
		<tag k="name" v="Kalvsundet" />
		<tag k="natural" v="strait" />
		<tag k="ssr:stedsnr" v="930330" />
	</node>
	<node id="-795011" lat="70.876786112" lon="24.1583582103">
		<tag k="name" v="Saugrunnen" />
		<tag k="natural" v="shoal" />
		<tag k="place" v="locality" />
		<tag k="ssr:stedsnr" v="930324" />
	</node>
	<node id="-795010" lat="70.872125007" lon="24.5926665341">
		<tag k="alt_name" v="Hammarneset" />
		<tag k="name" v="Hammaren" />
		<tag k="natural" v="cape" />
		<tag k="ssr:stedsnr" v="930321" />
	</node>
	<node id="-795009" lat="70.9270500062" lon="24.1882054408">
		<tag k="alt_name" v="Revsholmgrunnen" />
		<tag k="name" v="Revsholmsgrunnen" />
		<tag k="natural" v="shoal" />
		<tag k="place" v="locality" />
		<tag k="ssr:stedsnr" v="930301" />
	</node>
	<node id="-795007" lat="70.9787555612" lon="24.1876860001">
		<tag k="alt_name" v="Djeolingen" />
		<tag k="name" v="Djevlingen" />
		<tag k="natural" v="shoal" />
		<tag k="place" v="locality" />
		<tag k="ssr:stedsnr" v="930254" />
	</node>
	<node id="-795006" lat="70.9973944479" lon="24.2095526725">
		<tag k="name" v="Kalvodden" />
		<tag k="natural" v="cape" />
		<tag k="ssr:stedsnr" v="930247" />
	</node>
	<node id="-795005" lat="70.9855222206" lon="24.1462276824">
		<tag k="name" v="Mefjordskjæret" />
		<tag k="natural" v="shoal" />
		<tag k="place" v="locality" />
		<tag k="ssr:stedsnr" v="930243" />
	</node>
	<node id="-795004" lat="70.9905111142" lon="24.2807971119">
		<tag k="name" v="Kalveskallen" />
		<tag k="natural" v="shoal" />
		<tag k="place" v="locality" />
		<tag k="ssr:stedsnr" v="930241" />
	</node>
	<node id="-795003" lat="70.9896666712" lon="24.0898832406">
		<tag k="name" v="Irbergneset" />
		<tag k="natural" v="cape" />
		<tag k="ssr:stedsnr" v="930242" />
	</node>
	<node id="-794996" lat="70.9632388892" lon="24.272899899">
		<tag k="name" v="Gorgebåen" />
		<tag k="natural" v="shoal" />
		<tag k="place" v="locality" />
		<tag k="ssr:stedsnr" v="930189" />
	</node>
	<node id="-794995" lat="70.961458332" lon="24.218588785">
		<tag k="alt_name" v="Krykkjenesbukta" />
		<tag k="name" v="Krykkjebukta" />
		<tag k="natural" v="bay" />
		<tag k="ssr:stedsnr" v="930188" />
	</node>
	<node id="-794994" lat="70.7330611141" lon="24.4057609976">
		<tag k="name" v="Darbobåan" />
		<tag k="natural" v="shoal" />
		<tag k="place" v="locality" />
		<tag k="ssr:stedsnr" v="930183" />
	</node>
	<node id="-794992" lat="70.744336117" lon="24.538102641">
		<tag k="alt_name:no" v="Leirvika" />
		<tag k="name" v="Leirbukta - Láiragohppi" />
		<tag k="name:no" v="Leirbukta" />
		<tag k="name:se" v="Láiragohppi" />
		<tag k="natural" v="bay" />
		<tag k="old_name:se" v="Lairagåppi" />
		<tag k="ssr:stedsnr" v="930153" />
	</node>
	<node id="-794990" lat="70.8310500029" lon="25.3384247968">
		<tag k="name" v="Langnesbukta" />
		<tag k="natural" v="bay" />
		<tag k="ssr:stedsnr" v="930123" />
	</node>
	<node id="-794989" lat="70.9191222295" lon="25.3044998102">
		<tag k="name" v="Kobbevika" />
		<tag k="natural" v="bay" />
		<tag k="ssr:stedsnr" v="930053" />
	</node>
	<node id="-794988" lat="70.9443944466" lon="23.966411017">
		<tag k="name" v="Moldvikodden" />
		<tag k="natural" v="cape" />
		<tag k="ssr:stedsnr" v="908433" />
	</node>
	<node id="-794987" lat="71.0021138942" lon="24.9560859713">
		<tag k="name" v="Varneset" />
		<tag k="natural" v="cape" />
		<tag k="ssr:stedsnr" v="878081" />
	</node>
	<node id="-794985" lat="71.0782527768" lon="24.7083137658">
		<tag k="name" v="Hamneklubben" />
		<tag k="natural" v="cape" />
		<tag k="ssr:stedsnr" v="878014" />
	</node>
	<node id="-794977" lat="71.0001972297" lon="23.8873387899">
		<tag k="fixme" v="consider seamark:type=rock or natural=shoal" />
		<tag k="name" v="Stangskjæret" />
		<tag k="place" v="islet" />
		<tag k="ssr:stedsnr" v="874568" />
	</node>
	<node id="-794975" lat="70.9895916722" lon="24.0642776672">
		<tag k="name" v="Sandfjordlandet" />
		<tag k="natural" v="beach" />
		<tag k="place" v="locality" />
		<tag k="ssr:stedsnr" v="874263" />
	</node>
	<node id="-794972" lat="71.082908339" lon="24.060086019">
		<tag k="fixme" v="consider seamark:type=rock or natural=shoal" />
		<tag k="name" v="Kirkesandskjæret" />
		<tag k="place" v="islet" />
		<tag k="ssr:stedsnr" v="874123" />
	</node>
	<node id="-794971" lat="71.0697750044" lon="24.0393248923">
		<tag k="name" v="Storsteinvik" />
		<tag k="natural" v="bay" />
		<tag k="ssr:stedsnr" v="874124" />
	</node>
	<node id="-794970" lat="71.0800972277" lon="24.0689360284">
		<tag k="name" v="Sandvik" />
		<tag k="natural" v="bay" />
		<tag k="ssr:stedsnr" v="874120" />
	</node>
	<node id="-794968" lat="71.0863222268" lon="24.1629304612">
		<tag k="fixme" v="consider seamark:type=rock or natural=shoal" />
		<tag k="name" v="Flatskjæret" />
		<tag k="place" v="islet" />
		<tag k="ssr:stedsnr" v="874035" />
	</node>
	<node id="-794966" lat="71.0681750013" lon="24.1189332284">
		<tag k="name" v="Småvikerlandet" />
		<tag k="natural" v="beach" />
		<tag k="place" v="locality" />
		<tag k="ssr:stedsnr" v="874006" />
	</node>
	<node id="-794965" lat="71.0725277835" lon="24.1333693592">
		<tag k="name" v="Ludvikbukta" />
		<tag k="natural" v="bay" />
		<tag k="ssr:stedsnr" v="874003" />
	</node>
	<node id="-794964" lat="71.003897227" lon="24.1359415573">
		<tag k="name" v="Langkjeila" />
		<tag k="natural" v="bay" />
		<tag k="ssr:stedsnr" v="873242" />
	</node>
	<node id="-794962" lat="70.968011114" lon="24.0874804506">
		<tag k="name" v="Gåsstrand" />
		<tag k="natural" v="beach" />
		<tag k="place" v="locality" />
		<tag k="ssr:stedsnr" v="873211" />
	</node>
	<node id="-794960" lat="71.010450008" lon="24.9632915132">
		<tag k="name" v="Holgerneset" />
		<tag k="natural" v="cape" />
		<tag k="ssr:stedsnr" v="870724" />
	</node>
	<node id="-794958" lat="71.1090999997" lon="24.7545581898">
		<tag k="name" v="Kjerkeneset" />
		<tag k="natural" v="cape" />
		<tag k="ssr:stedsnr" v="870661" />
	</node>
	<node id="-794957" lat="71.1426444473" lon="24.9451998429">
		<tag k="name" v="Kolgrunnen" />
		<tag k="natural" v="shoal" />
		<tag k="place" v="locality" />
		<tag k="ssr:stedsnr" v="870650" />
	</node>
	<node id="-794955" lat="71.1109333326" lon="24.6980054249">
		<tag k="name" v="Stauren" />
		<tag k="natural" v="cape" />
		<tag k="ssr:stedsnr" v="870645" />
	</node>
	<node id="-794954" lat="71.0370888869" lon="24.2054832317">
		<tag k="name" v="Brottet" />
		<tag k="natural" v="shoal" />
		<tag k="place" v="locality" />
		<tag k="ssr:stedsnr" v="870615" />
	</node>
	<node id="-794953" lat="71.0370138938" lon="24.2451665478">
		<tag k="name" v="Urdan" />
		<tag k="natural" v="shoal" />
		<tag k="place" v="locality" />
		<tag k="ssr:stedsnr" v="870614" />
	</node>
	<node id="-794952" lat="71.0066750026" lon="24.0783110143">
		<tag k="name" v="Lyngvikneset" />
		<tag k="natural" v="cape" />
		<tag k="ssr:stedsnr" v="870600" />
	</node>
	<node id="-794950" lat="70.8727138896" lon="25.0132359446">
		<tag k="name" v="Østerbotn" />
		<tag k="natural" v="bay" />
		<tag k="ssr:stedsnr" v="870525" />
	</node>
	<node id="-794946" lat="70.973597229" lon="24.9593942873">
		<tag k="name" v="Fiskeneset" />
		<tag k="natural" v="cape" />
		<tag k="ssr:stedsnr" v="870421" />
	</node>
	<node id="-794941" lat="70.9141361187" lon="24.6078998648">
		<tag k="fixme" v="multiple name tags, choose one and add the other to alt_name" />
		<tag k="name" v="Lille Sandbukta;Sandbukta" />
		<tag k="natural" v="bay" />
		<tag k="ssr:stedsnr" v="870318" />
	</node>
	<node id="-794938" lat="70.8535444483" lon="24.3309609962">
		<tag k="name" v="Indre Pollen" />
		<tag k="natural" v="bay" />
		<tag k="old_name" v="Pollen, in" />
		<tag k="ssr:stedsnr" v="870289" />
	</node>
	<node id="-794934" lat="70.9860805591" lon="24.0708860007">
		<tag k="bay" v="fjord" />
		<tag k="name" v="Sandfjorden" />
		<tag k="natural" v="bay" />
		<tag k="ssr:stedsnr" v="870266" />
	</node>
	<node id="-794933" lat="70.9949055586" lon="23.8210749033">
		<tag k="name" v="Bjørnøyskallen" />
		<tag k="natural" v="shoal" />
		<tag k="place" v="locality" />
		<tag k="ssr:stedsnr" v="870204" />
	</node>
	<node id="-794931" lat="70.7482472286" lon="24.5359443032">
		<tag k="alt_name:no" v="Rottvika" />
		<tag k="name" v="Råtvika - Guohcagohppi" />
		<tag k="name:no" v="Råtvika" />
		<tag k="name:se" v="Guohcagohppi" />
		<tag k="natural" v="bay" />
		<tag k="old_name:se" v="Guoccagåppi" />
		<tag k="ssr:stedsnr" v="870176" />
	</node>
	<node id="-794929" lat="70.8634000056" lon="25.2319303887">
		<tag k="name" v="Smedbergbukta" />
		<tag k="natural" v="bay" />
		<tag k="ssr:stedsnr" v="870017" />
	</node>
	<node id="-794925" lat="71.0665000004" lon="24.9667692863">
		<tag k="alt_name" v="Skjærgrunnen" />
		<tag k="name" v="Skjerdingsgrunnen" />
		<tag k="natural" v="shoal" />
		<tag k="place" v="locality" />
		<tag k="ssr:stedsnr" v="869698" />
	</node>
	<node id="-794924" lat="71.0290111098" lon="24.9132109691">
		<tag k="name" v="Hartviknesgrunnen" />
		<tag k="natural" v="shoal" />
		<tag k="place" v="locality" />
		<tag k="ssr:stedsnr" v="869690" />
	</node>
	<node id="-794923" lat="71.0455361152" lon="24.9431998464">
		<tag k="name" v="Nordmannsvika" />
		<tag k="natural" v="bay" />
		<tag k="ssr:stedsnr" v="869681" />
	</node>
	<node id="-794920" lat="71.0860166743" lon="24.7517220775">
		<tag k="alt_name" v="Rækvika" />
		<tag k="name" v="Rekvika" />
		<tag k="natural" v="bay" />
		<tag k="ssr:stedsnr" v="869660" />
	</node>
	<node id="-794919" lat="71.1069666693" lon="24.0464165568">
		<tag k="name" v="Stabbefluan" />
		<tag k="natural" v="shoal" />
		<tag k="place" v="locality" />
		<tag k="ssr:stedsnr" v="869628" />
	</node>
	<node id="-794918" lat="71.0946972282" lon="24.1408082406">
		<tag k="fixme" v="consider seamark:type=rock or natural=shoal" />
		<tag k="name" v="Småkartøyan" />
		<tag k="place" v="islet" />
		<tag k="ssr:stedsnr" v="869619" />
	</node>
	<node id="-794917" lat="71.0766305616" lon="24.1598137932">
		<tag k="name" v="Likholman" />
		<tag k="place" v="islet" />
		<tag k="ssr:stedsnr" v="869617" />
	</node>
	<node id="-794915" lat="71.0671250055" lon="24.035172119">
		<tag k="alt_name" v="Henrikholmen" />
		<tag k="name" v="Lamholmen" />
		<tag k="place" v="islet" />
		<tag k="ssr:stedsnr" v="869606" />
	</node>
	<node id="-794914" lat="71.0826777829" lon="23.9461582471">
		<tag k="name" v="Terningskallen" />
		<tag k="natural" v="shoal" />
		<tag k="place" v="locality" />
		<tag k="ssr:stedsnr" v="869601" />
	</node>
	<node id="-794912" lat="70.9205305607" lon="24.975097058">
		<tag k="name" v="Yttereidet" />
		<tag k="place" v="locality" />
		<tag k="ssr:stedsnr" v="869472" />
	</node>
	<node id="-794911" lat="70.9127805604" lon="24.9831081857">
		<tag k="name" v="Notbukta" />
		<tag k="natural" v="bay" />
		<tag k="ssr:stedsnr" v="869473" />
	</node>
	<node id="-794906" lat="70.8835500004" lon="24.9151942978">
		<tag k="name" v="Hareneset" />
		<tag k="natural" v="cape" />
		<tag k="ssr:stedsnr" v="869425" />
	</node>
	<node id="-794905" lat="70.8899972313" lon="24.9308609465">
		<tag k="alt_name" v="Skinnstavik" />
		<tag k="name" v="Skinnstakkvika" />
		<tag k="natural" v="bay" />
		<tag k="ssr:stedsnr" v="869421" />
	</node>
	<node id="-794904" lat="70.7958416649" lon="24.1564721171">
		<tag k="name" v="Lille Rypøya - Rihpat" />
		<tag k="name:no" v="Lille Rypøya" />
		<tag k="name:se" v="Rihpat" />
		<tag k="old_name:no" v="Rypøya, l" />
		<tag k="old_name:se" v="Rippat" />
		<tag k="place" v="island" />
		<tag k="ssr:stedsnr" v="869413" />
	</node>
	<node id="-794901" lat="70.8001583406" lon="24.5936887434">
		<tag k="name" v="Holmesnaget" />
		<tag k="natural" v="cape" />
		<tag k="ssr:stedsnr" v="869403" />
	</node>
	<node id="-794900" lat="70.7780916713" lon="24.2432582063">
		<tag k="fixme" v="multiple name tags, choose one and add the other to alt_name" />
		<tag k="name" v="Sauneset;Sognneset" />
		<tag k="natural" v="cape" />
		<tag k="ssr:stedsnr" v="869396" />
	</node>
	<node id="-794898" lat="70.8121555584" lon="24.496210993">
		<tag k="alt_name" v="Svartbergvika, midtre" />
		<tag k="fixme" v="multiple name tags, choose one and add the other to alt_name" />
		<tag k="name" v="Svartbergvika;Midtre Svartbergvika" />
		<tag k="natural" v="bay" />
		<tag k="ssr:stedsnr" v="869382" />
	</node>
	<node id="-794895" lat="70.8458500035" lon="24.5766665282">
		<tag k="name" v="Finnvikneset" />
		<tag k="natural" v="cape" />
		<tag k="ssr:stedsnr" v="869301" />
	</node>
	<node id="-794893" lat="70.9932222287" lon="24.1037248948">
		<tag k="alt_name" v="Lensmannsnes;Lensmannsneset" />
		<tag k="name" v="Lensmanneset" />
		<tag k="natural" v="cape" />
		<tag k="ssr:stedsnr" v="869255" />
	</node>
	<node id="-794891" lat="70.934200005" lon="24.2031276825">
		<tag k="name" v="Malegrunnen" />
		<tag k="natural" v="shoal" />
		<tag k="place" v="locality" />
		<tag k="ssr:stedsnr" v="869232" />
	</node>
	<node id="-794890" lat="70.9441277797" lon="24.2059637672">
		<tag k="name" v="Lamvika" />
		<tag k="natural" v="bay" />
		<tag k="ssr:stedsnr" v="869224" />
	</node>
	<node id="-794888" lat="70.6963916718" lon="24.6155054133">
		<tag k="name" v="Agnneset - Roahkki" />
		<tag k="name:no" v="Agnneset" />
		<tag k="name:se" v="Roahkki" />
		<tag k="natural" v="cape" />
		<tag k="old_name:se" v="Roakki" />
		<tag k="ssr:stedsnr" v="869190" />
	</node>
	<node id="-794887" lat="70.9364833361" lon="23.9259026953">
		<tag k="name" v="Finnkjerringa" />
		<tag k="natural" v="cape" />
		<tag k="ssr:stedsnr" v="869149" />
	</node>
	<node id="-794886" lat="70.942722226" lon="23.9657943356">
		<tag k="fixme" v="consider seamark:type=rock or natural=shoal" />
		<tag k="name" v="Stoppelfjordskjæret" />
		<tag k="place" v="islet" />
		<tag k="ssr:stedsnr" v="869148" />
	</node>
	<node id="-794885" lat="71.0050166719" lon="23.9187415669">
		<tag k="name" v="Bukta" />
		<tag k="natural" v="bay" />
		<tag k="ssr:stedsnr" v="873528" />
	</node>
	<node id="-794882" lat="70.8614055602" lon="25.3385498141">
		<tag k="name" v="Veidneset - Dávlenjárga" />
		<tag k="name:no" v="Veidneset" />
		<tag k="name:se" v="Dávlenjárga" />
		<tag k="natural" v="cape" />
		<tag k="old_name:se" v="Davlenjarga" />
		<tag k="ssr:stedsnr" v="869009" />
	</node>
	<node id="-794878" lat="70.8546194469" lon="24.1850998882">
		<tag k="name" v="Jernsteinhøgda" />
		<tag k="natural" v="cape" />
		<tag k="ssr:stedsnr" v="838000" />
	</node>
	<node id="-794876" lat="70.8254472262" lon="25.2896220318">
		<tag k="name" v="Øreneset" />
		<tag k="natural" v="cape" />
		<tag k="ssr:stedsnr" v="837916" />
	</node>
	<node id="-794875" lat="70.9963694429" lon="24.1210887862">
		<tag k="name" v="Gunnarnesbukta" />
		<tag k="natural" v="bay" />
		<tag k="ssr:stedsnr" v="837830" />
	</node>
	<node id="-794873" lat="70.8917277831" lon="25.0279220694">
		<tag k="name" v="Alkneset" />
		<tag k="natural" v="cape" />
		<tag k="ssr:stedsnr" v="837135" />
	</node>
	<node id="-794872" lat="71.0350555545" lon="24.9292026352">
		<tag k="name" v="Hollenderbåen" />
		<tag k="place" v="locality" />
		<tag k="seamark:type" v="rock" />
		<tag k="ssr:stedsnr" v="837053" />
	</node>
	<node id="-794865" lat="71.0082500074" lon="24.9739554087">
		<tag k="fixme" v="consider seamark:type=rock or natural=shoal" />
		<tag k="name" v="Nansenskjæret" />
		<tag k="place" v="islet" />
		<tag k="ssr:stedsnr" v="815391" />
	</node>
	<node id="-794860" lat="70.9989555529" lon="23.889961028">
		<tag k="name" v="Løktneset" />
		<tag k="natural" v="cape" />
		<tag k="ssr:stedsnr" v="813470" />
	</node>
	<node id="-794859" lat="71.0044416688" lon="23.8785110094">
		<tag k="fixme" v="consider seamark:type=rock or natural=shoal" />
		<tag k="name" v="Klubben" />
		<tag k="place" v="islet" />
		<tag k="ssr:stedsnr" v="813467" />
	</node>
	<node id="-794858" lat="71.0022777794" lon="23.8995610077">
		<tag k="name" v="Lilleholmen" />
		<tag k="place" v="islet" />
		<tag k="ssr:stedsnr" v="813462" />
	</node>
	<node id="-794856" lat="70.9945972291" lon="24.6214526541">
		<tag k="name" v="Storvikneset" />
		<tag k="natural" v="cape" />
		<tag k="ssr:stedsnr" v="813371" />
	</node>
	<node id="-794855" lat="70.990902778" lon="24.6932442974">
		<tag k="name" v="Guriholneset" />
		<tag k="natural" v="cape" />
		<tag k="ssr:stedsnr" v="813368" />
	</node>
	<node id="-794853" lat="71.0066472248" lon="24.0514832248">
		<tag k="name" v="Langneset" />
		<tag k="natural" v="cape" />
		<tag k="ssr:stedsnr" v="813194" />
	</node>
	<node id="-794852" lat="71.0066472245" lon="24.0699776873">
		<tag k="fixme" v="consider seamark:type=rock or natural=shoal" />
		<tag k="name" v="Hamneskjæret" />
		<tag k="place" v="islet" />
		<tag k="ssr:stedsnr" v="813193" />
	</node>
	<node id="-794848" lat="71.081983336" lon="24.0612582472">
		<tag k="name" v="Ryholmneset" />
		<tag k="natural" v="cape" />
		<tag k="ssr:stedsnr" v="813092" />
	</node>
	<node id="-794847" lat="71.0815416694" lon="24.0230693506">
		<tag k="name" v="Tarreholla" />
		<tag k="natural" v="bay" />
		<tag k="ssr:stedsnr" v="813083" />
	</node>
	<node id="-794843" lat="71.0847611122" lon="24.0103554549">
		<tag k="name" v="Jernsteinodden" />
		<tag k="natural" v="cape" />
		<tag k="ssr:stedsnr" v="813067" />
	</node>
	<node id="-794842" lat="71.063652779" lon="24.0396998998">
		<tag k="name" v="Holmeneset" />
		<tag k="natural" v="cape" />
		<tag k="ssr:stedsnr" v="813046" />
	</node>
	<node id="-794841" lat="71.0706111176" lon="24.1336915624">
		<tag k="name" v="Småvikerholman" />
		<tag k="place" v="islet" />
		<tag k="ssr:stedsnr" v="813042" />
	</node>
	<node id="-794840" lat="71.0783222208" lon="24.1413221258">
		<tag k="name" v="Skjåholmen" />
		<tag k="place" v="islet" />
		<tag k="ssr:stedsnr" v="813020" />
	</node>
	<node id="-794839" lat="71.0873500039" lon="24.1134498903">
		<tag k="alt_name" v="Gyllekoven" />
		<tag k="fixme" v="consider seamark:type=rock or natural=shoal" />
		<tag k="name" v="Yttergilkoven" />
		<tag k="place" v="islet" />
		<tag k="ssr:stedsnr" v="813008" />
	</node>
	<node id="-794831" lat="71.0168805625" lon="24.9508942942">
		<tag k="name" v="Larsvika" />
		<tag k="natural" v="bay" />
		<tag k="ssr:stedsnr" v="809729" />
	</node>
	<node id="-794830" lat="71.056838895" lon="24.9430581916">
		<tag k="name" v="Måsøykalven" />
		<tag k="place" v="islet" />
		<tag k="ssr:stedsnr" v="809706" />
	</node>
	<node id="-794829" lat="71.1015361119" lon="24.7027859726">
		<tag k="name" v="Finnkonneset" />
		<tag k="natural" v="cape" />
		<tag k="ssr:stedsnr" v="809678" />
	</node>
	<node id="-794828" lat="71.1067305551" lon="24.761133199">
		<tag k="name" v="Tarevikneset" />
		<tag k="natural" v="cape" />
		<tag k="ssr:stedsnr" v="809675" />
	</node>
	<node id="-794827" lat="71.1127694519" lon="24.7038220865">
		<tag k="name" v="Gustavvika" />
		<tag k="natural" v="bay" />
		<tag k="ssr:stedsnr" v="809665" />
	</node>
	<node id="-794826" lat="71.0678638906" lon="24.6063082087">
		<tag k="name" v="Skarvsteinen" />
		<tag k="natural" v="cape" />
		<tag k="ssr:stedsnr" v="809654" />
	</node>
	<node id="-794824" lat="71.0047333347" lon="24.0546610067">
		<tag k="alt_name" v="Nordhamna, yt" />
		<tag k="name" v="Ytre Nordhamna" />
		<tag k="natural" v="bay" />
		<tag k="ssr:stedsnr" v="809638" />
	</node>
	<node id="-794823" lat="71.0257416744" lon="24.4517998781">
		<tag k="name" v="Nygrunnen" />
		<tag k="natural" v="shoal" />
		<tag k="place" v="locality" />
		<tag k="ssr:stedsnr" v="809633" />
	</node>
	<node id="-794822" lat="71.0607944479" lon="24.686127646">
		<tag k="alt_name" v="Hjelmsøy" />
		<tag k="name" v="Hjelmsøya" />
		<tag k="place" v="island" />
		<tag k="ssr:stedsnr" v="809597" />
	</node>
	<node id="-794818" lat="70.96280278" lon="24.9574526175">
		<tag k="name" v="Fiskenesbukta" />
		<tag k="natural" v="bay" />
		<tag k="ssr:stedsnr" v="809436" />
	</node>
	<node id="-794816" lat="70.9692138939" lon="24.8986109611">
		<tag k="alt_name" v="Lysgrunnen, yt" />
		<tag k="name" v="Ytre Lysgrunnen" />
		<tag k="natural" v="shoal" />
		<tag k="place" v="locality" />
		<tag k="ssr:stedsnr" v="809434" />
	</node>
	<node id="-794815" lat="71.0685416729" lon="24.7751998518">
		<tag k="name" v="Sætervika" />
		<tag k="natural" v="bay" />
		<tag k="ssr:stedsnr" v="809423" />
	</node>
	<node id="-794814" lat="70.8109666675" lon="24.5146054303">
		<tag k="alt_name" v="Svartbergneset, in" />
		<tag k="name" v="Indre Svartbergneset" />
		<tag k="natural" v="cape" />
		<tag k="ssr:stedsnr" v="809398" />
	</node>
	<node id="-794812" lat="70.8290694523" lon="24.5722415241">
		<tag k="alt_name" v="Guoskovalen" />
		<tag k="name" v="Valen" />
		<tag k="natural" v="strait" />
		<tag k="ssr:stedsnr" v="809381" />
	</node>
	<node id="-794811" lat="70.8038250052" lon="24.2022776643">
		<tag k="alt_name" v="Skjærgrunnen" />
		<tag k="name" v="Skjergrunnen" />
		<tag k="natural" v="shoal" />
		<tag k="place" v="locality" />
		<tag k="ssr:stedsnr" v="809374" />
	</node>
	<node id="-794809" lat="70.9857583335" lon="24.6763887611">
		<tag k="name" v="Gurihola" />
		<tag k="natural" v="bay" />
		<tag k="ssr:stedsnr" v="809350" />
	</node>
	<node id="-794808" lat="70.7616416684" lon="24.3685804231">
		<tag k="name" v="Kvalnesbukta" />
		<tag k="natural" v="bay" />
		<tag k="ssr:stedsnr" v="809342" />
	</node>
	<node id="-794806" lat="70.7576583334" lon="24.3535859766">
		<tag k="alt_name" v="Kvalneset, l" />
		<tag k="name" v="Lille Kvalneset" />
		<tag k="natural" v="cape" />
		<tag k="ssr:stedsnr" v="809338" />
	</node>
	<node id="-794804" lat="70.8688750019" lon="24.3879498855">
		<tag k="name" v="Nonstadneset" />
		<tag k="natural" v="cape" />
		<tag k="ssr:stedsnr" v="809327" />
	</node>
	<node id="-794803" lat="70.9304888913" lon="24.3713887808">
		<tag k="name" v="Storgrunnen" />
		<tag k="natural" v="shoal" />
		<tag k="place" v="locality" />
		<tag k="ssr:stedsnr" v="809313" />
	</node>
	<node id="-794802" lat="70.9204500003" lon="24.5012998797">
		<tag k="alt_name" v="Molla, nordre" />
		<tag k="name" v="Nordre Molla" />
		<tag k="natural" v="bay" />
		<tag k="ssr:stedsnr" v="809302" />
	</node>
	<node id="-794801" lat="70.8233750048" lon="24.2651887667">
		<tag k="alt_name:no" v="Skjærhattevika" />
		<tag k="name" v="Skjerhattvika - Lássáluokta" />
		<tag k="name:no" v="Skjerhattvika" />
		<tag k="name:se" v="Lássáluokta" />
		<tag k="natural" v="bay" />
		<tag k="old_name:se" v="Lassaluokta" />
		<tag k="ssr:stedsnr" v="809286" />
	</node>
	<node id="-794799" lat="70.8673749992" lon="24.5606081996">
		<tag k="alt_name" v="Avløysninga" />
		<tag k="name" v="Avløysingsneset" />
		<tag k="natural" v="cape" />
		<tag k="ssr:stedsnr" v="809276" />
	</node>
	<node id="-794797" lat="70.9995333332" lon="24.4846748725">
		<tag k="alt_name" v="Kjerkegrunnen, yt" />
		<tag k="name" v="Ytre Kjerkegrunnen" />
		<tag k="natural" v="shoal" />
		<tag k="place" v="locality" />
		<tag k="ssr:stedsnr" v="809250" />
	</node>
	<node id="-794792" lat="70.8763055614" lon="25.3614803515">
		<tag k="fixme" v="multiple name tags, choose one and add the other to alt_name" />
		<tag k="name" v="Oterklubben;Klemmavikneset" />
		<tag k="natural" v="cape" />
		<tag k="ssr:stedsnr" v="809031" />
	</node>
	<node id="-794790" lat="70.8351055631" lon="25.2851998192">
		<tag k="name" v="Lille-Kobbøya - Uhcasulloš" />
		<tag k="name:no" v="Lille-Kobbøya" />
		<tag k="name:se" v="Uhcasulloš" />
		<tag k="old_name:se" v="Uccasulluš" />
		<tag k="place" v="island" />
		<tag k="ssr:stedsnr" v="809003" />
	</node>
	<node id="-794789" lat="71.0697833373" lon="25.0197804112">
		<tag k="name" v="Rekvikryggen" />
		<tag k="natural" v="shoal" />
		<tag k="place" v="locality" />
		<tag k="ssr:stedsnr" v="808669" />
	</node>
	<node id="-794788" lat="71.0719138879" lon="24.737555422">
		<tag k="alt_name" v="Setervik" />
		<tag k="name" v="Sætervika" />
		<tag k="natural" v="bay" />
		<tag k="ssr:stedsnr" v="808634" />
	</node>
	<node id="-794785" lat="71.0807361144" lon="24.705758197">
		<tag k="name" v="Sandvika" />
		<tag k="natural" v="bay" />
		<tag k="ssr:stedsnr" v="808621" />
	</node>
	<node id="-794784" lat="71.1144194458" lon="24.1099110076">
		<tag k="alt_name" v="Bårknausen" />
		<tag k="name" v="Båknausen" />
		<tag k="natural" v="shoal" />
		<tag k="place" v="locality" />
		<tag k="ssr:stedsnr" v="808582" />
	</node>
	<node id="-794782" lat="70.8267416677" lon="24.091563784">
		<tag k="name" v="Austerkeila" />
		<tag k="natural" v="bay" />
		<tag k="ssr:stedsnr" v="808249" />
	</node>
	<node id="-794781" lat="70.8397194492" lon="24.4411998868">
		<tag k="name" v="Indre Kvitnesodden" />
		<tag k="natural" v="cape" />
		<tag k="old_name" v="Kvitnesodden, in" />
		<tag k="ssr:stedsnr" v="808242" />
	</node>
	<node id="-794780" lat="70.9201138939" lon="23.9867582496">
		<tag k="fixme" v="consider seamark:type=rock or natural=shoal" />
		<tag k="name" v="Skarvsteinen" />
		<tag k="place" v="islet" />
		<tag k="ssr:stedsnr" v="808127" />
	</node>
	<node id="-794779" lat="70.9336666683" lon="23.9266804514">
		<tag k="name" v="Knarrkjerringa" />
		<tag k="natural" v="cape" />
		<tag k="ssr:stedsnr" v="808123" />
	</node>
	<node id="-794778" lat="70.9431166681" lon="23.8300804716">
		<tag k="name" v="Stoppelfjordgrunnen" />
		<tag k="natural" v="shoal" />
		<tag k="place" v="locality" />
		<tag k="ssr:stedsnr" v="808120" />
	</node>
	<node id="-794777" lat="70.8409722227" lon="24.4407887741">
		<tag k="name" v="Kvitneset" />
		<tag k="natural" v="cape" />
		<tag k="ssr:stedsnr" v="776981" />
	</node>
	<node id="-794776" lat="71.0893055559" lon="23.9907304569">
		<tag k="fixme" v="consider seamark:type=rock or natural=shoal" />
		<tag k="name" v="Leirsundskjæret" />
		<tag k="place" v="islet" />
		<tag k="ssr:stedsnr" v="776980" />
	</node>
	<node id="-794775" lat="70.9908805613" lon="24.18527489">
		<tag k="fixme" v="consider seamark:type=rock or natural=shoal" />
		<tag k="name" v="Kobbeskjæret" />
		<tag k="place" v="islet" />
		<tag k="ssr:stedsnr" v="776812" />
	</node>
	<node id="-794774" lat="70.9678861135" lon="24.220313785">
		<tag k="name" v="Fugleberggrunnen" />
		<tag k="natural" v="shoal" />
		<tag k="place" v="locality" />
		<tag k="ssr:stedsnr" v="776797" />
	</node>
	<node id="-794773" lat="70.9693527842" lon="24.3380665613">
		<tag k="name" v="Seglskallen" />
		<tag k="natural" v="shoal" />
		<tag k="place" v="locality" />
		<tag k="ssr:stedsnr" v="776753" />
	</node>
	<node id="-794772" lat="70.6945333366" lon="24.6096109705">
		<tag k="name" v="Elvevika" />
		<tag k="natural" v="bay" />
		<tag k="ssr:stedsnr" v="776466" />
	</node>
	<node id="-794769" lat="70.8865805559" lon="24.6565776268">
		<tag k="name" v="Ytre Mollvika" />
		<tag k="natural" v="bay" />
		<tag k="ssr:stedsnr" v="776380" />
	</node>
	<node id="-794768" lat="70.7363361183" lon="24.5249415323">
		<tag k="name" v="Sandneset" />
		<tag k="natural" v="cape" />
		<tag k="ssr:stedsnr" v="757766" />
	</node>
	<node id="-794767" lat="70.8599722288" lon="24.3134360039">
		<tag k="name" v="Ytterrevet" />
		<tag k="natural" v="cape" />
		<tag k="ssr:stedsnr" v="757757" />
	</node>
	<node id="-794766" lat="70.9998888954" lon="24.7151081916">
		<tag k="fixme" v="consider seamark:type=rock or natural=shoal" />
		<tag k="name" v="Kråkungan" />
		<tag k="place" v="islet" />
		<tag k="ssr:stedsnr" v="757144" />
	</node>
	<node id="-794764" lat="70.9960166737" lon="24.6107081953">
		<tag k="fixme" v="consider seamark:type=rock or natural=shoal" />
		<tag k="name" v="Storvikskjæret" />
		<tag k="place" v="islet" />
		<tag k="ssr:stedsnr" v="757126" />
	</node>
	<node id="-794762" lat="71.0722083394" lon="24.786010973">
		<tag k="name" v="Sandnessanden" />
		<tag k="natural" v="bay" />
		<tag k="ssr:stedsnr" v="757012" />
	</node>
	<node id="-794757" lat="71.0070416695" lon="25.0047442738">
		<tag k="name" v="Tøllefsenfjæra" />
		<tag k="natural" v="beach" />
		<tag k="place" v="locality" />
		<tag k="ssr:stedsnr" v="754149" />
	</node>
	<node id="-794756" lat="71.0002527819" lon="23.9409610159">
		<tag k="alt_name" v="Fjordbotten" />
		<tag k="name" v="Fjordbotn" />
		<tag k="natural" v="bay" />
		<tag k="ssr:stedsnr" v="869570" />
	</node>
	<node id="-794754" lat="70.989005556" lon="24.0612498979">
		<tag k="name" v="Sandfjordbotten" />
		<tag k="natural" v="bay" />
		<tag k="ssr:stedsnr" v="752215" />
	</node>
	<node id="-794752" lat="71.070475002" lon="24.0379137928">
		<tag k="name" v="Sørenvik" />
		<tag k="natural" v="bay" />
		<tag k="ssr:stedsnr" v="752099" />
	</node>
	<node id="-794750" lat="71.0827250021" lon="24.0649304594">
		<tag k="name" v="Ryholmen" />
		<tag k="place" v="islet" />
		<tag k="ssr:stedsnr" v="752094" />
	</node>
	<node id="-794749" lat="71.088227783" lon="24.0790415633">
		<tag k="name" v="Buholmsundet" />
		<tag k="natural" v="strait" />
		<tag k="ssr:stedsnr" v="752089" />
	</node>
	<node id="-794748" lat="71.0814055579" lon="24.0132138002">
		<tag k="name" v="Valen" />
		<tag k="place" v="locality" />
		<tag k="ssr:stedsnr" v="752087" />
	</node>
	<node id="-794747" lat="71.0540944498" lon="24.074983231">
		<tag k="name" v="Eidnessannan" />
		<tag k="natural" v="beach" />
		<tag k="place" v="locality" />
		<tag k="ssr:stedsnr" v="752040" />
	</node>
	<node id="-794746" lat="71.087094445" lon="24.1383360154">
		<tag k="fixme" v="consider seamark:type=rock or natural=shoal" />
		<tag k="name" v="Kariholla" />
		<tag k="place" v="islet" />
		<tag k="ssr:stedsnr" v="752031" />
	</node>
	<node id="-794745" lat="71.0852000032" lon="24.1330471356">
		<tag k="name" v="Rørnesbukta" />
		<tag k="natural" v="bay" />
		<tag k="ssr:stedsnr" v="752015" />
	</node>
	<node id="-794742" lat="70.9655777785" lon="24.0500915555">
		<tag k="name" v="Lammenarget" />
		<tag k="natural" v="cape" />
		<tag k="ssr:stedsnr" v="751214" />
	</node>
	<node id="-794737" lat="71.0079666694" lon="25.0135859488">
		<tag k="name" v="Østervågen" />
		<tag k="natural" v="bay" />
		<tag k="ssr:stedsnr" v="748738" />
	</node>
	<node id="-794736" lat="71.008716674" lon="25.0288442992">
		<tag k="name" v="Torveneset" />
		<tag k="natural" v="cape" />
		<tag k="ssr:stedsnr" v="748737" />
	</node>
	<node id="-794735" lat="71.0582527809" lon="25.010538728">
		<tag k="name" v="Kobbøygrunnen" />
		<tag k="natural" v="shoal" />
		<tag k="place" v="locality" />
		<tag k="ssr:stedsnr" v="748704" />
	</node>
	<node id="-794734" lat="71.0351388913" lon="24.9395081726">
		<tag k="name" v="Hollendarvika" />
		<tag k="natural" v="bay" />
		<tag k="ssr:stedsnr" v="748692" />
	</node>
	<node id="-794733" lat="71.0507527785" lon="24.9570137432">
		<tag k="name" v="Kalvesundet" />
		<tag k="natural" v="strait" />
		<tag k="ssr:stedsnr" v="748687" />
	</node>
	<node id="-794732" lat="71.0833333362" lon="25.1166665103">
		<tag k="bay" v="fjord" />
		<tag k="name" v="Måsøyfjorden" />
		<tag k="natural" v="bay" />
		<tag k="ssr:stedsnr" v="748680" />
	</node>
	<node id="-794731" lat="71.0975500048" lon="24.7132276488">
		<tag k="name" v="Lendinga" />
		<tag k="natural" v="cape" />
		<tag k="ssr:stedsnr" v="748666" />
	</node>
	<node id="-794728" lat="71.0691472228" lon="24.217258235">
		<tag k="name" v="Stein" />
		<tag k="natural" v="shoal" />
		<tag k="place" v="locality" />
		<tag k="ssr:stedsnr" v="748588" />
	</node>
	<node id="-794727" lat="70.7871444467" lon="24.5802776391">
		<tag k="alt_name" v="Tarvika" />
		<tag k="name" v="Tarevika" />
		<tag k="natural" v="bay" />
		<tag k="ssr:stedsnr" v="748545" />
	</node>
	<node id="-794726" lat="70.81952778" lon="24.4597109711">
		<tag k="name" v="Daudmannsneset" />
		<tag k="natural" v="cape" />
		<tag k="ssr:stedsnr" v="748542" />
	</node>
	<node id="-794721" lat="70.9011500038" lon="25.0464803857">
		<tag k="alt_name" v="Sommarset, in" />
		<tag k="name" v="Indre Sommarset" />
		<tag k="natural" v="cape" />
		<tag k="ssr:stedsnr" v="748442" />
	</node>
	<node id="-794718" lat="71.0360416695" lon="25.0339915159">
		<tag k="name" v="Måsneset" />
		<tag k="natural" v="cape" />
		<tag k="ssr:stedsnr" v="748396" />
	</node>
	<node id="-794713" lat="70.8664027815" lon="24.6863081859">
		<tag k="name" v="Varneset - Rivdnji" />
		<tag k="name:no" v="Varneset" />
		<tag k="name:se" v="Rivdnji" />
		<tag k="natural" v="cape" />
		<tag k="ssr:stedsnr" v="748376" />
	</node>
	<node id="-794711" lat="70.8824361132" lon="24.6667276465">
		<tag k="fixme" v="multiple name tags, choose one and add the other to alt_name" />
		<tag k="name" v="Indre Mollvika;Molvika" />
		<tag k="natural" v="bay" />
		<tag k="ssr:stedsnr" v="748372" />
	</node>
	<node id="-794709" lat="70.7909055596" lon="24.1861026658">
		<tag k="name" v="Notgrunnen" />
		<tag k="natural" v="shoal" />
		<tag k="place" v="locality" />
		<tag k="ssr:stedsnr" v="748363" />
	</node>
	<node id="-794707" lat="70.8118305548" lon="24.2708360051">
		<tag k="name" v="Elvevikneset" />
		<tag k="natural" v="cape" />
		<tag k="ssr:stedsnr" v="748346" />
	</node>
	<node id="-794704" lat="70.7847138952" lon="24.5950943066">
		<tag k="name" v="Sørkjosen" />
		<tag k="natural" v="bay" />
		<tag k="ssr:stedsnr" v="748330" />
	</node>
	<node id="-794702" lat="70.7560888961" lon="24.3486554336">
		<tag k="alt_name" v="Kvalneset, store" />
		<tag k="fixme" v="multiple name tags, choose one and add the other to alt_name" />
		<tag k="name" v="Fellneset;Store Kvalneset" />
		<tag k="natural" v="cape" />
		<tag k="ssr:stedsnr" v="748320" />
	</node>
	<node id="-794701" lat="70.8908638956" lon="24.3390887628">
		<tag k="name" v="Spirgrunnen" />
		<tag k="natural" v="shoal" />
		<tag k="place" v="locality" />
		<tag k="ssr:stedsnr" v="748314" />
	</node>
	<node id="-794699" lat="70.9048027858" lon="24.5498998613">
		<tag k="alt_name" v="Skjervneset" />
		<tag k="name" v="Skjarvodden" />
		<tag k="natural" v="cape" />
		<tag k="ssr:stedsnr" v="748299" />
	</node>
	<node id="-794698" lat="70.896508334" lon="24.0551971088">
		<tag k="name" v="Skoltegrunnen" />
		<tag k="natural" v="shoal" />
		<tag k="place" v="locality" />
		<tag k="ssr:stedsnr" v="748298" />
	</node>
	<node id="-794696" lat="70.8972750029" lon="24.2011248786">
		<tag k="bay" v="fjord" />
		<tag k="name" v="Rolvsøysundet" />
		<tag k="natural" v="bay" />
		<tag k="ssr:stedsnr" v="748295" />
	</node>
	<node id="-794695" lat="70.8657333412" lon="24.3949470907">
		<tag k="name" v="Skjeivmattiskeila" />
		<tag k="natural" v="bay" />
		<tag k="ssr:stedsnr" v="748267" />
	</node>
	<node id="-794694" lat="70.9720916736" lon="24.049533236">
		<tag k="alt_name" v="Gargo, in" />
		<tag k="name" v="Indre Gargo" />
		<tag k="natural" v="cape" />
		<tag k="ssr:stedsnr" v="748257" />
	</node>
	<node id="-794693" lat="70.9684472268" lon="24.1713832221">
		<tag k="alt_name" v="Mortenvika" />
		<tag k="name" v="Mortenbukta" />
		<tag k="natural" v="bay" />
		<tag k="ssr:stedsnr" v="748252" />
	</node>
	<node id="-794689" lat="70.9933722262" lon="24.1552499055">
		<tag k="name" v="Kalvholmen" />
		<tag k="place" v="islet" />
		<tag k="ssr:stedsnr" v="748234" />
	</node>
	<node id="-794687" lat="70.9381666683" lon="24.5456887595">
		<tag k="name" v="Hestneset - Heastanjárga" />
		<tag k="name:no" v="Hestneset" />
		<tag k="name:se" v="Heastanjárga" />
		<tag k="natural" v="cape" />
		<tag k="old_name:se" v="Hæstanjarga" />
		<tag k="ssr:stedsnr" v="748210" />
	</node>
	<node id="-794684" lat="70.9619138926" lon="24.5876526506">
		<tag k="alt_name" v="Hamna, yt" />
		<tag k="fixme" v="multiple name tags, choose one and add the other to alt_name" />
		<tag k="name" v="Kabelbukta;Ytre Hamna" />
		<tag k="natural" v="bay" />
		<tag k="ssr:stedsnr" v="748197" />
	</node>
	<node id="-794683" lat="70.9623916709" lon="24.5678637483">
		<tag k="name" v="Hamneneset" />
		<tag k="natural" v="cape" />
		<tag k="ssr:stedsnr" v="748194" />
	</node>
	<node id="-794682" lat="70.9646055568" lon="24.5663970911">
		<tag k="name" v="Mollvika" />
		<tag k="natural" v="bay" />
		<tag k="ssr:stedsnr" v="748195" />
	</node>
	<node id="-794681" lat="70.9636111115" lon="24.5181415522">
		<tag k="name" v="Nipgrunnen" />
		<tag k="natural" v="shoal" />
		<tag k="place" v="locality" />
		<tag k="ssr:stedsnr" v="748193" />
	</node>
	<node id="-794679" lat="70.9602277847" lon="24.2253360061">
		<tag k="name" v="Krykkjeneset" />
		<tag k="natural" v="cape" />
		<tag k="ssr:stedsnr" v="748187" />
	</node>
	<node id="-794677" lat="70.7494055611" lon="24.3970804259">
		<tag k="alt_name:no" v="Darbobukta" />
		<tag k="name" v="Darbovika - Dárboluokta" />
		<tag k="name:no" v="Darbovika" />
		<tag k="name:se" v="Dárboluokta" />
		<tag k="natural" v="bay" />
		<tag k="old_name:se" v="Darbuluokta" />
		<tag k="ssr:stedsnr" v="748157" />
	</node>
	<node id="-794676" lat="70.7407611104" lon="24.5260165374">
		<tag k="alt_name:no" v="Daumannsnesset;Daumannsneset" />
		<tag k="name" v="Daudmannsneset - Jámežiidnjárga" />
		<tag k="name:no" v="Daudmannsneset" />
		<tag k="name:se" v="Jámežiidnjárga" />
		<tag k="natural" v="cape" />
		<tag k="old_name:se" v="Jamežiidnjarga" />
		<tag k="ssr:stedsnr" v="748154" />
	</node>
	<node id="-794675" lat="70.9657777789" lon="23.9018526821">
		<tag k="fixme" v="consider seamark:type=rock or natural=shoal" />
		<tag k="name" v="Rossvikskjæret" />
		<tag k="place" v="islet" />
		<tag k="ssr:stedsnr" v="748140" />
	</node>
	<node id="-794672" lat="70.9843722227" lon="23.9187721199">
		<tag k="fixme" v="multiple name tags, choose one and add the other to alt_name; consider seamark:type=rock or natural=shoal" />
		<tag k="name" v="Rundskjæret;Steinskjæret" />
		<tag k="place" v="islet" />
		<tag k="ssr:stedsnr" v="748132" />
	</node>
	<node id="-794666" lat="70.9308750083" lon="25.4287692403">
		<tag k="name" v="Stiikonjárga" />
		<tag k="name:se" v="Stiikonjárga" />
		<tag k="natural" v="cape" />
		<tag k="old_name:se" v="Stiikunjarga" />
		<tag k="ssr:stedsnr" v="748053" />
	</node>
	<node id="-794663" lat="70.8537916676" lon="25.233244257">
		<tag k="name" v="Pålsvika" />
		<tag k="natural" v="bay" />
		<tag k="ssr:stedsnr" v="748011" />
	</node>
	<node id="-794660" lat="71.074422223" lon="24.6938665269">
		<tag k="name" v="Hamna" />
		<tag k="natural" v="bay" />
		<tag k="ssr:stedsnr" v="747629" />
	</node>
	<node id="-794657" lat="70.9605833395" lon="25.4352525941">
		<tag k="name" v="Risvika" />
		<tag k="natural" v="bay" />
		<tag k="ssr:stedsnr" v="747453" />
	</node>
	<node id="-794655" lat="70.9282861132" lon="23.9842887835">
		<tag k="name" v="Gåsvika" />
		<tag k="natural" v="bay" />
		<tag k="ssr:stedsnr" v="747130" />
	</node>
	<node id="-794654" lat="70.9241361132" lon="23.9089526953">
		<tag k="name" v="Gåsvikskjæret" />
		<tag k="natural" v="shoal" />
		<tag k="place" v="locality" />
		<tag k="ssr:stedsnr" v="747126" />
	</node>
	<node id="-794653" lat="70.8359805597" lon="24.4974998658">
		<tag k="name" v="Gavlgrunnen" />
		<tag k="natural" v="shoal" />
		<tag k="place" v="locality" />
		<tag k="ssr:stedsnr" v="747255" />
	</node>
	<node id="-794652" lat="70.8209527864" lon="25.2455637077">
		<tag k="name" v="Neselvneset" />
		<tag k="natural" v="cape" />
		<tag k="ssr:stedsnr" v="715909" />
	</node>
	<node id="-794651" lat="70.9971833368" lon="24.107116559">
		<tag k="name" v="Gunnarnesleira" />
		<tag k="natural" v="beach" />
		<tag k="place" v="locality" />
		<tag k="ssr:stedsnr" v="715833" />
	</node>
	<node id="-794650" lat="70.9413361111" lon="24.5105526633">
		<tag k="name" v="Rundgrunnen" />
		<tag k="natural" v="shoal" />
		<tag k="place" v="locality" />
		<tag k="ssr:stedsnr" v="715796" />
	</node>
	<node id="-794648" lat="70.8354222232" lon="24.4400304415">
		<tag k="name" v="Kvitneset" />
		<tag k="natural" v="cape" />
		<tag k="ssr:stedsnr" v="696800" />
	</node>
	<node id="-794646" lat="71.0100111173" lon="24.645960981">
		<tag k="name" v="Segelvika" />
		<tag k="natural" v="bay" />
		<tag k="ssr:stedsnr" v="696159" />
	</node>
	<node id="-794645" lat="71.003925004" lon="24.7185387412">
		<tag k="name" v="Garpholmen" />
		<tag k="place" v="islet" />
		<tag k="ssr:stedsnr" v="696160" />
	</node>
	<node id="-794642" lat="71.0537222276" lon="24.7931970869">
		<tag k="name" v="Russeneset" />
		<tag k="natural" v="cape" />
		<tag k="ssr:stedsnr" v="696072" />
	</node>
	<node id="-794640" lat="71.0786277827" lon="24.8413832036">
		<tag k="fixme" v="consider seamark:type=rock or natural=shoal" />
		<tag k="name" v="Nesseskjæret" />
		<tag k="place" v="islet" />
		<tag k="ssr:stedsnr" v="696053" />
	</node>
	<node id="-794638" lat="71.0616166704" lon="24.776324859">
		<tag k="name" v="Elvevikklubben" />
		<tag k="natural" v="cape" />
		<tag k="ssr:stedsnr" v="696044" />
	</node>
	<node id="-794636" lat="71.0075250029" lon="24.9876304029">
		<tag k="name" v="Holmen" />
		<tag k="place" v="islet" />
		<tag k="ssr:stedsnr" v="694405" />
	</node>
	<node id="-794633" lat="70.9713055576" lon="24.6710498617">
		<tag k="name" v="Kobbevika" />
		<tag k="natural" v="bay" />
		<tag k="ssr:stedsnr" v="693425" />
	</node>
	<node id="-794631" lat="70.9834250009" lon="24.6804276515">
		<tag k="name" v="Sukkertoppneset" />
		<tag k="natural" v="cape" />
		<tag k="ssr:stedsnr" v="692391" />
	</node>
	<node id="-794630" lat="70.8676388931" lon="24.6763165218">
		<tag k="name" v="Varnesbukta" />
		<tag k="natural" v="bay" />
		<tag k="ssr:stedsnr" v="692334" />
	</node>
	<node id="-794628" lat="71.0846611122" lon="24.0610915597">
		<tag k="name" v="Nordneset" />
		<tag k="natural" v="cape" />
		<tag k="ssr:stedsnr" v="692106" />
	</node>
	<node id="-794627" lat="71.0815638902" lon="24.0201693606">
		<tag k="name" v="Glasskavelholla" />
		<tag k="natural" v="bay" />
		<tag k="ssr:stedsnr" v="692102" />
	</node>
	<node id="-794626" lat="71.0787555555" lon="24.008497123">
		<tag k="name" v="Finnesodden" />
		<tag k="natural" v="cape" />
		<tag k="ssr:stedsnr" v="692100" />
	</node>
</osm>
