<?xml version="1.0" encoding="UTF-8"?>
<osm generator="osmapis" version="0.6">
	<node id="-793085" lat="70.6951916668" lon="24.6208943103">
		<tag k="name" v="Tjeldvik" />
		<tag k="place" v="isolated_dwelling" />
		<tag k="ssr:stedsnr" v="898473" />
	</node>
	<node id="-794620" lat="71.0316916651" lon="23.9870360267">
		<tag k="name" v="Gammelsætra" />
		<tag k="place" v="locality" />
		<tag k="ssr:stedsnr" v="958927" />
	</node>
	<node id="-794026" lat="71.0563333333" lon="24.7849915207">
		<tag k="alt_name" v="Kiholmen" />
		<tag k="name" v="Kjeholmen" />
		<tag k="place" v="isolated_dwelling" />
		<tag k="ssr:stedsnr" v="626710" />
	</node>
	<node id="-794234" lat="70.7849388906" lon="24.6034915223">
		<tag k="name" v="Stranda" />
		<tag k="place" v="isolated_dwelling" />
		<tag k="ssr:stedsnr" v="748331" />
	</node>
	<node id="-793959" lat="70.9802055535" lon="23.9957499084">
		<tag k="name" v="Storvik" />
		<tag k="place" v="isolated_dwelling" />
		<tag k="ssr:stedsnr" v="578546" />
	</node>
	<node id="-793335" lat="70.8011166728" lon="24.5906637655">
		<tag k="name" v="Snefjordøya" />
		<tag k="place" v="farm" />
		<tag k="ssr:stedsnr" v="141045" />
	</node>
	<node id="-793449" lat="70.8585444507" lon="24.3256887697">
		<tag k="fixme" v="consider place=hamlet" />
		<tag k="name" v="Burstad" />
		<tag k="place" v="village" />
		<tag k="ssr:stedsnr" v="202265" />
	</node>
	<node id="-793331" lat="70.8662138953" lon="24.3622109838">
		<tag k="name" v="Nonstadnesjordet - Heallu" />
		<tag k="name:no" v="Nonstadnesjordet" />
		<tag k="name:se" v="Heallu" />
		<tag k="old_name:se" v="Hællo" />
		<tag k="place" v="locality" />
		<tag k="ssr:stedsnr" v="141269" />
	</node>
	<node id="-793201" lat="70.6722805629" lon="24.6267776419">
		<tag k="name" v="Vekselvik" />
		<tag k="place" v="locality" />
		<tag k="ssr:stedsnr" v="48460" />
	</node>
	<node id="-793072" lat="70.8662916745" lon="24.6740943076">
		<tag k="name" v="Bakfjord" />
		<tag k="place" v="isolated_dwelling" />
		<tag k="ssr:stedsnr" v="412336" />
	</node>
	<node id="-794349" lat="70.9657055613" lon="25.3685526011">
		<tag k="name" v="Stikkelvåg" />
		<tag k="place" v="isolated_dwelling" />
		<tag k="ssr:stedsnr" v="809485" />
	</node>
	<node id="-793575" lat="71.0049583403" lon="23.9087526817">
		<tag k="fixme" v="consider place=hamlet" />
		<tag k="name" v="Tufjord" />
		<tag k="place" v="village" />
		<tag k="ssr:stedsnr" v="262551" />
	</node>
	<node id="-794219" lat="70.9982777782" lon="24.1164832286">
		<tag k="name" v="Gunnarnes" />
		<tag k="place" v="hamlet" />
		<tag k="ssr:stedsnr" v="748235" />
	</node>
	<node id="-794217" lat="70.994900002" lon="24.1676276632">
		<tag k="name" v="Kalveland" />
		<tag k="place" v="isolated_dwelling" />
		<tag k="ssr:stedsnr" v="748232" />
	</node>
	<node id="-793707" lat="70.7907333345" lon="24.5671081965">
		<tag k="fixme" v="consider place=hamlet" />
		<tag k="name" v="Snefjord - Muorral" />
		<tag k="name:no" v="Snefjord" />
		<tag k="name:se" v="Muorral" />
		<tag k="place" v="village" />
		<tag k="ssr:stedsnr" v="445377" />
	</node>
	<node id="-794215" lat="70.9408333409" lon="24.1382665589">
		<tag k="name" v="Rolvsøyhamn" />
		<tag k="place" v="isolated_dwelling" />
		<tag k="ssr:stedsnr" v="748209" />
	</node>
	<node id="-794469" lat="70.9082972272" lon="24.5819971005">
		<tag k="alt_name" v="Sæter" />
		<tag k="name" v="Sandsæter" />
		<tag k="place" v="locality" />
		<tag k="ssr:stedsnr" v="870315" />
	</node>
	<node id="-792932" lat="70.9714388898" lon="24.043936011">
		<tag k="name" v="Tomastomta" />
		<tag k="place" v="farm" />
		<tag k="ssr:stedsnr" v="328176" />
	</node>
	<node id="-794595" lat="70.9717333339" lon="24.0473859968">
		<tag k="name" v="Gargo" />
		<tag k="place" v="farm" />
		<tag k="ssr:stedsnr" v="935172" />
	</node>
	<node id="-793697" lat="70.8549333334" lon="24.3877359828">
		<tag k="name" v="Rotvikjorda" />
		<tag k="place" v="locality" />
		<tag k="ssr:stedsnr" v="445260" />
	</node>
	<node id="-794336" lat="70.7660500055" lon="24.3190971089">
		<tag k="alt_name:no" v="Sauhamn, yt" />
		<tag k="name" v="Ytre Sauhamn - Sávvenat" />
		<tag k="name:no" v="Ytre Sauhamn" />
		<tag k="name:se" v="Sávvenat" />
		<tag k="old_name:se" v="Savvenat" />
		<tag k="place" v="locality" />
		<tag k="ssr:stedsnr" v="809339" />
	</node>
	<node id="-792850" lat="70.8743472303" lon="25.0231081622">
		<tag k="name" v="Storslått" />
		<tag k="place" v="locality" />
		<tag k="ssr:stedsnr" v="291165" />
	</node>
	<node id="-793691" lat="70.74968334" lon="24.5146054135">
		<tag k="fixme" v="consider place=hamlet" />
		<tag k="name" v="Slåtten - Muotki" />
		<tag k="name:no" v="Slåtten" />
		<tag k="name:se" v="Muotki" />
		<tag k="place" v="village" />
		<tag k="ssr:stedsnr" v="445164" />
	</node>
	<node id="-794071" lat="70.8789777821" lon="24.2880915451">
		<tag k="name" v="Reinøya" />
		<tag k="place" v="isolated_dwelling" />
		<tag k="ssr:stedsnr" v="654300" />
	</node>
	<node id="-794198" lat="70.807697227" lon="25.2406776059">
		<tag k="name" v="Kobbesteinen" />
		<tag k="place" v="locality" />
		<tag k="ssr:stedsnr" v="748111" />
	</node>
	<node id="-793173" lat="70.7142972224" lon="24.5787776489">
		<tag k="fixme" v="multiple name tags, choose one and add the other to alt_name" />
		<tag k="name" v="Latter - Gohppi;Láhttár" />
		<tag k="name:no" v="Latter" />
		<tag k="name:se" v="Gohppi;Láhttár" />
		<tag k="old_name:se" v="Gåppi;Lattar" />
		<tag k="place" v="hamlet" />
		<tag k="ssr:stedsnr" v="24359" />
	</node>
	<node id="-794324" lat="70.9791888943" lon="23.9972387953">
		<tag k="name" v="Sørkjosen" />
		<tag k="place" v="isolated_dwelling" />
		<tag k="ssr:stedsnr" v="809142" />
	</node>
	<node id="-792914" lat="71.0077000067" lon="25.0040442824">
		<tag k="fixme" v="consider place=hamlet" />
		<tag k="name" v="Måsøy" />
		<tag k="place" v="village" />
		<tag k="ssr:stedsnr" v="323712" />
	</node>
	<node id="-793993" lat="70.8724361162" lon="24.9383553893">
		<tag k="name" v="Hamna i Ryggefjord - Hávdna" />
		<tag k="name:no" v="Hamna i Ryggefjord" />
		<tag k="name:se" v="Hávdna" />
		<tag k="old_name:se" v="Havdna" />
		<tag k="place" v="hamlet" />
		<tag k="ssr:stedsnr" v="626431" />
	</node>
	<node id="-793295" lat="71.0809361104" lon="24.0145471193">
		<tag k="name" v="Finnes" />
		<tag k="place" v="hamlet" />
		<tag k="ssr:stedsnr" v="87336" />
	</node>
	<node id="-794190" lat="71.0875055565" lon="24.8035887568">
		<tag k="name" v="Svartvika" />
		<tag k="place" v="hamlet" />
		<tag k="ssr:stedsnr" v="747636" />
	</node>
	<node id="-794572" lat="71.0522027782" lon="24.0153637869">
		<tag k="name" v="Vikran" />
		<tag k="place" v="hamlet" />
		<tag k="ssr:stedsnr" v="930643" />
	</node>
	<node id="-793543" lat="70.7850611183" lon="24.6030026439">
		<tag k="name" v="Stranda" />
		<tag k="place" v="farm" />
		<tag k="ssr:stedsnr" v="208499" />
	</node>
	<node id="-793414" lat="71.0050972246" lon="23.8969971409">
		<tag k="name" v="Været" />
		<tag k="place" v="hamlet" />
		<tag k="ssr:stedsnr" v="145499" />
	</node>
	<node id="-792929" lat="70.9902472271" lon="24.0085637911">
		<tag k="name" v="Kallen" />
		<tag k="place" v="locality" />
		<tag k="ssr:stedsnr" v="327361" />
	</node>
	<node id="-793026" lat="71.0843972283" lon="24.0582221204">
		<tag k="fixme" v="consider place=suburb, village or hamlet" />
		<tag k="name" v="Ingøy" />
		<tag k="place" v="quarter" />
		<tag k="ssr:stedsnr" v="384567" />
	</node>
	<node id="-793408" lat="71.084436113" lon="24.058197126">
		<tag k="name" v="Ytterenga" />
		<tag k="place" v="hamlet" />
		<tag k="ssr:stedsnr" v="145332" />
	</node>
	<node id="-793824" lat="71.0790527789" lon="24.1225387866">
		<tag k="name" v="Myreng" />
		<tag k="place" v="isolated_dwelling" />
		<tag k="ssr:stedsnr" v="509006" />
	</node>
	<node id="-793150" lat="71.0777500068" lon="24.7019887516">
		<tag k="name" v="Sandvikvær" />
		<tag k="place" v="hamlet" />
		<tag k="ssr:stedsnr" v="20668" />
	</node>
	<node id="-793145" lat="71.0100777816" lon="24.0355693387">
		<tag k="name" v="Nordmannselva" />
		<tag k="place" v="isolated_dwelling" />
		<tag k="ssr:stedsnr" v="20644" />
	</node>
	<node id="-793527" lat="70.7906527804" lon="24.5693304145">
		<tag k="name" v="Skavika" />
		<tag k="place" v="hamlet" />
		<tag k="ssr:stedsnr" v="206380" />
	</node>
	<node id="-793270" lat="71.0659888918" lon="24.09907491">
		<tag k="alt_name" v="Seter" />
		<tag k="name" v="Sætra" />
		<tag k="place" v="locality" />
		<tag k="ssr:stedsnr" v="81593" />
	</node>
	<node id="-794249" lat="70.9587361117" lon="24.6572387407">
		<tag k="name" v="Niipamuotki" />
		<tag k="name:se" v="Niipamuotki" />
		<tag k="place" v="isolated_dwelling" />
		<tag k="ssr:stedsnr" v="748408" />
	</node>
	<node id="-793524" lat="71.0606250027" lon="24.0500137947">
		<tag k="name" v="Kjerringnes" />
		<tag k="place" v="isolated_dwelling" />
		<tag k="ssr:stedsnr" v="206046" />
	</node>
	<node id="-793523" lat="71.06336389" lon="24.0851721179">
		<tag k="name" v="Vaktstua" />
		<tag k="place" v="locality" />
		<tag k="ssr:stedsnr" v="206043" />
	</node>
	<node id="-793394" lat="70.6945388906" lon="24.6310054135">
		<tag k="name" v="Angnes" />
		<tag k="place" v="farm" />
		<tag k="ssr:stedsnr" v="141801" />
	</node>
	<node id="-793136" lat="71.070444448" lon="24.0400138061">
		<tag k="alt_name" v="Steinvika" />
		<tag k="name" v="Steinvik" />
		<tag k="place" v="isolated_dwelling" />
		<tag k="ssr:stedsnr" v="20602" />
	</node>
	<node id="-794287" lat="71.005719449" lon="24.9937026257">
		<tag k="name" v="Kilda" />
		<tag k="place" v="locality" />
		<tag k="ssr:stedsnr" v="754151" />
	</node>
	<node id="-793389" lat="71.0247722229" lon="24.0164721239">
		<tag k="alt_name" v="Persand" />
		<tag k="name" v="Perstrand" />
		<tag k="place" v="isolated_dwelling" />
		<tag k="ssr:stedsnr" v="141627" />
	</node>
	<node id="-793515" lat="70.7965583367" lon="24.5670526506">
		<tag k="name" v="Snefjord" />
		<tag k="place" v="farm" />
		<tag k="ssr:stedsnr" v="203052" />
	</node>
	<node id="-794282" lat="71.0023055541" lon="24.0552332277">
		<tag k="name" v="Nordhamna" />
		<tag k="place" v="hamlet" />
		<tag k="ssr:stedsnr" v="752206" />
	</node>
	<node id="-794409" lat="70.8096694487" lon="25.2692386941">
		<tag k="name" v="Kjerringvik - Gálagohppi" />
		<tag k="name:no" v="Kjerringvik" />
		<tag k="name:se" v="Gálagohppi" />
		<tag k="old_name:se" v="Galagåppi" />
		<tag k="place" v="isolated_dwelling" />
		<tag k="ssr:stedsnr" v="870118" />
	</node>
	<node id="-794406" lat="71.024549999" lon="23.9950526821">
		<tag k="name" v="Sætervik" />
		<tag k="place" v="isolated_dwelling" />
		<tag k="ssr:stedsnr" v="837919" />
	</node>
	<node id="-793287" lat="71.0253083367" lon="24.0612971356">
		<tag k="name" v="Eidnes" />
		<tag k="place" v="farm" />
		<tag k="ssr:stedsnr" v="85171" />
	</node>
	<node id="-792957" lat="70.7834083352" lon="24.2497943342">
		<tag k="name" v="Hattvika" />
		<tag k="place" v="locality" />
		<tag k="ssr:stedsnr" v="351280" />
	</node>
	<node id="-793505" lat="71.0765805586" lon="24.7969776515">
		<tag k="name" v="Russesand" />
		<tag k="place" v="hamlet" />
		<tag k="ssr:stedsnr" v="202696" />
	</node>
	<node id="-794144" lat="70.6978972299" lon="24.6533776407">
		<tag k="fixme" v="multiple name tags, choose one and add the other to alt_name; consider place=hamlet" />
		<tag k="name" v="Lillefjord - Uhcavuonaš;Vuotkevuotna" />
		<tag k="name:no" v="Lillefjord" />
		<tag k="name:se" v="Uhcavuonaš;Vuotkevuotna" />
		<tag k="place" v="village" />
		<tag k="ssr:stedsnr" v="688792" />
	</node>
	<node id="-793247" lat="70.9770194503" lon="24.0589221276">
		<tag k="name" v="Olagargo - Gárgu" />
		<tag k="name:no" v="Olagargo" />
		<tag k="name:se" v="Gárgu" />
		<tag k="old_name:se" v="Gargo" />
		<tag k="place" v="isolated_dwelling" />
		<tag k="ssr:stedsnr" v="81280" />
	</node>
	<node id="-793502" lat="71.1025083372" lon="24.7561721014">
		<tag k="name" v="Tarevika" />
		<tag k="place" v="isolated_dwelling" />
		<tag k="ssr:stedsnr" v="202673" />
	</node>
	<node id="-793029" lat="71.0220444455" lon="24.0085221265">
		<tag k="name" v="Bukta" />
		<tag k="place" v="isolated_dwelling" />
		<tag k="ssr:stedsnr" v="384595" />
	</node>
	<node id="-793244" lat="70.7856888921" lon="24.5810109649">
		<tag k="name" v="Seiberg" />
		<tag k="place" v="isolated_dwelling" />
		<tag k="ssr:stedsnr" v="81352" />
	</node>
	<node id="-794410" lat="70.8509472233" lon="25.3640164763">
		<tag k="name" v="Steingammen - Steainnagoahti" />
		<tag k="name:no" v="Steingammen" />
		<tag k="name:se" v="Steainnagoahti" />
		<tag k="old_name:se" v="Stæinagoatti" />
		<tag k="place" v="locality" />
		<tag k="ssr:stedsnr" v="869003" />
	</node>
	<node id="-793815" lat="70.6975083335" lon="24.6557998592">
		<tag k="name" v="Lillefjord" />
		<tag k="place" v="farm" />
		<tag k="ssr:stedsnr" v="505822" />
	</node>
	<node id="-793913" lat="71.0023000022" lon="24.0551387917">
		<tag k="name" v="Nordhamna" />
		<tag k="place" v="hamlet" />
		<tag k="ssr:stedsnr" v="566596" />
	</node>
	<node id="-794288" lat="70.9963333388" lon="24.6621331942">
		<tag k="name" v="Havøysund - Ávanuorri" />
		<tag k="name:no" v="Havøysund" />
		<tag k="name:se" v="Ávanuorri" />
		<tag k="old_name:se" v="Avanuorri" />
		<tag k="place" v="village" />
		<tag k="ssr:stedsnr" v="754383" />
	</node>
	<node id="-794400" lat="71.002750004" lon="23.9346415774">
		<tag k="name" v="Sætra" />
		<tag k="place" v="isolated_dwelling" />
		<tag k="ssr:stedsnr" v="821261" />
	</node>
	<node id="-794507" lat="70.8071694451" lon="24.6253526425">
		<tag k="name" v="Krokelv" />
		<tag k="place" v="locality" />
		<tag k="ssr:stedsnr" v="875437" />
	</node>
	<node id="-793866" lat="70.969861111" lon="24.0981137714">
		<tag k="name" v="Gårdstrand" />
		<tag k="place" v="isolated_dwelling" />
		<tag k="ssr:stedsnr" v="565230" />
	</node>
	<node id="-793609" lat="70.7584611114" lon="24.3599776591">
		<tag k="alt_name" v="Sauhamn, in" />
		<tag k="name" v="Indre Sauhamn" />
		<tag k="place" v="locality" />
		<tag k="ssr:stedsnr" v="263351" />
	</node>
	<node id="-794188" lat="71.062686115" lon="23.9948332263">
		<tag k="name" v="Mafjord" />
		<tag k="place" v="hamlet" />
		<tag k="ssr:stedsnr" v="747541" />
	</node>
	<node id="-794150" lat="71.0786944485" lon="24.065677683">
		<tag k="name" v="Thule" />
		<tag k="place" v="isolated_dwelling" />
		<tag k="ssr:stedsnr" v="692010" />
	</node>
	<node id="-793862" lat="70.8287277875" lon="25.33869703">
		<tag k="name" v="Langnes" />
		<tag k="place" v="isolated_dwelling" />
		<tag k="ssr:stedsnr" v="565106" />
	</node>
	<node id="-794117" lat="71.0791694491" lon="24.1048832481">
		<tag k="alt_name" v="Lenninga" />
		<tag k="name" v="Lendingen" />
		<tag k="place" v="isolated_dwelling" />
		<tag k="ssr:stedsnr" v="687605" />
	</node>
	<node id="-792964" lat="71.0841277813" lon="24.1275082375">
		<tag k="name" v="Sletta" />
		<tag k="place" v="locality" />
		<tag k="ssr:stedsnr" v="351984" />
	</node>
	<node id="-793814" lat="70.6938638935" lon="24.6588915149">
		<tag k="name" v="Myrheim" />
		<tag k="place" v="farm" />
		<tag k="ssr:stedsnr" v="505821" />
	</node>
	<node id="-793857" lat="70.9456027794" lon="23.9650915692">
		<tag k="name" v="Stoppelfjord" />
		<tag k="place" v="locality" />
		<tag k="ssr:stedsnr" v="533931" />
	</node>
</osm>
