<?xml version="1.0" encoding="UTF-8"?>
<osm generator="osmapis" version="0.6">
	<node id="-793851" lat="70.7587666735" lon="24.5370609778">
		<tag k="name" v="Stormyra" />
		<tag k="natural" v="wetland" />
		<tag k="ssr:stedsnr" v="514754" />
	</node>
	<node id="-794611" lat="70.7076416749" lon="24.6049970822">
		<tag k="name" v="Skjærjorda" />
		<tag k="place" v="locality" />
		<tag k="ssr:stedsnr" v="939751" />
	</node>
	<node id="-794605" lat="71.0627416714" lon="24.711324867">
		<tag k="name" v="Stormyra" />
		<tag k="natural" v="wetland" />
		<tag k="ssr:stedsnr" v="939042" />
	</node>
	<node id="-793835" lat="70.9745638944" lon="24.0043998953">
		<tag k="name" v="Gåkkomyra" />
		<tag k="natural" v="wetland" />
		<tag k="ssr:stedsnr" v="510165" />
	</node>
	<node id="-794601" lat="70.9929055587" lon="24.6493081962">
		<tag k="name" v="Klokkarjorda" />
		<tag k="place" v="locality" />
		<tag k="ssr:stedsnr" v="936442" />
	</node>
	<node id="-793192" lat="71.0194416715" lon="24.5867220966">
		<tag k="name" v="Lensmannssteinan" />
		<tag k="natural" v="stone" />
		<tag k="ssr:stedsnr" v="29143" />
	</node>
	<node id="-794086" lat="70.9973944428" lon="24.029702679">
		<tag k="alt_name" v="Hamnemyra;Hamnestormyra" />
		<tag k="name" v="Stormyra" />
		<tag k="natural" v="wetland" />
		<tag k="ssr:stedsnr" v="687232" />
	</node>
	<node id="-793061" lat="71.0038277799" lon="25.0125415107">
		<tag k="name" v="Steinen" />
		<tag k="natural" v="stone" />
		<tag k="ssr:stedsnr" v="393086" />
	</node>
	<node id="-793955" lat="71.0060722293" lon="24.6354165325">
		<tag k="name" v="Stormyra" />
		<tag k="natural" v="wetland" />
		<tag k="ssr:stedsnr" v="575135" />
	</node>
	<node id="-794594" lat="70.9675916726" lon="24.0089693568">
		<tag k="name" v="Gunnarmyra" />
		<tag k="natural" v="wetland" />
		<tag k="ssr:stedsnr" v="935164" />
	</node>
	<node id="-793825" lat="71.0715527775" lon="24.101211017">
		<tag k="name" v="Setermyran" />
		<tag k="natural" v="wetland" />
		<tag k="ssr:stedsnr" v="509007" />
	</node>
	<node id="-793056" lat="70.9824694425" lon="24.0311499044">
		<tag k="name" v="Kjerringmyra" />
		<tag k="natural" v="wetland" />
		<tag k="ssr:stedsnr" v="388491" />
	</node>
	<node id="-794591" lat="70.9942333403" lon="24.0397971208">
		<tag k="name" v="Fielma" />
		<tag k="natural" v="wetland" />
		<tag k="ssr:stedsnr" v="934499" />
	</node>
	<node id="-793950" lat="71.0164138879" lon="24.9765526277">
		<tag k="name" v="Vestervågmyran" />
		<tag k="natural" v="wetland" />
		<tag k="ssr:stedsnr" v="572405" />
	</node>
	<node id="-793051" lat="70.9947222273" lon="24.0854637912">
		<tag k="name" v="Slottmyra" />
		<tag k="natural" v="wetland" />
		<tag k="ssr:stedsnr" v="388212" />
	</node>
	<node id="-793301" lat="71.0833611154" lon="24.7639054122">
		<tag k="name" v="Rækvikmyra" />
		<tag k="natural" v="wetland" />
		<tag k="ssr:stedsnr" v="89034" />
	</node>
	<node id="-793043" lat="71.0752583402" lon="24.1325471103">
		<tag k="name" v="Nedremyr" />
		<tag k="natural" v="wetland" />
		<tag k="ssr:stedsnr" v="388011" />
	</node>
	<node id="-793170" lat="70.9983805596" lon="24.1048443374">
		<tag k="name" v="Slottlandet" />
		<tag k="place" v="locality" />
		<tag k="ssr:stedsnr" v="24219" />
	</node>
	<node id="-793936" lat="70.9925861137" lon="24.6831637665">
		<tag k="name" v="Dampskipssteinen" />
		<tag k="natural" v="stone" />
		<tag k="ssr:stedsnr" v="570311" />
	</node>
	<node id="-793931" lat="71.0522777837" lon="24.0315026718">
		<tag k="name" v="Vikermyran" />
		<tag k="natural" v="wetland" />
		<tag k="ssr:stedsnr" v="570030" />
	</node>
	<node id="-794312" lat="71.0100555566" lon="23.9787693521">
		<tag k="alt_name" v="Kollmyra" />
		<tag k="name" v="Kolmyra" />
		<tag k="natural" v="wetland" />
		<tag k="ssr:stedsnr" v="808527" />
	</node>
	<node id="-793927" lat="71.0742972237" lon="24.1299610139">
		<tag k="name" v="Øvremyr" />
		<tag k="natural" v="wetland" />
		<tag k="ssr:stedsnr" v="570002" />
	</node>
	<node id="-794050" lat="71.0573361123" lon="24.0338193398">
		<tag k="name" v="Langnesmyra" />
		<tag k="natural" v="wetland" />
		<tag k="ssr:stedsnr" v="631042" />
	</node>
	<node id="-793919" lat="71.0069861169" lon="24.6556859738">
		<tag k="alt_name" v="Seglsteinen" />
		<tag k="name" v="Seglstein" />
		<tag k="natural" v="stone" />
		<tag k="ssr:stedsnr" v="566724" />
	</node>
	<node id="-793406" lat="70.9666888927" lon="24.0263693551">
		<tag k="name" v="Kristinamyra" />
		<tag k="natural" v="wetland" />
		<tag k="ssr:stedsnr" v="145179" />
	</node>
	<node id="-793055" lat="70.9990194462" lon="24.0762082244">
		<tag k="name" v="Danseldalmyra" />
		<tag k="natural" v="wetland" />
		<tag k="ssr:stedsnr" v="388490" />
	</node>
	<node id="-793525" lat="70.9976055593" lon="24.0928554682">
		<tag k="name" v="Slotten" />
		<tag k="natural" v="wetland" />
		<tag k="ssr:stedsnr" v="206231" />
	</node>
	<node id="-794164" lat="71.0207361159" lon="24.9724415263">
		<tag k="name" v="Myran bak Lillvarden" />
		<tag k="natural" v="wetland" />
		<tag k="ssr:stedsnr" v="694382" />
	</node>
	<node id="-793296" lat="71.0213250008" lon="24.9955776151">
		<tag k="name" v="Østervågmyran" />
		<tag k="natural" v="wetland" />
		<tag k="ssr:stedsnr" v="87374" />
	</node>
	<node id="-793544" lat="70.7891166679" lon="24.6301637513">
		<tag k="name" v="Jåmyra" />
		<tag k="natural" v="wetland" />
		<tag k="ssr:stedsnr" v="208502" />
	</node>
	<node id="-793633" lat="71.0825694468" lon="24.0460943357">
		<tag k="name" v="Skarsmyra" />
		<tag k="natural" v="wetland" />
		<tag k="ssr:stedsnr" v="267063" />
	</node>
	<node id="-794395" lat="70.7914722267" lon="24.6161415187">
		<tag k="name" v="Løkjord" />
		<tag k="place" v="locality" />
		<tag k="ssr:stedsnr" v="815423" />
	</node>
	<node id="-793750" lat="71.0782611117" lon="24.8161109731">
		<tag k="name" v="Finnvik" />
		<tag k="place" v="locality" />
		<tag k="ssr:stedsnr" v="454038" />
	</node>
	<node id="-794515" lat="71.0686666656" lon="24.7700998657">
		<tag k="name" v="Seter" />
		<tag k="place" v="locality" />
		<tag k="ssr:stedsnr" v="878026" />
	</node>
	<node id="-793234" lat="70.9855888906" lon="23.8836832465">
		<tag k="name" v="Kvannskogan" />
		<tag k="place" v="locality" />
		<tag k="ssr:stedsnr" v="81126" />
	</node>
	<node id="-794511" lat="71.0089194472" lon="25.0223970778">
		<tag k="name" v="Matiasstykket" />
		<tag k="place" v="locality" />
		<tag k="ssr:stedsnr" v="876145" />
	</node>
	<node id="-793453" lat="70.9379861138" lon="25.4779136891">
		<tag k="name" v="Kvitsteinen - Vilgesgeađgi" />
		<tag k="name:no" v="Kvitsteinen" />
		<tag k="name:se" v="Vilgesgeađgi" />
		<tag k="natural" v="stone" />
		<tag k="old_name:se" v="Vilgesgædgi" />
		<tag k="ssr:stedsnr" v="202059" />
	</node>
	<node id="-793740" lat="71.0824777777" lon="24.0318971271">
		<tag k="name" v="Russemyra" />
		<tag k="natural" v="wetland" />
		<tag k="ssr:stedsnr" v="449086" />
	</node>
	<node id="-794374" lat="71.0808333348" lon="24.0292054581">
		<tag k="name" v="Nilsmyra" />
		<tag k="natural" v="wetland" />
		<tag k="ssr:stedsnr" v="813077" />
	</node>
</osm>
