<?xml version="1.0" encoding="UTF-8"?>
<osm generator="osmapis" version="0.6">
	<node id="-801727" lat="70.9453500114" lon="27.3511773407">
		<tag k="name" v="Lebesby kommune" />
		<tag k="ssr:date" v="2016-05-10" />
		<tag k="ssr:gruppe" v="administrativeIndelinger" />
		<tag k="ssr:hovedgruppe" v="offentligAdministrasjon" />
		<tag k="ssr:stedsnr" v="269609" />
		<tag k="ssr:type" v="kommune" />
	</node>
	<node id="-802686" lat="70.5634472389" lon="27.0019384557">
		<tag k="name" v="Lebesbyrenna, SØ.re" />
		<tag k="ssr:date" v="2016-05-10" />
		<tag k="ssr:gruppe" v="navigasjon" />
		<tag k="ssr:hovedgruppe" v="infrastruktur" />
		<tag k="ssr:stedsnr" v="465989" />
		<tag k="ssr:type" v="lanterne" />
	</node>
	<node id="-803261" lat="70.5471389028" lon="26.9520718015">
		<tag k="name" v="Skjånesodden" />
		<tag k="old_name" v="Skjånes lykt" />
		<tag k="ssr:date" v="2016-05-11" />
		<tag k="ssr:gruppe" v="navigasjon" />
		<tag k="ssr:hovedgruppe" v="infrastruktur" />
		<tag k="ssr:stedsnr" v="748654" />
		<tag k="ssr:type" v="fyrlykt" />
	</node>
	<node id="-802556" lat="70.948988901" lon="27.3312190175">
		<tag k="name" v="Kjøllefjord" />
		<tag k="ssr:date" v="2016-05-10" />
		<tag k="ssr:gruppe" v="navigasjon" />
		<tag k="ssr:hovedgruppe" v="infrastruktur" />
		<tag k="ssr:stedsnr" v="268302" />
		<tag k="ssr:type" v="fyrlykt" />
	</node>
	<node id="-802778" lat="71.1333750083" lon="27.6573523107">
		<tag k="name" v="Nordkinn" />
		<tag k="ssr:date" v="2016-05-10" />
		<tag k="ssr:gruppe" v="navigasjon" />
		<tag k="ssr:hovedgruppe" v="infrastruktur" />
		<tag k="ssr:stedsnr" v="510274" />
		<tag k="ssr:type" v="fyrlykt" />
	</node>
	<node id="-802616" lat="71.1333416807" lon="27.6573439662">
		<tag k="name" v="Avløysinga" />
		<tag k="ssr:date" v="2016-05-10" />
		<tag k="ssr:gruppe" v="navigasjon" />
		<tag k="ssr:hovedgruppe" v="infrastruktur" />
		<tag k="ssr:stedsnr" v="445517" />
		<tag k="ssr:type" v="fyrlykt" />
	</node>
	<node id="-802903" lat="70.7542500084" lon="27.1147968053">
		<tag k="name" v="Vardnes" />
		<tag k="ssr:date" v="2016-05-10" />
		<tag k="ssr:gruppe" v="navigasjon" />
		<tag k="ssr:hovedgruppe" v="infrastruktur" />
		<tag k="ssr:stedsnr" v="566814" />
		<tag k="ssr:type" v="fyrlykt" />
	</node>
	<node id="-801845" lat="70.9820500088" lon="27.144157944">
		<tag k="name" v="Store Finnkjerka" />
		<tag k="ssr:date" v="2016-05-10" />
		<tag k="ssr:gruppe" v="navigasjon" />
		<tag k="ssr:hovedgruppe" v="infrastruktur" />
		<tag k="ssr:stedsnr" v="328262" />
		<tag k="ssr:type" v="fyrlykt" />
	</node>
	<node id="-801758" lat="70.5693694543" lon="27.0032440117">
		<tag k="name" v="Lebesbyrenna, NV.re" />
		<tag k="ssr:date" v="2016-05-10" />
		<tag k="ssr:gruppe" v="navigasjon" />
		<tag k="ssr:hovedgruppe" v="infrastruktur" />
		<tag k="ssr:stedsnr" v="283998" />
		<tag k="ssr:type" v="lanterne" />
	</node>
	<node id="-802002" lat="70.5688750152" lon="27.0045245702">
		<tag k="name" v="Lebesbyrenna, NØ.re" />
		<tag k="ssr:date" v="2016-05-10" />
		<tag k="ssr:gruppe" v="navigasjon" />
		<tag k="ssr:hovedgruppe" v="infrastruktur" />
		<tag k="ssr:stedsnr" v="405992" />
		<tag k="ssr:type" v="lanterne" />
	</node>
	<node id="-802512" lat="70.6073111201" lon="27.0076912522">
		<tag k="name" v="Lebesby" />
		<tag k="old_name" v="Stamnes lykt" />
		<tag k="ssr:date" v="2016-05-10" />
		<tag k="ssr:gruppe" v="navigasjon" />
		<tag k="ssr:hovedgruppe" v="infrastruktur" />
		<tag k="ssr:stedsnr" v="262622" />
		<tag k="ssr:type" v="fyrlykt" />
	</node>
	<node id="-802960" lat="70.4442500128" lon="26.6266718604">
		<tag k="name" v="Brattholmen" />
		<tag k="ssr:date" v="2016-05-10" />
		<tag k="ssr:gruppe" v="navigasjon" />
		<tag k="ssr:hovedgruppe" v="infrastruktur" />
		<tag k="ssr:stedsnr" v="625329" />
		<tag k="ssr:type" v="fyrlykt" />
	</node>
	<node id="-801870" lat="70.6688750088" lon="26.6086579751">
		<tag k="name" v="Veidnesholmen molo" />
		<tag k="ssr:date" v="2016-05-10" />
		<tag k="ssr:gruppe" v="navigasjon" />
		<tag k="ssr:hovedgruppe" v="infrastruktur" />
		<tag k="ssr:stedsnr" v="335334" />
		<tag k="ssr:type" v="fyrlykt" />
	</node>
	<node id="-801964" lat="70.6197500153" lon="27.1394689967">
		<tag k="name" v="Lilleskjeret" />
		<tag k="ssr:date" v="2016-05-10" />
		<tag k="ssr:gruppe" v="navigasjon" />
		<tag k="ssr:hovedgruppe" v="infrastruktur" />
		<tag k="ssr:stedsnr" v="390433" />
		<tag k="ssr:type" v="fyrlykt" />
	</node>
	<node id="-803138" lat="70.7752666756" lon="26.7336579632">
		<tag k="name" v="Henrikholmen" />
		<tag k="old_name" v="Henriksholmen" />
		<tag k="ssr:date" v="2016-05-11" />
		<tag k="ssr:gruppe" v="navigasjon" />
		<tag k="ssr:hovedgruppe" v="infrastruktur" />
		<tag k="ssr:stedsnr" v="688267" />
		<tag k="ssr:type" v="fyrlykt" />
	</node>
	<node id="-803590" lat="70.9732472325" lon="27.5554661857">
		<tag k="name" v="Oksefjord" />
		<tag k="ssr:date" v="2016-05-11" />
		<tag k="ssr:gruppe" v="navigasjon" />
		<tag k="ssr:hovedgruppe" v="infrastruktur" />
		<tag k="ssr:stedsnr" v="930204" />
		<tag k="ssr:type" v="fyrlykt" />
	</node>
	<node id="-801829" lat="70.9001139035" lon="27.1830718024">
		<tag k="loc_name" v="Dáigevuotna" />
		<tag k="name" v="Dyfjord" />
		<tag k="ssr:date" v="2016-05-10" />
		<tag k="ssr:gruppe" v="navigasjon" />
		<tag k="ssr:hovedgruppe" v="infrastruktur" />
		<tag k="ssr:stedsnr" v="323768" />
		<tag k="ssr:type" v="fyrlykt" />
	</node>
	<node id="-803011" lat="70.5109777882" lon="26.7505301729">
		<tag k="name" v="Bondøyskjær" />
		<tag k="ssr:date" v="2016-05-10" />
		<tag k="ssr:gruppe" v="navigasjon" />
		<tag k="ssr:hovedgruppe" v="infrastruktur" />
		<tag k="ssr:stedsnr" v="626674" />
		<tag k="ssr:type" v="fyrlykt" />
	</node>
	<node id="-803682" lat="68.4849327361" lon="16.2297866207">
		<tag k="fixme" v="multiple name tags, choose one and add the other to alt_name" />
		<tag k="name" v="Nord-Noreg;Nord-Norge" />
		<tag k="ssr:date" v="2017-05-18" />
		<tag k="ssr:gruppe" v="administrativeIndelinger" />
		<tag k="ssr:hovedgruppe" v="offentligAdministrasjon" />
		<tag k="ssr:stedsnr" v="976106" />
		<tag k="ssr:type" v="annenAdministrativInndeling" />
	</node>
	<node id="-803681" lat="70.5633472369" lon="27.0008106815">
		<tag k="name" v="Lebesbyrenna, SV.re" />
		<tag k="ssr:date" v="2016-05-11" />
		<tag k="ssr:gruppe" v="navigasjon" />
		<tag k="ssr:hovedgruppe" v="infrastruktur" />
		<tag k="ssr:stedsnr" v="951989" />
		<tag k="ssr:type" v="lanterne" />
	</node>
</osm>
