<?xml version="1.0" encoding="UTF-8"?>
<<<<<<< HEAD
<osm version="0.6" generator="osmapis">
	<node lat="65.75094999755596" lon="11.747291672403213" id="-8269">
		<tag k="name" v="Høgøya" />
		<tag k="ssr:date" v="2021-06-08" />
		<tag k="ssr:gruppe" v="navigasjon" />
		<tag k="ssr:hovedgruppe" v="infrastruktur" />
		<tag k="ssr:stedsnr" v="15708" />
		<tag k="ssr:type" v="fyrlykt" />
	</node>
	<node lat="65.82401370584306" lon="12.044061713613832" id="-8270">
		<tag k="name" v="Skogsholmen" />
		<tag k="ssr:date" v="2020-09-15" />
		<tag k="ssr:gruppe" v="navigasjon" />
		<tag k="ssr:hovedgruppe" v="infrastruktur" />
		<tag k="ssr:stedsnr" v="15768" />
		<tag k="ssr:type" v="fyrlykt" />
	</node>
	<node lat="65.72441570050752" lon="11.994367090709694" id="-8329">
		<tag k="name" v="Durmålsskjæret" />
		<tag k="ssr:date" v="2021-06-08" />
		<tag k="ssr:gruppe" v="navigasjon" />
		<tag k="ssr:hovedgruppe" v="infrastruktur" />
		<tag k="ssr:stedsnr" v="76399" />
		<tag k="ssr:type" v="fyrlykt" />
	</node>
	<node lat="65.8783472199106" lon="11.856700000461734" id="-8369">
		<tag k="name" v="Bøksla" />
		<tag k="ssr:date" v="2016-05-10" />
		<tag k="ssr:gruppe" v="navigasjon" />
		<tag k="ssr:hovedgruppe" v="infrastruktur" />
		<tag k="ssr:stedsnr" v="91507" />
		<tag k="ssr:type" v="fyrlykt" />
	</node>
	<node lat="65.5967030287295" lon="11.286824846846887" id="-8397">
		<tag k="name" v="Bremstein" />
		<tag k="old_name" v="Bremsteinen Fyr;Bremstein Fyr" />
		<tag k="ssr:date" v="2020-09-01" />
		<tag k="ssr:gruppe" v="navigasjon" />
		<tag k="ssr:hovedgruppe" v="infrastruktur" />
		<tag k="ssr:stedsnr" v="136566" />
		<tag k="ssr:type" v="fyrstasjon" />
	</node>
	<node lat="65.6441604507782" lon="12.038380064761245" id="-8432">
		<tag k="name" v="Rørøy" />
		<tag k="ssr:date" v="2020-09-15" />
		<tag k="ssr:gruppe" v="navigasjon" />
		<tag k="ssr:hovedgruppe" v="infrastruktur" />
		<tag k="ssr:stedsnr" v="258297" />
		<tag k="ssr:type" v="fyrlykt" />
	</node>
	<node lat="65.62433470895807" lon="12.131429327489172" id="-8446">
		<tag k="name" v="Rotvikodden" />
		<tag k="ssr:date" v="2020-09-15" />
		<tag k="ssr:gruppe" v="navigasjon" />
		<tag k="ssr:hovedgruppe" v="infrastruktur" />
		<tag k="ssr:stedsnr" v="258329" />
		<tag k="ssr:type" v="fyrlykt" />
	</node>
	<node lat="65.85711690397113" lon="11.974753414013485" id="-8568">
		<tag k="name" v="Kalvholmen" />
		<tag k="ssr:date" v="2020-09-15" />
		<tag k="ssr:gruppe" v="navigasjon" />
		<tag k="ssr:hovedgruppe" v="infrastruktur" />
		<tag k="ssr:stedsnr" v="258527" />
		<tag k="ssr:type" v="fyrlykt" />
	</node>
	<node lat="65.65181887411953" lon="11.549219057749943" id="-8652">
		<tag k="name" v="Brynjolvskjæret" />
		<tag k="ssr:date" v="2021-06-08" />
		<tag k="ssr:gruppe" v="navigasjon" />
		<tag k="ssr:hovedgruppe" v="infrastruktur" />
		<tag k="ssr:stedsnr" v="319600" />
		<tag k="ssr:type" v="fyrlykt" />
	</node>
	<node lat="65.69479992529264" lon="11.791625483570591" id="-8818">
		<tag k="name" v="Sundsvoll" />
		<tag k="ssr:date" v="2020-09-15" />
=======
<osm generator="osmapis" version="0.6">
	<node id="-128123" lat="65.6037249976" lon="12.1542027713">
		<tag k="name" v="Ylvingen" />
		<tag k="ssr:date" v="2016-05-11" />
>>>>>>> e1d4bc35ff8a6074a6f2e91616a996b547c36f15
		<tag k="ssr:gruppe" v="navigasjon" />
		<tag k="ssr:hovedgruppe" v="infrastruktur" />
		<tag k="ssr:stedsnr" v="500538" />
		<tag k="ssr:type" v="fyrlykt" />
	</node>
<<<<<<< HEAD
	<node lat="65.84066967171042" lon="11.794496959523576" id="-8958">
		<tag k="name" v="Nordøstre Andholmgrunne" />
		<tag k="old_name" v="Nordaustre Andholmgrunnen;Andholmgrunnen, nordaustre" />
		<tag k="ssr:date" v="2020-09-15" />
=======
	<node id="-127482" lat="65.6243444483" lon="12.1314361098">
		<tag k="name" v="Rotvikodden" />
		<tag k="ssr:date" v="2016-05-10" />
>>>>>>> e1d4bc35ff8a6074a6f2e91616a996b547c36f15
		<tag k="ssr:gruppe" v="navigasjon" />
		<tag k="ssr:hovedgruppe" v="infrastruktur" />
		<tag k="ssr:stedsnr" v="621570" />
		<tag k="ssr:type" v="fyrlykt" />
	</node>
<<<<<<< HEAD
	<node lat="65.67437006085045" lon="12.14279437327538" id="-9080">
		<tag k="name" v="Borgskjær" />
		<tag k="ssr:date" v="2021-06-08" />
=======
	<node id="-129139" lat="65.676152777" lon="11.5469083373">
		<tag k="name" v="Ivarsbraken" />
		<tag k="ssr:date" v="2016-05-11" />
>>>>>>> e1d4bc35ff8a6074a6f2e91616a996b547c36f15
		<tag k="ssr:gruppe" v="navigasjon" />
		<tag k="ssr:hovedgruppe" v="infrastruktur" />
		<tag k="ssr:stedsnr" v="743297" />
		<tag k="ssr:type" v="fyrlykt" />
	</node>
<<<<<<< HEAD
	<node lat="65.73620077604332" lon="11.801673771755057" id="-9082">
		<tag k="name" v="Runden" />
		<tag k="ssr:date" v="2020-09-15" />
=======
	<node id="-127729" lat="65.6947972255" lon="11.7916194398">
		<tag k="name" v="Sundsvoll" />
		<tag k="ssr:date" v="2016-05-10" />
>>>>>>> e1d4bc35ff8a6074a6f2e91616a996b547c36f15
		<tag k="ssr:gruppe" v="navigasjon" />
		<tag k="ssr:hovedgruppe" v="infrastruktur" />
		<tag k="ssr:stedsnr" v="743404" />
		<tag k="ssr:type" v="fyrlykt" />
	</node>
<<<<<<< HEAD
	<node lat="65.6761723829903" lon="11.547128111394521" id="-9092">
		<tag k="name" v="Ivarsbraken" />
		<tag k="ssr:date" v="2020-09-17" />
=======
	<node id="-128623" lat="65.6273527782" lon="11.3961138856">
		<tag k="name" v="Nordholmen" />
		<tag k="ssr:date" v="2016-05-10" />
>>>>>>> e1d4bc35ff8a6074a6f2e91616a996b547c36f15
		<tag k="ssr:gruppe" v="navigasjon" />
		<tag k="ssr:hovedgruppe" v="infrastruktur" />
		<tag k="ssr:stedsnr" v="743609" />
		<tag k="ssr:type" v="fyrlykt" />
	</node>
<<<<<<< HEAD
	<node lat="65.72227262990118" lon="11.93870651952936" id="-9163">
		<tag k="name" v="Sandøykråka" />
		<tag k="ssr:date" v="2020-09-17" />
=======
	<node id="-128238" lat="65.8240055568" lon="12.0440027726">
		<tag k="name" v="Skogsholmen" />
		<tag k="ssr:date" v="2016-05-10" />
>>>>>>> e1d4bc35ff8a6074a6f2e91616a996b547c36f15
		<tag k="ssr:gruppe" v="navigasjon" />
		<tag k="ssr:hovedgruppe" v="infrastruktur" />
		<tag k="ssr:stedsnr" v="804421" />
		<tag k="ssr:type" v="fyrlykt" />
	</node>
<<<<<<< HEAD
	<node lat="65.67538333735928" lon="11.96455555116102" id="-9193">
		<tag k="name" v="Vega kommune" />
=======
	<node id="-129130" lat="65.6743666647" lon="12.1427944404">
		<tag k="name" v="Borgskjær" />
>>>>>>> e1d4bc35ff8a6074a6f2e91616a996b547c36f15
		<tag k="ssr:date" v="2016-05-11" />
		<tag k="ssr:gruppe" v="administrativeIndelinger" />
		<tag k="ssr:hovedgruppe" v="offentligAdministrasjon" />
		<tag k="ssr:stedsnr" v="814276" />
		<tag k="ssr:type" v="kommune" />
	</node>
<<<<<<< HEAD
	<node lat="65.69627041446043" lon="12.065601996117325" id="-9298">
		<tag k="name" v="Torsøy" />
		<tag k="ssr:date" v="2020-09-17" />
=======
	<node id="-128614" lat="65.8730361074" lon="11.8360388978">
		<tag k="name" v="Nordre Buøygrunne" />
		<tag k="ssr:date" v="2016-05-10" />
>>>>>>> e1d4bc35ff8a6074a6f2e91616a996b547c36f15
		<tag k="ssr:gruppe" v="navigasjon" />
		<tag k="ssr:hovedgruppe" v="infrastruktur" />
		<tag k="ssr:stedsnr" v="926415" />
		<tag k="ssr:type" v="fyrlykt" />
	</node>
<<<<<<< HEAD
	<node lat="65.60401666327273" lon="11.766411108413266" id="-9332">
		<tag k="name" v="Håbrannen" />
		<tag k="ssr:date" v="2021-06-08" />
=======
	<node id="-128613" lat="65.8655138862" lon="11.8283888826">
		<tag k="name" v="Sauøygrunnen" />
		<tag k="ssr:date" v="2016-05-10" />
>>>>>>> e1d4bc35ff8a6074a6f2e91616a996b547c36f15
		<tag k="ssr:gruppe" v="navigasjon" />
		<tag k="ssr:hovedgruppe" v="infrastruktur" />
		<tag k="ssr:stedsnr" v="15133" />
		<tag k="ssr:type" v="fyrlykt" />
	</node>
<<<<<<< HEAD
	<node lat="65.57717569548406" lon="11.678797521029756" id="-9343">
		<tag k="name" v="Muddværet" />
		<tag k="ssr:date" v="2021-06-08" />
=======
	<node id="-128483" lat="65.8736305544" lon="11.9496888884">
		<tag k="name" v="Kinnarøytaren" />
		<tag k="ssr:date" v="2016-05-10" />
>>>>>>> e1d4bc35ff8a6074a6f2e91616a996b547c36f15
		<tag k="ssr:gruppe" v="navigasjon" />
		<tag k="ssr:hovedgruppe" v="infrastruktur" />
		<tag k="ssr:stedsnr" v="15538" />
		<tag k="ssr:type" v="fyrlykt" />
	</node>
<<<<<<< HEAD
	<node lat="65.67880184044688" lon="11.598193967359482" id="-9361">
		<tag k="name" v="Bubraken" />
		<tag k="old_name" v="Bubroken" />
		<tag k="ssr:date" v="2020-09-15" />
=======
	<node id="-128096" lat="65.6962694448" lon="12.0656305634">
		<tag k="name" v="Torsøy" />
		<tag k="ssr:date" v="2016-05-11" />
>>>>>>> e1d4bc35ff8a6074a6f2e91616a996b547c36f15
		<tag k="ssr:gruppe" v="navigasjon" />
		<tag k="ssr:hovedgruppe" v="infrastruktur" />
		<tag k="ssr:stedsnr" v="15629" />
		<tag k="ssr:type" v="fyrlykt" />
	</node>
<<<<<<< HEAD
	<node lat="65.7206412955718" lon="12.084972947334672" id="-9462">
=======
	<node id="-128346" lat="65.7204611086" lon="12.0852305521">
>>>>>>> e1d4bc35ff8a6074a6f2e91616a996b547c36f15
		<tag k="name" v="Brokskjær" />
		<tag k="old_name" v="Brokskjeret" />
		<tag k="ssr:date" v="2020-09-15" />
		<tag k="ssr:gruppe" v="navigasjon" />
		<tag k="ssr:hovedgruppe" v="infrastruktur" />
		<tag k="ssr:stedsnr" v="76445" />
		<tag k="ssr:type" v="fyrlykt" />
	</node>
<<<<<<< HEAD
	<node lat="65.71666666418892" lon="11.399999990309302" id="-9487">
		<tag k="name" v="Helløyfloget" />
		<tag k="ssr:date" v="2021-06-08" />
		<tag k="ssr:gruppe" v="sjøbunn" />
		<tag k="ssr:hovedgruppe" v="sjø" />
		<tag k="ssr:stedsnr" v="94190" />
		<tag k="ssr:type" v="renneKløftISjø" />
	</node>
	<node lat="65.62358900649151" lon="11.750866727959325" id="-9515">
		<tag k="name" v="Båtvikholmen" />
		<tag k="ssr:date" v="2020-09-15" />
=======
	<node id="-128473" lat="65.7801527814" lon="11.5800833316">
		<tag k="name" v="Skjærvær" />
		<tag k="old_name" v="Skjervær" />
		<tag k="ssr:date" v="2016-05-10" />
>>>>>>> e1d4bc35ff8a6074a6f2e91616a996b547c36f15
		<tag k="ssr:gruppe" v="navigasjon" />
		<tag k="ssr:hovedgruppe" v="infrastruktur" />
		<tag k="ssr:stedsnr" v="136371" />
		<tag k="ssr:type" v="fyrlykt" />
	</node>
<<<<<<< HEAD
	<node lat="65.62043055462996" lon="11.385663897490735" id="-9526">
		<tag k="name" v="Bremsteinen" />
=======
	<node id="-128728" lat="65.6333055558" lon="11.4713472129">
		<tag k="name" v="Sølibåen" />
>>>>>>> e1d4bc35ff8a6074a6f2e91616a996b547c36f15
		<tag k="ssr:date" v="2016-05-10" />
		<tag k="ssr:gruppe" v="navigasjon" />
		<tag k="ssr:hovedgruppe" v="infrastruktur" />
		<tag k="ssr:stedsnr" v="136592" />
		<tag k="ssr:type" v="fyrlykt" />
	</node>
<<<<<<< HEAD
	<node lat="65.96035251324288" lon="11.887127678909717" id="-9535">
=======
	<node id="-128466" lat="65.9604222202" lon="11.8868833405">
>>>>>>> e1d4bc35ff8a6074a6f2e91616a996b547c36f15
		<tag k="name" v="Ytre Flesan" />
		<tag k="old_name" v="Flesan, ytre" />
		<tag k="ssr:date" v="2020-09-15" />
		<tag k="ssr:gruppe" v="navigasjon" />
		<tag k="ssr:hovedgruppe" v="infrastruktur" />
		<tag k="ssr:stedsnr" v="136925" />
		<tag k="ssr:type" v="fyrlykt" />
	</node>
<<<<<<< HEAD
	<node lat="65.78012688472626" lon="11.580405925963177" id="-9539">
		<tag k="name" v="Skjærvær" />
		<tag k="old_name" v="Skjervær" />
		<tag k="ssr:date" v="2020-09-15" />
=======
	<node id="-128336" lat="65.7244000003" lon="11.9944555535">
		<tag k="name" v="Durmålsskjæret" />
		<tag k="ssr:date" v="2016-05-10" />
>>>>>>> e1d4bc35ff8a6074a6f2e91616a996b547c36f15
		<tag k="ssr:gruppe" v="navigasjon" />
		<tag k="ssr:hovedgruppe" v="infrastruktur" />
		<tag k="ssr:stedsnr" v="136989" />
		<tag k="ssr:type" v="fyrlykt" />
	</node>
<<<<<<< HEAD
	<node lat="65.87355288650936" lon="11.949954063125698" id="-9552">
		<tag k="name" v="Kinnarøytaren" />
		<tag k="ssr:date" v="2020-09-15" />
=======
	<node id="-127181" lat="65.7509499976" lon="11.7472916724">
		<tag k="name" v="Høgøya" />
		<tag k="ssr:date" v="2016-05-10" />
>>>>>>> e1d4bc35ff8a6074a6f2e91616a996b547c36f15
		<tag k="ssr:gruppe" v="navigasjon" />
		<tag k="ssr:hovedgruppe" v="infrastruktur" />
		<tag k="ssr:stedsnr" v="137547" />
		<tag k="ssr:type" v="fyrlykt" />
	</node>
<<<<<<< HEAD
	<node lat="65.86530589938694" lon="11.829002600021646" id="-9652">
		<tag k="name" v="Sauøygrunnen" />
		<tag k="ssr:date" v="2020-09-15" />
=======
	<node id="-128457" lat="65.6204305546" lon="11.3856638975">
		<tag k="name" v="Bremsteinen" />
		<tag k="ssr:date" v="2016-05-10" />
>>>>>>> e1d4bc35ff8a6074a6f2e91616a996b547c36f15
		<tag k="ssr:gruppe" v="navigasjon" />
		<tag k="ssr:hovedgruppe" v="infrastruktur" />
		<tag k="ssr:stedsnr" v="213498" />
		<tag k="ssr:type" v="fyrlykt" />
	</node>
<<<<<<< HEAD
	<node lat="65.8730361074064" lon="11.83603889780505" id="-9653">
		<tag k="name" v="Nordre Buøygrunne" />
=======
	<node id="-127175" lat="65.6787805543" lon="11.5978305518">
		<tag k="name" v="Bubraken" />
		<tag k="old_name" v="Bubroken" />
>>>>>>> e1d4bc35ff8a6074a6f2e91616a996b547c36f15
		<tag k="ssr:date" v="2016-05-10" />
		<tag k="ssr:gruppe" v="navigasjon" />
		<tag k="ssr:hovedgruppe" v="infrastruktur" />
		<tag k="ssr:stedsnr" v="213500" />
		<tag k="ssr:type" v="fyrlykt" />
	</node>
<<<<<<< HEAD
	<node lat="65.62755217529845" lon="11.396777118329885" id="-9678">
		<tag k="name" v="Nordholmen" />
		<tag k="ssr:date" v="2020-09-15" />
=======
	<node id="-128454" lat="65.5965499965" lon="11.2864611188">
		<tag k="name" v="Bremstein" />
		<tag k="old_name" v="Bremsteinen Fyr;Bremstein Fyr" />
		<tag k="ssr:date" v="2016-05-10" />
>>>>>>> e1d4bc35ff8a6074a6f2e91616a996b547c36f15
		<tag k="ssr:gruppe" v="navigasjon" />
		<tag k="ssr:hovedgruppe" v="infrastruktur" />
		<tag k="ssr:stedsnr" v="318587" />
		<tag k="ssr:type" v="fyrlykt" />
	</node>
<<<<<<< HEAD
	<node lat="65.80631944381737" lon="11.76865555766662" id="-9685">
		<tag k="name" v="Arnholmen" />
		<tag k="ssr:date" v="2021-06-08" />
=======
	<node id="-127168" lat="65.5771444462" lon="11.6786694341">
		<tag k="name" v="Muddværet" />
		<tag k="ssr:date" v="2016-05-10" />
>>>>>>> e1d4bc35ff8a6074a6f2e91616a996b547c36f15
		<tag k="ssr:gruppe" v="navigasjon" />
		<tag k="ssr:hovedgruppe" v="infrastruktur" />
		<tag k="ssr:stedsnr" v="318735" />
		<tag k="ssr:type" v="fyrlykt" />
	</node>
<<<<<<< HEAD
	<node lat="65.5685744592356" lon="11.995753848705913" id="-9708">
		<tag k="name" v="Klabben" />
		<tag k="ssr:date" v="2021-06-08" />
=======
	<node id="-128701" lat="65.6521138898" lon="11.5494194512">
		<tag k="name" v="Brynjolvskjæret" />
		<tag k="ssr:date" v="2016-05-10" />
>>>>>>> e1d4bc35ff8a6074a6f2e91616a996b547c36f15
		<tag k="ssr:gruppe" v="navigasjon" />
		<tag k="ssr:hovedgruppe" v="infrastruktur" />
		<tag k="ssr:stedsnr" v="319161" />
		<tag k="ssr:type" v="fyrlykt" />
	</node>
<<<<<<< HEAD
	<node lat="65.63330555579638" lon="11.471347212877752" id="-9759">
		<tag k="name" v="Sølibåen" />
		<tag k="ssr:date" v="2021-06-08" />
=======
	<node id="-127162" lat="65.6040166633" lon="11.7664111084">
		<tag k="name" v="Håbrannen" />
		<tag k="ssr:date" v="2016-05-10" />
>>>>>>> e1d4bc35ff8a6074a6f2e91616a996b547c36f15
		<tag k="ssr:gruppe" v="navigasjon" />
		<tag k="ssr:hovedgruppe" v="infrastruktur" />
		<tag k="ssr:stedsnr" v="341817" />
		<tag k="ssr:type" v="fyrlykt" />
	</node>
<<<<<<< HEAD
	<node lat="65.6285944447471" lon="11.39291110673858" id="-9841">
		<tag k="name" v="Holet" />
		<tag k="ssr:date" v="2021-06-08" />
		<tag k="ssr:gruppe" v="sjøbunn" />
		<tag k="ssr:hovedgruppe" v="sjø" />
		<tag k="ssr:stedsnr" v="384558" />
		<tag k="ssr:type" v="renneKløftISjø" />
	</node>
	<node lat="65.5845219881019" lon="11.922445196482997" id="-9944">
		<tag k="name" v="Bukkholmskjær" />
		<tag k="ssr:date" v="2021-06-08" />
=======
	<node id="-127286" lat="65.8573805524" lon="11.9739000013">
		<tag k="name" v="Kalvholmen" />
		<tag k="ssr:date" v="2016-05-10" />
>>>>>>> e1d4bc35ff8a6074a6f2e91616a996b547c36f15
		<tag k="ssr:gruppe" v="navigasjon" />
		<tag k="ssr:hovedgruppe" v="infrastruktur" />
		<tag k="ssr:stedsnr" v="501149" />
		<tag k="ssr:type" v="fyrlykt" />
	</node>
<<<<<<< HEAD
	<node lat="67.2804027758844" lon="14.376388898255625" id="-9963">
		<tag k="alt_name:no" v="Nordland" />
		<tag k="loc_name:se" v="Nordlándda fylka" />
		<tag k="loc_name:sma" v="Nordlaanten fylhke" />
		<tag k="name" v="Nordland fylke - Nordlánda fylkka" />
		<tag k="name:no" v="Nordland fylke" />
		<tag k="name:smj" v="Nordlánda fylkka" />
		<tag k="ssr:date" v="2021-02-03" />
		<tag k="ssr:gruppe" v="administrativeIndelinger" />
		<tag k="ssr:hovedgruppe" v="offentligAdministrasjon" />
		<tag k="ssr:stedsnr" v="511766" />
		<tag k="ssr:type" v="fylke" />
	</node>
	<node lat="65.78298790531439" lon="12.161357317239853" id="-10270">
		<tag k="name" v="Trollholmgrunnen" />
		<tag k="ssr:date" v="2020-09-15" />
=======
	<node id="-129225" lat="65.7222555531" lon="11.9387194343">
		<tag k="name" v="Sandøykråka" />
		<tag k="ssr:date" v="2016-05-11" />
		<tag k="ssr:gruppe" v="navigasjon" />
		<tag k="ssr:hovedgruppe" v="infrastruktur" />
		<tag k="ssr:stedsnr" v="804421" />
		<tag k="ssr:type" v="fyrlykt" />
	</node>
	<node id="-128434" lat="65.6235888893" lon="11.7508722132">
		<tag k="name" v="Båtvikholmen" />
		<tag k="ssr:date" v="2016-05-10" />
>>>>>>> e1d4bc35ff8a6074a6f2e91616a996b547c36f15
		<tag k="ssr:gruppe" v="navigasjon" />
		<tag k="ssr:hovedgruppe" v="infrastruktur" />
		<tag k="ssr:stedsnr" v="744641" />
		<tag k="ssr:type" v="fyrlykt" />
	</node>
	<node lat="65.60371890747702" lon="12.154197623361847" id="-10308">
		<tag k="name" v="Ylvingen" />
		<tag k="ssr:date" v="2020-09-17" />
		<tag k="ssr:gruppe" v="navigasjon" />
		<tag k="ssr:hovedgruppe" v="infrastruktur" />
		<tag k="ssr:stedsnr" v="804176" />
		<tag k="ssr:type" v="fyrlykt" />
	</node>
<<<<<<< HEAD
	<node lat="65.87621388694144" lon="11.75812221145423" id="-10473">
		<tag k="name" v="Bekken" />
		<tag k="ssr:date" v="2016-05-11" />
		<tag k="ssr:gruppe" v="sjøbunn" />
		<tag k="ssr:hovedgruppe" v="sjø" />
		<tag k="ssr:stedsnr" v="942485" />
		<tag k="ssr:type" v="renneKløftISjø" />
=======
	<node id="-127267" lat="65.6441666674" lon="12.0383750071">
		<tag k="name" v="Rørøy" />
		<tag k="ssr:date" v="2016-05-10" />
		<tag k="ssr:gruppe" v="navigasjon" />
		<tag k="ssr:hovedgruppe" v="infrastruktur" />
		<tag k="ssr:stedsnr" v="258297" />
		<tag k="ssr:type" v="fyrlykt" />
	</node>
	<node id="-127261" lat="65.8783472199" lon="11.8567000005">
		<tag k="name" v="Bøksla" />
		<tag k="ssr:date" v="2016-05-10" />
		<tag k="ssr:gruppe" v="navigasjon" />
		<tag k="ssr:hovedgruppe" v="infrastruktur" />
		<tag k="ssr:stedsnr" v="91507" />
		<tag k="ssr:type" v="fyrlykt" />
	</node>
	<node id="-129433" lat="69.6388889725" lon="30.5666644427">
		<tag k="fixme" v="multiple name tags, choose one and add the other to alt_name" />
		<tag k="loc_name:se" v="Norgga gonagasriika" />
		<tag k="loc_name:sma" v="Nöörjen gånkarïjhke" />
		<tag k="loc_name:smj" v="Vuona gånågisrijkka" />
		<tag k="name" v="Noreg;Norge" />
		<tag k="name:en" v="Norway" />
		<tag k="name:no" v="Noreg;Norge" />
		<tag k="ssr:date" v="2020-06-04" />
		<tag k="ssr:gruppe" v="administrativeIndelinger" />
		<tag k="ssr:hovedgruppe" v="offentligAdministrasjon" />
		<tag k="ssr:stedsnr" v="26330" />
		<tag k="ssr:type" v="nasjon" />
	</node>
	<node id="-127637" lat="65.5845805537" lon="11.922688885">
		<tag k="name" v="Bukkholmskjær" />
		<tag k="ssr:date" v="2016-05-10" />
		<tag k="ssr:gruppe" v="navigasjon" />
		<tag k="ssr:hovedgruppe" v="infrastruktur" />
		<tag k="ssr:stedsnr" v="501149" />
		<tag k="ssr:type" v="fyrlykt" />
	</node>
	<node id="-128659" lat="65.8063194438" lon="11.7686555577">
		<tag k="name" v="Arnholmen" />
		<tag k="ssr:date" v="2016-05-10" />
		<tag k="ssr:gruppe" v="navigasjon" />
		<tag k="ssr:hovedgruppe" v="infrastruktur" />
		<tag k="ssr:stedsnr" v="318735" />
		<tag k="ssr:type" v="fyrlykt" />
	</node>
	<node id="-129042" lat="65.8409111127" lon="11.794547221">
		<tag k="name" v="Nordøstre Andholmgrunne" />
		<tag k="old_name" v="Nordaustre Andholmgrunnen;Andholmgrunnen, nordaustre" />
		<tag k="ssr:date" v="2016-05-10" />
		<tag k="ssr:gruppe" v="navigasjon" />
		<tag k="ssr:hovedgruppe" v="infrastruktur" />
		<tag k="ssr:stedsnr" v="621570" />
		<tag k="ssr:type" v="fyrlykt" />
	</node>
	<node id="-129296" lat="65.6753833374" lon="11.9645555512">
		<tag k="name" v="Vega kommune" />
		<tag k="ssr:date" v="2016-05-11" />
		<tag k="ssr:gruppe" v="administrativeIndelinger" />
		<tag k="ssr:hovedgruppe" v="offentligAdministrasjon" />
		<tag k="ssr:stedsnr" v="814276" />
		<tag k="ssr:type" v="kommune" />
	</node>
	<node id="-129166" lat="65.7830638902" lon="12.1613722144">
		<tag k="name" v="Trollholmgrunnen" />
		<tag k="ssr:date" v="2016-05-11" />
		<tag k="ssr:gruppe" v="navigasjon" />
		<tag k="ssr:hovedgruppe" v="infrastruktur" />
		<tag k="ssr:stedsnr" v="744641" />
		<tag k="ssr:type" v="fyrlykt" />
	</node>
	<node id="-128010" lat="65.7362611118" lon="11.8014777765">
		<tag k="name" v="Runden" />
		<tag k="ssr:date" v="2016-05-11" />
		<tag k="ssr:gruppe" v="navigasjon" />
		<tag k="ssr:hovedgruppe" v="infrastruktur" />
		<tag k="ssr:stedsnr" v="743404" />
		<tag k="ssr:type" v="fyrlykt" />
	</node>
	<node id="-128649" lat="65.5685861075" lon="11.9958944416">
		<tag k="name" v="Klabben" />
		<tag k="ssr:date" v="2016-05-10" />
		<tag k="ssr:gruppe" v="navigasjon" />
		<tag k="ssr:hovedgruppe" v="infrastruktur" />
		<tag k="ssr:stedsnr" v="319161" />
		<tag k="ssr:type" v="fyrlykt" />
>>>>>>> e1d4bc35ff8a6074a6f2e91616a996b547c36f15
	</node>
</osm>
