<?xml version="1.0" encoding="UTF-8"?>
<<<<<<< HEAD
<osm version="0.6" generator="osmapis">
	<node lat="61.31751250737082" lon="9.888666144921467" id="-25696">
		<tag k="name" v="Benndalsvegen" />
=======
<osm generator="osmapis" version="0.6">
	<node id="-382592" lat="61.3861201059" lon="9.89464285018">
		<tag k="name" v="Oppgardsbua" />
		<tag k="ssr:date" v="2019-12-27" />
		<tag k="ssr:gruppe" v="veg" />
		<tag k="ssr:hovedgruppe" v="infrastruktur" />
		<tag k="ssr:stedsnr" v="983021" />
		<tag k="ssr:type" v="adressenavn" />
	</node>
	<node id="-382591" lat="61.3660048314" lon="9.84481574499">
		<tag k="name" v="Lonhaughøgda" />
		<tag k="ssr:date" v="2019-12-27" />
		<tag k="ssr:gruppe" v="veg" />
		<tag k="ssr:hovedgruppe" v="infrastruktur" />
		<tag k="ssr:stedsnr" v="983020" />
		<tag k="ssr:type" v="adressenavn" />
	</node>
	<node id="-382590" lat="61.3859371049" lon="9.63873120998">
		<tag k="name" v="Storfjellroa" />
		<tag k="ssr:date" v="2019-12-27" />
		<tag k="ssr:gruppe" v="veg" />
		<tag k="ssr:hovedgruppe" v="infrastruktur" />
		<tag k="ssr:stedsnr" v="983019" />
		<tag k="ssr:type" v="adressenavn" />
	</node>
	<node id="-382589" lat="61.2135218765" lon="9.54095176998">
		<tag k="name" v="Skruvdalsbua" />
		<tag k="ssr:date" v="2019-12-27" />
		<tag k="ssr:gruppe" v="veg" />
		<tag k="ssr:hovedgruppe" v="infrastruktur" />
		<tag k="ssr:stedsnr" v="983018" />
		<tag k="ssr:type" v="adressenavn" />
	</node>
	<node id="-382588" lat="61.3836391185" lon="9.54136214416">
		<tag k="name" v="Ulstein" />
		<tag k="ssr:date" v="2019-12-27" />
		<tag k="ssr:gruppe" v="veg" />
		<tag k="ssr:hovedgruppe" v="infrastruktur" />
		<tag k="ssr:stedsnr" v="983017" />
		<tag k="ssr:type" v="adressenavn" />
	</node>
	<node id="-382587" lat="61.2499409957" lon="9.50948598875">
		<tag k="name" v="Skardbua" />
		<tag k="ssr:date" v="2019-12-27" />
		<tag k="ssr:gruppe" v="veg" />
		<tag k="ssr:hovedgruppe" v="infrastruktur" />
		<tag k="ssr:stedsnr" v="982967" />
		<tag k="ssr:type" v="adressenavn" />
	</node>
	<node id="-382586" lat="61.2373455575" lon="9.51414433042">
		<tag k="name" v="Skytterbua" />
		<tag k="ssr:date" v="2019-12-27" />
		<tag k="ssr:gruppe" v="veg" />
		<tag k="ssr:hovedgruppe" v="infrastruktur" />
		<tag k="ssr:stedsnr" v="982966" />
		<tag k="ssr:type" v="adressenavn" />
	</node>
	<node id="-382585" lat="61.3234205923" lon="9.66034153159">
		<tag k="name" v="Ongsjølia" />
		<tag k="ssr:date" v="2019-12-27" />
		<tag k="ssr:gruppe" v="veg" />
		<tag k="ssr:hovedgruppe" v="infrastruktur" />
		<tag k="ssr:stedsnr" v="982965" />
		<tag k="ssr:type" v="adressenavn" />
	</node>
	<node id="-382584" lat="61.2176115041" lon="9.98510592556">
		<tag k="name" v="Kårfallslettet" />
		<tag k="ssr:date" v="2019-12-27" />
		<tag k="ssr:gruppe" v="veg" />
		<tag k="ssr:hovedgruppe" v="infrastruktur" />
		<tag k="ssr:stedsnr" v="982964" />
		<tag k="ssr:type" v="adressenavn" />
	</node>
	<node id="-382583" lat="61.2448184153" lon="9.94820428675">
		<tag k="name" v="Smelihusan" />
		<tag k="ssr:date" v="2019-12-27" />
		<tag k="ssr:gruppe" v="veg" />
		<tag k="ssr:hovedgruppe" v="infrastruktur" />
		<tag k="ssr:stedsnr" v="982963" />
		<tag k="ssr:type" v="adressenavn" />
	</node>
	<node id="-382582" lat="61.2403870818" lon="9.96293877573">
		<tag k="name" v="Moslettbua" />
		<tag k="ssr:date" v="2019-12-27" />
		<tag k="ssr:gruppe" v="veg" />
		<tag k="ssr:hovedgruppe" v="infrastruktur" />
		<tag k="ssr:stedsnr" v="982962" />
		<tag k="ssr:type" v="adressenavn" />
	</node>
	<node id="-382581" lat="61.2785609534" lon="9.7846761072">
		<tag k="name" v="Mossjøen" />
		<tag k="ssr:date" v="2019-12-27" />
		<tag k="ssr:gruppe" v="veg" />
		<tag k="ssr:hovedgruppe" v="infrastruktur" />
		<tag k="ssr:stedsnr" v="982961" />
		<tag k="ssr:type" v="adressenavn" />
	</node>
	<node id="-382580" lat="61.2841781017" lon="9.80664499842">
		<tag k="name" v="Svabekkbua" />
		<tag k="ssr:date" v="2019-12-27" />
		<tag k="ssr:gruppe" v="veg" />
		<tag k="ssr:hovedgruppe" v="infrastruktur" />
		<tag k="ssr:stedsnr" v="982960" />
		<tag k="ssr:type" v="adressenavn" />
	</node>
	<node id="-382579" lat="61.2813546638" lon="9.6445338355">
		<tag k="name" v="Tverrlia" />
		<tag k="ssr:date" v="2019-12-27" />
		<tag k="ssr:gruppe" v="veg" />
		<tag k="ssr:hovedgruppe" v="infrastruktur" />
		<tag k="ssr:stedsnr" v="982959" />
		<tag k="ssr:type" v="adressenavn" />
	</node>
	<node id="-382578" lat="61.2846448696" lon="9.64739983508">
		<tag k="name" v="Tverrlibua" />
		<tag k="ssr:date" v="2019-12-27" />
		<tag k="ssr:gruppe" v="veg" />
		<tag k="ssr:hovedgruppe" v="infrastruktur" />
		<tag k="ssr:stedsnr" v="982958" />
		<tag k="ssr:type" v="adressenavn" />
	</node>
	<node id="-382577" lat="61.23496783" lon="9.84090795837">
		<tag k="name" v="Dunglungen" />
		<tag k="ssr:date" v="2019-12-27" />
		<tag k="ssr:gruppe" v="veg" />
		<tag k="ssr:hovedgruppe" v="infrastruktur" />
		<tag k="ssr:stedsnr" v="982957" />
		<tag k="ssr:type" v="adressenavn" />
	</node>
	<node id="-382576" lat="61.2362201429" lon="9.8644880997">
		<tag k="name" v="Gulsandlia" />
		<tag k="ssr:date" v="2019-12-27" />
		<tag k="ssr:gruppe" v="veg" />
		<tag k="ssr:hovedgruppe" v="infrastruktur" />
		<tag k="ssr:stedsnr" v="982956" />
		<tag k="ssr:type" v="adressenavn" />
	</node>
	<node id="-382575" lat="61.2728888036" lon="9.70411501937">
		<tag k="name" v="Grytlia" />
		<tag k="ssr:date" v="2019-12-27" />
		<tag k="ssr:gruppe" v="veg" />
		<tag k="ssr:hovedgruppe" v="infrastruktur" />
		<tag k="ssr:stedsnr" v="982955" />
		<tag k="ssr:type" v="adressenavn" />
	</node>
	<node id="-382574" lat="61.2010364694" lon="9.58146907161">
		<tag k="name" v="Reinsjøbua" />
		<tag k="ssr:date" v="2019-12-27" />
		<tag k="ssr:gruppe" v="veg" />
		<tag k="ssr:hovedgruppe" v="infrastruktur" />
		<tag k="ssr:stedsnr" v="982954" />
		<tag k="ssr:type" v="adressenavn" />
	</node>
	<node id="-382573" lat="61.2614961816" lon="9.72114246057">
		<tag k="name" v="Røverhulen" />
		<tag k="ssr:date" v="2019-12-27" />
		<tag k="ssr:gruppe" v="veg" />
		<tag k="ssr:hovedgruppe" v="infrastruktur" />
		<tag k="ssr:stedsnr" v="982953" />
		<tag k="ssr:type" v="adressenavn" />
	</node>
	<node id="-382572" lat="61.1281149078" lon="10.0926718801">
		<tag k="name" v="Hindalssjøhytta" />
>>>>>>> e1d4bc35ff8a6074a6f2e91616a996b547c36f15
		<tag k="ssr:date" v="2019-12-27" />
		<tag k="ssr:gruppe" v="veg" />
		<tag k="ssr:hovedgruppe" v="infrastruktur" />
		<tag k="ssr:stedsnr" v="982952" />
		<tag k="ssr:type" v="adressenavn" />
	</node>
<<<<<<< HEAD
	<node lat="61.37053888615481" lon="9.735138888393697" id="-26857">
		<tag k="name" v="Kveinnslåvegen" />
=======
	<node id="-382571" lat="61.3339494247" lon="9.73590657077">
		<tag k="name" v="Ongsjøvegen" />
		<tag k="ssr:date" v="2019-12-27" />
		<tag k="ssr:gruppe" v="veg" />
		<tag k="ssr:hovedgruppe" v="infrastruktur" />
		<tag k="ssr:stedsnr" v="982951" />
		<tag k="ssr:type" v="adressenavn" />
	</node>
	<node id="-382570" lat="61.3326346769" lon="9.75947576027">
		<tag k="name" v="Finndalen" />
		<tag k="ssr:date" v="2019-12-27" />
		<tag k="ssr:gruppe" v="veg" />
		<tag k="ssr:hovedgruppe" v="infrastruktur" />
		<tag k="ssr:stedsnr" v="982950" />
		<tag k="ssr:type" v="adressenavn" />
	</node>
	<node id="-382569" lat="61.3037107767" lon="9.87534336934">
		<tag k="name" v="Keikvegen" />
		<tag k="ssr:date" v="2019-12-27" />
		<tag k="ssr:gruppe" v="veg" />
		<tag k="ssr:hovedgruppe" v="infrastruktur" />
		<tag k="ssr:stedsnr" v="982949" />
		<tag k="ssr:type" v="adressenavn" />
	</node>
	<node id="-382568" lat="61.2999888705" lon="9.89129294473">
		<tag k="name" v="Rosmyrvegen" />
		<tag k="ssr:date" v="2019-12-27" />
		<tag k="ssr:gruppe" v="veg" />
		<tag k="ssr:hovedgruppe" v="infrastruktur" />
		<tag k="ssr:stedsnr" v="982948" />
		<tag k="ssr:type" v="adressenavn" />
	</node>
	<node id="-382567" lat="61.2628149606" lon="10.0086337734">
		<tag k="name" v="Aulstadlia" />
>>>>>>> e1d4bc35ff8a6074a6f2e91616a996b547c36f15
		<tag k="ssr:date" v="2019-12-27" />
		<tag k="ssr:gruppe" v="veg" />
		<tag k="ssr:hovedgruppe" v="infrastruktur" />
		<tag k="ssr:stedsnr" v="982947" />
		<tag k="ssr:type" v="adressenavn" />
	</node>
<<<<<<< HEAD
	<node lat="61.22313366638743" lon="9.657513053415512" id="-27039">
		<tag k="name" v="Vågskard" />
		<tag k="ssr:date" v="2019-12-27" />
		<tag k="ssr:gruppe" v="veg" />
		<tag k="ssr:hovedgruppe" v="infrastruktur" />
		<tag k="ssr:stedsnr" v="982945" />
		<tag k="ssr:type" v="adressenavn" />
	</node>
	<node lat="61.38363911854744" lon="9.54136214416285" id="-27040">
		<tag k="name" v="Ulstein" />
=======
	<node id="-382566" lat="61.2254917939" lon="9.90834764836">
		<tag k="name" v="Hynnkroken" />
		<tag k="ssr:date" v="2019-12-27" />
		<tag k="ssr:gruppe" v="veg" />
		<tag k="ssr:hovedgruppe" v="infrastruktur" />
		<tag k="ssr:stedsnr" v="982946" />
		<tag k="ssr:type" v="adressenavn" />
	</node>
	<node id="-382565" lat="61.2231336664" lon="9.65751305342">
		<tag k="name" v="Vågskard" />
		<tag k="ssr:date" v="2019-12-27" />
		<tag k="ssr:gruppe" v="veg" />
		<tag k="ssr:hovedgruppe" v="infrastruktur" />
		<tag k="ssr:stedsnr" v="982945" />
		<tag k="ssr:type" v="adressenavn" />
	</node>
	<node id="-382564" lat="61.2231354904" lon="9.7423673032">
		<tag k="name" v="Tjyruverket" />
		<tag k="ssr:date" v="2019-12-27" />
		<tag k="ssr:gruppe" v="veg" />
		<tag k="ssr:hovedgruppe" v="infrastruktur" />
		<tag k="ssr:stedsnr" v="982739" />
		<tag k="ssr:type" v="adressenavn" />
	</node>
	<node id="-382563" lat="61.2100136824" lon="9.82989346512">
		<tag k="name" v="Dokklia" />
		<tag k="ssr:date" v="2019-12-27" />
		<tag k="ssr:gruppe" v="veg" />
		<tag k="ssr:hovedgruppe" v="infrastruktur" />
		<tag k="ssr:stedsnr" v="982738" />
		<tag k="ssr:type" v="adressenavn" />
	</node>
	<node id="-382562" lat="61.1740774259" lon="9.95729062221">
		<tag k="name" v="Snakholvegen" />
		<tag k="ssr:date" v="2019-12-27" />
		<tag k="ssr:gruppe" v="veg" />
		<tag k="ssr:hovedgruppe" v="infrastruktur" />
		<tag k="ssr:stedsnr" v="982737" />
		<tag k="ssr:type" v="adressenavn" />
	</node>
	<node id="-382561" lat="61.1883116736" lon="10.0616268884">
		<tag k="name" v="Dyrkningsfeltan" />
		<tag k="ssr:date" v="2019-12-27" />
		<tag k="ssr:gruppe" v="veg" />
		<tag k="ssr:hovedgruppe" v="infrastruktur" />
		<tag k="ssr:stedsnr" v="982736" />
		<tag k="ssr:type" v="adressenavn" />
	</node>
	<node id="-382560" lat="61.1359321582" lon="10.1661838209">
		<tag k="name" v="Grøtåsvegen" />
		<tag k="ssr:date" v="2019-12-27" />
		<tag k="ssr:gruppe" v="veg" />
		<tag k="ssr:hovedgruppe" v="infrastruktur" />
		<tag k="ssr:stedsnr" v="982735" />
		<tag k="ssr:type" v="adressenavn" />
	</node>
	<node id="-379756" lat="61.2278903717" lon="10.0498324614">
		<tag k="name" v="Graffermorkvegen" />
		<tag k="ssr:date" v="2019-12-27" />
		<tag k="ssr:gruppe" v="veg" />
		<tag k="ssr:hovedgruppe" v="infrastruktur" />
		<tag k="ssr:stedsnr" v="52565" />
		<tag k="ssr:type" v="adressenavn" />
	</node>
	<node id="-382302" lat="61.2268472247" lon="10.2214472233">
		<tag k="name" v="Gausdal kommune" />
		<tag k="ssr:date" v="2019-12-27" />
		<tag k="ssr:gruppe" v="administrativeIndelinger" />
		<tag k="ssr:hovedgruppe" v="offentligAdministrasjon" />
		<tag k="ssr:stedsnr" v="875897" />
		<tag k="ssr:type" v="kommune" />
	</node>
	<node id="-381689" lat="61.2994027755" lon="9.89295555424">
		<tag k="name" v="Tossendalvegen" />
		<tag k="ssr:date" v="2019-12-27" />
		<tag k="ssr:gruppe" v="veg" />
		<tag k="ssr:hovedgruppe" v="infrastruktur" />
		<tag k="ssr:stedsnr" v="414182" />
		<tag k="ssr:type" v="adressenavn" />
	</node>
	<node id="-381268" lat="61.2694222201" lon="10.2425944527">
		<tag k="name" v="Neversjøvegen" />
>>>>>>> e1d4bc35ff8a6074a6f2e91616a996b547c36f15
		<tag k="ssr:date" v="2019-12-27" />
		<tag k="ssr:gruppe" v="veg" />
		<tag k="ssr:hovedgruppe" v="infrastruktur" />
		<tag k="ssr:stedsnr" v="116458" />
		<tag k="ssr:type" v="vegstrekning" />
	</node>
<<<<<<< HEAD
	<node lat="61.21352187650245" lon="9.54095176997743" id="-27041">
		<tag k="name" v="Skruvdalsbua" />
		<tag k="ssr:date" v="2019-12-27" />
		<tag k="ssr:gruppe" v="veg" />
		<tag k="ssr:hovedgruppe" v="infrastruktur" />
		<tag k="ssr:stedsnr" v="983018" />
		<tag k="ssr:type" v="adressenavn" />
	</node>
	<node lat="61.385937104866706" lon="9.638731209978838" id="-27042">
		<tag k="name" v="Storfjellroa" />
		<tag k="ssr:date" v="2019-12-27" />
		<tag k="ssr:gruppe" v="veg" />
		<tag k="ssr:hovedgruppe" v="infrastruktur" />
		<tag k="ssr:stedsnr" v="983019" />
		<tag k="ssr:type" v="adressenavn" />
	</node>
	<node lat="61.36600483140615" lon="9.84481574499353" id="-27043">
		<tag k="name" v="Lonhaughøgda" />
		<tag k="ssr:date" v="2019-12-27" />
		<tag k="ssr:gruppe" v="veg" />
		<tag k="ssr:hovedgruppe" v="infrastruktur" />
		<tag k="ssr:stedsnr" v="983020" />
		<tag k="ssr:type" v="adressenavn" />
	</node>
	<node lat="61.386120105948436" lon="9.894642850182516" id="-27044">
		<tag k="name" v="Oppgardsbua" />
		<tag k="ssr:date" v="2019-12-27" />
		<tag k="ssr:gruppe" v="veg" />
		<tag k="ssr:hovedgruppe" v="infrastruktur" />
		<tag k="ssr:stedsnr" v="983021" />
		<tag k="ssr:type" v="adressenavn" />
	</node>
	<node lat="61.35728483178263" lon="10.018162114027666" id="-27045">
		<tag k="name" v="Nisjubua" />
		<tag k="ssr:date" v="2019-12-27" />
		<tag k="ssr:gruppe" v="veg" />
		<tag k="ssr:hovedgruppe" v="infrastruktur" />
		<tag k="ssr:stedsnr" v="983022" />
		<tag k="ssr:type" v="adressenavn" />
	</node>
	<node lat="61.37867618239545" lon="10.049361367106657" id="-27046">
		<tag k="name" v="Svarttjønnhytta" />
		<tag k="ssr:date" v="2019-12-27" />
		<tag k="ssr:gruppe" v="veg" />
		<tag k="ssr:hovedgruppe" v="infrastruktur" />
		<tag k="ssr:stedsnr" v="983023" />
		<tag k="ssr:type" v="adressenavn" />
	</node>
	<node lat="61.22789037173318" lon="10.049832461432018" id="-27138">
		<tag k="name" v="Graffermorkvegen" />
		<tag k="ssr:date" v="2019-12-27" />
		<tag k="ssr:gruppe" v="veg" />
		<tag k="ssr:hovedgruppe" v="infrastruktur" />
		<tag k="ssr:stedsnr" v="52565" />
		<tag k="ssr:type" v="adressenavn" />
	</node>
	<node lat="61.269422220077054" lon="10.242594452730069" id="-27252">
		<tag k="name" v="Neversjøvegen" />
		<tag k="ssr:date" v="2019-12-27" />
		<tag k="ssr:gruppe" v="veg" />
		<tag k="ssr:hovedgruppe" v="infrastruktur" />
		<tag k="ssr:stedsnr" v="116458" />
		<tag k="ssr:type" v="vegstrekning" />
=======
	<node id="-381005" lat="61.2462706433" lon="10.0783025968">
		<tag k="name" v="Vassbekkdalsvegen" />
		<tag k="ssr:date" v="2019-12-27" />
		<tag k="ssr:gruppe" v="veg" />
		<tag k="ssr:hovedgruppe" v="infrastruktur" />
		<tag k="ssr:stedsnr" v="983556" />
		<tag k="ssr:type" v="adressenavn" />
	</node>
	<node id="-381004" lat="61.3277599986" lon="9.99696972215">
		<tag k="name" v="Langlivegen" />
		<tag k="ssr:date" v="2019-12-27" />
		<tag k="ssr:gruppe" v="veg" />
		<tag k="ssr:hovedgruppe" v="infrastruktur" />
		<tag k="ssr:stedsnr" v="983552" />
		<tag k="ssr:type" v="adressenavn" />
	</node>
	<node id="-381003" lat="61.278496837" lon="10.0341148387">
		<tag k="name" v="Gullrovegen" />
		<tag k="ssr:date" v="2019-12-27" />
		<tag k="ssr:gruppe" v="veg" />
		<tag k="ssr:hovedgruppe" v="infrastruktur" />
		<tag k="ssr:stedsnr" v="983551" />
		<tag k="ssr:type" v="adressenavn" />
	</node>
	<node id="-381002" lat="61.3604294886" lon="10.0738872752">
		<tag k="name" v="Galten" />
		<tag k="ssr:date" v="2019-12-27" />
		<tag k="ssr:gruppe" v="veg" />
		<tag k="ssr:hovedgruppe" v="infrastruktur" />
		<tag k="ssr:stedsnr" v="983549" />
		<tag k="ssr:type" v="adressenavn" />
	</node>
	<node id="-381000" lat="61.376636423" lon="9.54812693163">
		<tag k="name" v="Stylskardtjønnan" />
		<tag k="ssr:date" v="2019-12-27" />
		<tag k="ssr:gruppe" v="veg" />
		<tag k="ssr:hovedgruppe" v="infrastruktur" />
		<tag k="ssr:stedsnr" v="982996" />
		<tag k="ssr:type" v="adressenavn" />
	</node>
	<node id="-380999" lat="61.3842866506" lon="9.52735498744">
		<tag k="name" v="Øvre Megrundstjønnet" />
		<tag k="ssr:date" v="2019-12-27" />
		<tag k="ssr:gruppe" v="veg" />
		<tag k="ssr:hovedgruppe" v="infrastruktur" />
		<tag k="ssr:stedsnr" v="982995" />
		<tag k="ssr:type" v="adressenavn" />
	</node>
	<node id="-380998" lat="61.396173285" lon="9.53418331604">
		<tag k="name" v="Nedre Megrundstjønnet" />
		<tag k="ssr:date" v="2019-12-27" />
		<tag k="ssr:gruppe" v="veg" />
		<tag k="ssr:hovedgruppe" v="infrastruktur" />
		<tag k="ssr:stedsnr" v="982994" />
		<tag k="ssr:type" v="adressenavn" />
	</node>
	<node id="-380997" lat="61.3253855913" lon="9.57146083671">
		<tag k="name" v="Hundkjølen" />
		<tag k="ssr:date" v="2019-12-27" />
		<tag k="ssr:gruppe" v="veg" />
		<tag k="ssr:hovedgruppe" v="infrastruktur" />
		<tag k="ssr:stedsnr" v="982993" />
		<tag k="ssr:type" v="adressenavn" />
	</node>
	<node id="-380996" lat="61.3336455274" lon="9.5756100804">
		<tag k="name" v="Leppe" />
		<tag k="ssr:date" v="2019-12-27" />
		<tag k="ssr:gruppe" v="veg" />
		<tag k="ssr:hovedgruppe" v="infrastruktur" />
		<tag k="ssr:stedsnr" v="982992" />
		<tag k="ssr:type" v="adressenavn" />
	</node>
	<node id="-380995" lat="61.3492998097" lon="9.50878163458">
		<tag k="name" v="Nordbua" />
		<tag k="ssr:date" v="2019-12-27" />
		<tag k="ssr:gruppe" v="veg" />
		<tag k="ssr:hovedgruppe" v="infrastruktur" />
		<tag k="ssr:stedsnr" v="982991" />
		<tag k="ssr:type" v="adressenavn" />
	</node>
	<node id="-380994" lat="61.3201847103" lon="9.49187319091">
		<tag k="name" v="Vestmjøs" />
		<tag k="ssr:date" v="2019-12-27" />
		<tag k="ssr:gruppe" v="veg" />
		<tag k="ssr:hovedgruppe" v="infrastruktur" />
		<tag k="ssr:stedsnr" v="982990" />
		<tag k="ssr:type" v="adressenavn" />
	</node>
	<node id="-380993" lat="61.3047038667" lon="9.52629836548">
		<tag k="name" v="Risåbua" />
		<tag k="ssr:date" v="2019-12-27" />
		<tag k="ssr:gruppe" v="veg" />
		<tag k="ssr:hovedgruppe" v="infrastruktur" />
		<tag k="ssr:stedsnr" v="982989" />
		<tag k="ssr:type" v="adressenavn" />
	</node>
	<node id="-380992" lat="61.3002907995" lon="9.46625066483">
		<tag k="name" v="Nonstjønnbua" />
		<tag k="ssr:date" v="2019-12-27" />
		<tag k="ssr:gruppe" v="veg" />
		<tag k="ssr:hovedgruppe" v="infrastruktur" />
		<tag k="ssr:stedsnr" v="982988" />
		<tag k="ssr:type" v="adressenavn" />
	</node>
	<node id="-380991" lat="61.3374561351" lon="9.44546126675">
		<tag k="name" v="Storkvolvbua" />
		<tag k="ssr:date" v="2019-12-27" />
		<tag k="ssr:gruppe" v="veg" />
		<tag k="ssr:hovedgruppe" v="infrastruktur" />
		<tag k="ssr:stedsnr" v="982987" />
		<tag k="ssr:type" v="adressenavn" />
	</node>
	<node id="-380990" lat="61.2955102865" lon="9.3877016678">
		<tag k="name" v="Fatkvolvbua" />
		<tag k="ssr:date" v="2019-12-27" />
		<tag k="ssr:gruppe" v="veg" />
		<tag k="ssr:hovedgruppe" v="infrastruktur" />
		<tag k="ssr:stedsnr" v="982986" />
		<tag k="ssr:type" v="adressenavn" />
	</node>
	<node id="-380989" lat="61.2910288196" lon="9.36228702323">
		<tag k="name" v="Vesterheimsbua" />
		<tag k="ssr:date" v="2019-12-27" />
		<tag k="ssr:gruppe" v="veg" />
		<tag k="ssr:hovedgruppe" v="infrastruktur" />
		<tag k="ssr:stedsnr" v="982985" />
		<tag k="ssr:type" v="adressenavn" />
	</node>
	<node id="-380988" lat="61.288137111" lon="9.39171561413">
		<tag k="name" v="Langsubua" />
		<tag k="ssr:date" v="2019-12-27" />
		<tag k="ssr:gruppe" v="veg" />
		<tag k="ssr:hovedgruppe" v="infrastruktur" />
		<tag k="ssr:stedsnr" v="982984" />
		<tag k="ssr:type" v="adressenavn" />
	</node>
	<node id="-380987" lat="61.2529182658" lon="9.4808877668">
		<tag k="name" v="Fossbekkbua" />
		<tag k="ssr:date" v="2019-12-27" />
		<tag k="ssr:gruppe" v="veg" />
		<tag k="ssr:hovedgruppe" v="infrastruktur" />
		<tag k="ssr:stedsnr" v="982983" />
		<tag k="ssr:type" v="adressenavn" />
	</node>
	<node id="-380346" lat="61.3115006381" lon="9.97889497769">
		<tag k="name" v="Skåndalsvegen" />
		<tag k="ssr:date" v="2019-12-27" />
		<tag k="ssr:gruppe" v="veg" />
		<tag k="ssr:hovedgruppe" v="infrastruktur" />
		<tag k="ssr:stedsnr" v="657973" />
		<tag k="ssr:type" v="adressenavn" />
	</node>
	<node id="-381873" lat="61.2687583366" lon="10.0966027826">
		<tag k="name" v="Klevakjølvegen" />
		<tag k="ssr:date" v="2019-12-27" />
		<tag k="ssr:gruppe" v="veg" />
		<tag k="ssr:hovedgruppe" v="infrastruktur" />
		<tag k="ssr:stedsnr" v="537934" />
		<tag k="ssr:type" v="adressenavn" />
	</node>
	<node id="-381092" lat="61.3175125074" lon="9.88866614492">
		<tag k="name" v="Benndalsvegen" />
		<tag k="ssr:date" v="2019-12-27" />
		<tag k="ssr:gruppe" v="veg" />
		<tag k="ssr:hovedgruppe" v="infrastruktur" />
		<tag k="ssr:stedsnr" v="49922" />
		<tag k="ssr:type" v="adressenavn" />
	</node>
	<node id="-382615" lat="69.6388889725" lon="30.5666644427">
		<tag k="fixme" v="multiple name tags, choose one and add the other to alt_name" />
		<tag k="loc_name:se" v="Norgga gonagasriika" />
		<tag k="loc_name:sma" v="Nöörjen gånkarïjhke" />
		<tag k="loc_name:smj" v="Vuona gånågisrijkka" />
		<tag k="name" v="Noreg;Norge" />
		<tag k="name:en" v="Norway" />
		<tag k="name:no" v="Noreg;Norge" />
		<tag k="ssr:date" v="2020-06-04" />
		<tag k="ssr:gruppe" v="administrativeIndelinger" />
		<tag k="ssr:hovedgruppe" v="offentligAdministrasjon" />
		<tag k="ssr:stedsnr" v="26330" />
		<tag k="ssr:type" v="nasjon" />
	</node>
	<node id="-382614" lat="61.3282667061" lon="10.1358438609">
		<tag k="name" v="Slåseterengene" />
		<tag k="ssr:date" v="2020-02-24" />
		<tag k="ssr:gruppe" v="veg" />
		<tag k="ssr:hovedgruppe" v="infrastruktur" />
		<tag k="ssr:stedsnr" v="1075551" />
		<tag k="ssr:type" v="adressenavn" />
	</node>
	<node id="-382611" lat="60.7952487072" lon="11.0825912243">
		<tag k="name" v="Innlandet fylke" />
		<tag k="ssr:date" v="2020-01-13" />
		<tag k="ssr:gruppe" v="administrativeIndelinger" />
		<tag k="ssr:hovedgruppe" v="offentligAdministrasjon" />
		<tag k="ssr:stedsnr" v="1074406" />
		<tag k="ssr:type" v="fylke" />
	</node>
	<node id="-382610" lat="61.3801782245" lon="10.0030277732">
		<tag k="name" v="Peer Gynt vegen" />
		<tag k="ssr:date" v="2020-06-09" />
		<tag k="ssr:gruppe" v="veg" />
		<tag k="ssr:hovedgruppe" v="infrastruktur" />
		<tag k="ssr:stedsnr" v="1073586" />
		<tag k="ssr:type" v="vegstrekning" />
	</node>
	<node id="-382608" lat="61.2374893755" lon="10.2595743349">
		<tag k="name" v="Neversjøvegen" />
		<tag k="ssr:date" v="2019-12-27" />
		<tag k="ssr:gruppe" v="veg" />
		<tag k="ssr:hovedgruppe" v="infrastruktur" />
		<tag k="ssr:stedsnr" v="1013397" />
		<tag k="ssr:type" v="adressenavn" />
	</node>
	<node id="-382344" lat="61.3705388862" lon="9.73513888839">
		<tag k="name" v="Kveinnslåvegen" />
		<tag k="ssr:date" v="2019-12-27" />
		<tag k="ssr:gruppe" v="veg" />
		<tag k="ssr:hovedgruppe" v="infrastruktur" />
		<tag k="ssr:stedsnr" v="840080" />
		<tag k="ssr:type" v="vegstrekning" />
	</node>
	<node id="-380807" lat="61.1701694404" lon="10.124652775">
		<tag k="name" v="Hammerlivegen" />
		<tag k="ssr:date" v="2019-12-27" />
		<tag k="ssr:gruppe" v="veg" />
		<tag k="ssr:hovedgruppe" v="infrastruktur" />
		<tag k="ssr:stedsnr" v="780030" />
		<tag k="ssr:type" v="vegstrekning" />
	</node>
	<node id="-382595" lat="61.270921847" lon="10.1873556926">
		<tag k="name" v="Nordre Neversjøvegen" />
		<tag k="ssr:date" v="2019-12-27" />
		<tag k="ssr:gruppe" v="veg" />
		<tag k="ssr:hovedgruppe" v="infrastruktur" />
		<tag k="ssr:stedsnr" v="983573" />
		<tag k="ssr:type" v="adressenavn" />
	</node>
	<node id="-382594" lat="61.3786761824" lon="10.0493613671">
		<tag k="name" v="Svarttjønnhytta" />
		<tag k="ssr:date" v="2019-12-27" />
		<tag k="ssr:gruppe" v="veg" />
		<tag k="ssr:hovedgruppe" v="infrastruktur" />
		<tag k="ssr:stedsnr" v="983023" />
		<tag k="ssr:type" v="adressenavn" />
	</node>
	<node id="-382593" lat="61.3572848318" lon="10.018162114">
		<tag k="name" v="Nisjubua" />
		<tag k="ssr:date" v="2019-12-27" />
		<tag k="ssr:gruppe" v="veg" />
		<tag k="ssr:hovedgruppe" v="infrastruktur" />
		<tag k="ssr:stedsnr" v="983022" />
		<tag k="ssr:type" v="adressenavn" />
>>>>>>> e1d4bc35ff8a6074a6f2e91616a996b547c36f15
	</node>
</osm>
