<?xml version="1.0" encoding="UTF-8"?>
<osm version="0.6" generator="osmapis">
	<node lat="61.42835833254551" lon="11.119741667519229" id="-24848">
		<tag k="name" v="Bratteggvegen" />
		<tag k="ssr:date" v="2019-12-27" />
		<tag k="ssr:gruppe" v="veg" />
		<tag k="ssr:hovedgruppe" v="infrastruktur" />
		<tag k="ssr:stedsnr" v="41338" />
		<tag k="ssr:type" v="vegstrekning" />
	</node>
	<node lat="61.584391665520336" lon="10.948344451592043" id="-24929">
		<tag k="name" v="Ulvbergsvegen" />
		<tag k="ssr:date" v="2019-12-27" />
		<tag k="ssr:gruppe" v="veg" />
		<tag k="ssr:hovedgruppe" v="infrastruktur" />
		<tag k="ssr:stedsnr" v="100127" />
		<tag k="ssr:type" v="vegstrekning" />
	</node>
	<node lat="61.3352666691384" lon="11.23450554681085" id="-24937">
		<tag k="name" v="Sjurstuvegen" />
		<tag k="ssr:date" v="2019-12-27" />
		<tag k="ssr:gruppe" v="veg" />
		<tag k="ssr:hovedgruppe" v="infrastruktur" />
		<tag k="ssr:stedsnr" v="101667" />
		<tag k="ssr:type" v="vegstrekning" />
	</node>
	<node lat="61.38177222391638" lon="11.238388897932275" id="-24951">
		<tag k="name" v="Kjølvegen" />
		<tag k="ssr:date" v="2019-12-27" />
		<tag k="ssr:gruppe" v="veg" />
		<tag k="ssr:hovedgruppe" v="infrastruktur" />
		<tag k="ssr:stedsnr" v="116807" />
		<tag k="ssr:type" v="vegstrekning" />
	</node>
	<node lat="61.7857583340807" lon="10.512833331364858" id="-25029">
		<tag k="name" v="Tangvegen" />
		<tag k="ssr:date" v="2019-12-27" />
		<tag k="ssr:gruppe" v="veg" />
		<tag k="ssr:hovedgruppe" v="infrastruktur" />
		<tag k="ssr:stedsnr" v="163977" />
		<tag k="ssr:type" v="vegstrekning" />
	</node>
	<node lat="61.55665555545785" lon="11.133122224065994" id="-25034">
		<tag k="alt_name" v="Bakmyrvegen" />
		<tag k="name" v="Bakkmyrvegen" />
		<tag k="ssr:date" v="2019-12-27" />
		<tag k="ssr:gruppe" v="veg" />
		<tag k="ssr:hovedgruppe" v="infrastruktur" />
		<tag k="ssr:stedsnr" v="179810" />
		<tag k="ssr:type" v="vegstrekning" />
	</node>
	<node lat="61.561432665895495" lon="11.041617782722017" id="-25039">
		<tag k="name" v="Sagabakken" />
		<tag k="ssr:date" v="2019-12-27" />
		<tag k="ssr:gruppe" v="veg" />
		<tag k="ssr:hovedgruppe" v="infrastruktur" />
		<tag k="ssr:stedsnr" v="180475" />
		<tag k="ssr:type" v="vegstrekning" />
	</node>
	<node lat="61.800127779590255" lon="10.527050009201659" id="-25045">
		<tag k="name" v="Gravbekkvegen" />
		<tag k="ssr:date" v="2019-12-27" />
		<tag k="ssr:gruppe" v="veg" />
		<tag k="ssr:hovedgruppe" v="infrastruktur" />
		<tag k="ssr:stedsnr" v="180975" />
		<tag k="ssr:type" v="vegstrekning" />
	</node>
	<node lat="61.57197777475112" lon="11.047583328053813" id="-25058">
		<tag k="name" v="Stor-Elvdal kommune" />
		<tag k="ssr:date" v="2019-12-27" />
		<tag k="ssr:gruppe" v="administrativeIndelinger" />
		<tag k="ssr:hovedgruppe" v="offentligAdministrasjon" />
		<tag k="ssr:stedsnr" v="267381" />
		<tag k="ssr:type" v="kommune" />
	</node>
	<node lat="61.34116389097303" lon="11.279699997279973" id="-25117">
		<tag k="name" v="Kjølvegen" />
		<tag k="ssr:date" v="2019-12-27" />
		<tag k="ssr:gruppe" v="veg" />
		<tag k="ssr:hovedgruppe" v="infrastruktur" />
		<tag k="ssr:stedsnr" v="283704" />
		<tag k="ssr:type" v="vegstrekning" />
	</node>
	<node lat="61.43704166915537" lon="11.204333329115594" id="-25122">
		<tag k="name" v="Kjølvegen" />
		<tag k="ssr:date" v="2019-12-27" />
		<tag k="ssr:gruppe" v="veg" />
		<tag k="ssr:hovedgruppe" v="infrastruktur" />
		<tag k="ssr:stedsnr" v="299279" />
		<tag k="ssr:type" v="vegstrekning" />
	</node>
	<node lat="61.73192499930971" lon="10.818961106104593" id="-25127">
		<tag k="name" v="Kirkevegen" />
		<tag k="ssr:date" v="2019-12-27" />
		<tag k="ssr:gruppe" v="veg" />
		<tag k="ssr:hovedgruppe" v="infrastruktur" />
		<tag k="ssr:stedsnr" v="301189" />
		<tag k="ssr:type" v="vegstrekning" />
	</node>
	<node lat="61.42204166782904" lon="10.93018055320065" id="-25147">
		<tag k="alt_name" v="Søndre Messeltsætervegen" />
		<tag k="name" v="Søre Messeltsætervegen" />
		<tag k="ssr:date" v="2019-12-27" />
		<tag k="ssr:gruppe" v="veg" />
		<tag k="ssr:hovedgruppe" v="infrastruktur" />
		<tag k="ssr:stedsnr" v="465574" />
		<tag k="ssr:type" v="vegstrekning" />
	</node>
	<node lat="61.36899166832454" lon="11.072913882775303" id="-25186">
		<tag k="name" v="Koiedalsvegen" />
		<tag k="ssr:date" v="2019-12-27" />
		<tag k="ssr:gruppe" v="veg" />
		<tag k="ssr:hovedgruppe" v="infrastruktur" />
		<tag k="ssr:stedsnr" v="466995" />
		<tag k="ssr:type" v="vegstrekning" />
	</node>
	<node lat="61.47398055528064" lon="10.948483333444912" id="-25191">
		<tag k="name" v="Nordre Imslivegen" />
		<tag k="ssr:date" v="2019-12-27" />
		<tag k="ssr:gruppe" v="veg" />
		<tag k="ssr:hovedgruppe" v="infrastruktur" />
		<tag k="ssr:stedsnr" v="343504" />
		<tag k="ssr:type" v="vegstrekning" />
	</node>
	<node lat="61.47145278163355" lon="11.02131110809481" id="-25194">
		<tag k="name" v="Storbakkvegen" />
		<tag k="ssr:date" v="2019-12-27" />
		<tag k="ssr:gruppe" v="veg" />
		<tag k="ssr:hovedgruppe" v="infrastruktur" />
		<tag k="ssr:stedsnr" v="343782" />
		<tag k="ssr:type" v="vegstrekning" />
	</node>
	<node lat="61.5794416652802" lon="11.052622228019256" id="-25253">
		<tag k="name" v="Vannstasjonsvegen" />
		<tag k="ssr:date" v="2019-12-27" />
		<tag k="ssr:gruppe" v="veg" />
		<tag k="ssr:hovedgruppe" v="infrastruktur" />
		<tag k="ssr:stedsnr" v="483338" />
		<tag k="ssr:type" v="vegstrekning" />
	</node>
	<node lat="61.35443333123146" lon="11.194913881827372" id="-25265">
		<tag k="name" v="Klettjernvegen" />
		<tag k="ssr:date" v="2019-12-27" />
		<tag k="ssr:gruppe" v="veg" />
		<tag k="ssr:hovedgruppe" v="infrastruktur" />
		<tag k="ssr:stedsnr" v="404087" />
		<tag k="ssr:type" v="vegstrekning" />
	</node>
	<node lat="61.21122777566135" lon="11.317013891055733" id="-25275">
		<tag k="name" v="Seljebakkvegen" />
		<tag k="ssr:date" v="2019-12-27" />
		<tag k="ssr:gruppe" v="veg" />
		<tag k="ssr:hovedgruppe" v="infrastruktur" />
		<tag k="ssr:stedsnr" v="405848" />
		<tag k="ssr:type" v="vegstrekning" />
	</node>
	<node lat="61.43153055123266" lon="11.15122221782829" id="-25282">
		<tag k="name" v="Blindvegen" />
		<tag k="ssr:date" v="2019-12-27" />
		<tag k="ssr:gruppe" v="veg" />
		<tag k="ssr:hovedgruppe" v="infrastruktur" />
		<tag k="ssr:stedsnr" v="422243" />
		<tag k="ssr:type" v="vegstrekning" />
	</node>
	<node lat="61.73273055582834" lon="10.712316665162888" id="-25341">
		<tag k="name" v="Hellbulivegen" />
		<tag k="ssr:date" v="2019-12-27" />
		<tag k="ssr:gruppe" v="veg" />
		<tag k="ssr:hovedgruppe" v="infrastruktur" />
		<tag k="ssr:stedsnr" v="464822" />
		<tag k="ssr:type" v="vegstrekning" />
	</node>
	<node lat="61.33391111321932" lon="11.245933334925098" id="-25344">
		<tag k="name" v="Taraldstuvegen" />
		<tag k="ssr:date" v="2019-12-27" />
		<tag k="ssr:gruppe" v="veg" />
		<tag k="ssr:hovedgruppe" v="infrastruktur" />
		<tag k="ssr:stedsnr" v="465726" />
		<tag k="ssr:type" v="vegstrekning" />
	</node>
	<node lat="61.741408335543106" lon="10.795147212972635" id="-25394">
		<tag k="name" v="Nedalsvegen" />
		<tag k="ssr:date" v="2019-12-27" />
		<tag k="ssr:gruppe" v="veg" />
		<tag k="ssr:hovedgruppe" v="infrastruktur" />
		<tag k="ssr:stedsnr" v="483231" />
		<tag k="ssr:type" v="vegstrekning" />
	</node>
	<node lat="61.62738332943317" lon="11.083019451105482" id="-25400">
		<tag k="name" v="Bjønnbekkvegen" />
		<tag k="ssr:date" v="2019-12-27" />
		<tag k="ssr:gruppe" v="veg" />
		<tag k="ssr:hovedgruppe" v="infrastruktur" />
		<tag k="ssr:stedsnr" v="483912" />
		<tag k="ssr:type" v="vegstrekning" />
	</node>
	<node lat="61.56376944390992" lon="11.065683335403055" id="-25443">
		<tag k="name" v="Kjemådalsvegen" />
		<tag k="ssr:date" v="2019-12-27" />
		<tag k="ssr:gruppe" v="veg" />
		<tag k="ssr:hovedgruppe" v="infrastruktur" />
		<tag k="ssr:stedsnr" v="525463" />
		<tag k="ssr:type" v="vegstrekning" />
	</node>
	<node lat="61.7653500029171" lon="10.382233327499016" id="-25469">
		<tag k="name" v="Midtlivegen" />
		<tag k="ssr:date" v="2019-12-27" />
		<tag k="ssr:gruppe" v="veg" />
		<tag k="ssr:hovedgruppe" v="infrastruktur" />
		<tag k="ssr:stedsnr" v="544680" />
		<tag k="ssr:type" v="vegstrekning" />
	</node>
	<node lat="61.47845000259455" lon="10.832305551454187" id="-25509">
		<tag k="name" v="Neppdalsvegen" />
		<tag k="ssr:date" v="2019-12-27" />
		<tag k="ssr:gruppe" v="veg" />
		<tag k="ssr:hovedgruppe" v="infrastruktur" />
		<tag k="ssr:stedsnr" v="601648" />
		<tag k="ssr:type" v="vegstrekning" />
	</node>
	<node lat="61.557691668136606" lon="10.956202776936479" id="-25515">
		<tag k="name" v="Trybekkvegen" />
		<tag k="ssr:date" v="2019-12-27" />
		<tag k="ssr:gruppe" v="veg" />
		<tag k="ssr:hovedgruppe" v="infrastruktur" />
		<tag k="ssr:stedsnr" v="603109" />
		<tag k="ssr:type" v="vegstrekning" />
	</node>
	<node lat="61.21373333547027" lon="11.306324999384898" id="-25564">
		<tag k="name" v="Klettvegen" />
		<tag k="ssr:date" v="2019-12-27" />
		<tag k="ssr:gruppe" v="veg" />
		<tag k="ssr:hovedgruppe" v="infrastruktur" />
		<tag k="ssr:stedsnr" v="646427" />
		<tag k="ssr:type" v="vegstrekning" />
	</node>
	<node lat="61.74293055687277" lon="10.689052775648234" id="-25567">
		<tag k="name" v="Ledsagervegen" />
		<tag k="ssr:date" v="2019-12-27" />
		<tag k="ssr:gruppe" v="veg" />
		<tag k="ssr:hovedgruppe" v="infrastruktur" />
		<tag k="ssr:stedsnr" v="646780" />
		<tag k="ssr:type" v="vegstrekning" />
	</node>
	<node lat="61.33910555359446" lon="11.168713894616138" id="-25568">
		<tag k="name" v="Heggedalsvegen" />
		<tag k="ssr:date" v="2019-12-27" />
		<tag k="ssr:gruppe" v="veg" />
		<tag k="ssr:hovedgruppe" v="infrastruktur" />
		<tag k="ssr:stedsnr" v="647109" />
		<tag k="ssr:type" v="vegstrekning" />
	</node>
	<node lat="61.72015555380988" lon="10.897633336367706" id="-25574">
		<tag k="name" v="Kjølsjøvegen" />
		<tag k="ssr:date" v="2019-12-27" />
		<tag k="ssr:gruppe" v="veg" />
		<tag k="ssr:hovedgruppe" v="infrastruktur" />
		<tag k="ssr:stedsnr" v="707037" />
		<tag k="ssr:type" v="vegstrekning" />
	</node>
	<node lat="61.7671583354422" lon="10.688155563603601" id="-25593">
		<tag k="name" v="Trylivegen" />
		<tag k="ssr:date" v="2019-12-27" />
		<tag k="ssr:gruppe" v="veg" />
		<tag k="ssr:hovedgruppe" v="infrastruktur" />
		<tag k="ssr:stedsnr" v="661793" />
		<tag k="ssr:type" v="vegstrekning" />
	</node>
	<node lat="61.432966667827685" lon="11.099283324161568" id="-25595">
		<tag k="name" v="Bergevegen" />
		<tag k="ssr:date" v="2019-12-27" />
		<tag k="ssr:gruppe" v="veg" />
		<tag k="ssr:hovedgruppe" v="infrastruktur" />
		<tag k="ssr:stedsnr" v="709335" />
		<tag k="ssr:type" v="vegstrekning" />
	</node>
	<node lat="61.35596111156251" lon="11.261647217144708" id="-25683">
		<tag k="name" v="Åborsjøvegen" />
		<tag k="ssr:date" v="2019-12-27" />
		<tag k="ssr:gruppe" v="veg" />
		<tag k="ssr:hovedgruppe" v="infrastruktur" />
		<tag k="ssr:stedsnr" v="726715" />
		<tag k="ssr:type" v="vegstrekning" />
	</node>
	<node lat="61.561777773438806" lon="11.082388895923337" id="-25761">
		<tag k="name" v="Vegen Kjemsjøen - Evenstad" />
		<tag k="ssr:date" v="2019-12-27" />
		<tag k="ssr:gruppe" v="veg" />
		<tag k="ssr:hovedgruppe" v="infrastruktur" />
		<tag k="ssr:stedsnr" v="908847" />
		<tag k="ssr:type" v="vegstrekning" />
	</node>
	<node lat="61.573949998048455" lon="11.13547776962127" id="-25776">
		<tag k="name" v="Sunndalsvegen" />
		<tag k="ssr:date" v="2019-12-27" />
		<tag k="ssr:gruppe" v="veg" />
		<tag k="ssr:hovedgruppe" v="infrastruktur" />
		<tag k="ssr:stedsnr" v="786819" />
		<tag k="ssr:type" v="vegstrekning" />
	</node>
	<node lat="61.580922225999004" lon="11.096533339942562" id="-25851">
		<tag k="alt_name" v="Kongevegen, gamle" />
		<tag k="name" v="Gamle Kongevegen" />
		<tag k="ssr:date" v="2019-12-27" />
		<tag k="ssr:gruppe" v="veg" />
		<tag k="ssr:hovedgruppe" v="infrastruktur" />
		<tag k="ssr:stedsnr" v="920424" />
		<tag k="ssr:type" v="vegstrekning" />
	</node>
	<node lat="61.42543055751419" lon="11.111780547661358" id="-25874">
		<tag k="name" v="Messeltrustvegen" />
		<tag k="ssr:date" v="2019-12-27" />
		<tag k="ssr:gruppe" v="veg" />
		<tag k="ssr:hovedgruppe" v="infrastruktur" />
		<tag k="ssr:stedsnr" v="829217" />
		<tag k="ssr:type" v="vegstrekning" />
	</node>
	<node lat="61.385877774015086" lon="11.248841674710562" id="-25887">
		<tag k="name" v="Grønfløttningsvegen" />
		<tag k="ssr:date" v="2019-12-27" />
		<tag k="ssr:gruppe" v="veg" />
		<tag k="ssr:hovedgruppe" v="infrastruktur" />
		<tag k="ssr:stedsnr" v="844805" />
		<tag k="ssr:type" v="vegstrekning" />
	</node>
	<node lat="61.78717222089519" lon="10.44910277819817" id="-25892">
		<tag k="name" v="Gammelvegen" />
		<tag k="ssr:date" v="2019-12-27" />
		<tag k="ssr:gruppe" v="veg" />
		<tag k="ssr:hovedgruppe" v="infrastruktur" />
		<tag k="ssr:stedsnr" v="846503" />
		<tag k="ssr:type" v="vegstrekning" />
	</node>
	<node lat="61.794916670580285" lon="10.672011103177114" id="-25958">
		<tag k="name" v="Fosslivegen" />
		<tag k="ssr:date" v="2019-12-27" />
		<tag k="ssr:gruppe" v="veg" />
		<tag k="ssr:hovedgruppe" v="infrastruktur" />
		<tag k="ssr:stedsnr" v="908349" />
		<tag k="ssr:type" v="vegstrekning" />
	</node>
	<node lat="61.44451666492339" lon="10.926655563573606" id="-25988">
		<tag k="name" v="Søndre Imslivegen" />
		<tag k="ssr:date" v="2019-12-27" />
		<tag k="ssr:gruppe" v="veg" />
		<tag k="ssr:hovedgruppe" v="infrastruktur" />
		<tag k="ssr:stedsnr" v="950479" />
		<tag k="ssr:type" v="vegstrekning" />
	</node>
	<node lat="61.37714166601674" lon="11.240483334319864" id="-26011">
		<tag k="name" v="Grønfløtningsvegen" />
		<tag k="ssr:date" v="2019-12-27" />
		<tag k="ssr:gruppe" v="veg" />
		<tag k="ssr:hovedgruppe" v="infrastruktur" />
		<tag k="ssr:stedsnr" v="969799" />
		<tag k="ssr:type" v="vegstrekning" />
	</node>
	<node lat="61.264002780949745" lon="11.179036103321273" id="-26070">
		<tag k="name" v="Strand-Opphus sæterveg" />
		<tag k="ssr:date" v="2019-12-27" />
		<tag k="ssr:gruppe" v="veg" />
		<tag k="ssr:hovedgruppe" v="infrastruktur" />
		<tag k="ssr:stedsnr" v="39755" />
		<tag k="ssr:type" v="vegstrekning" />
	</node>
	<node lat="61.381763892978725" lon="11.191077782390776" id="-26169">
		<tag k="name" v="Netadalsvegen" />
		<tag k="old_name" v="Netalsvegen" />
		<tag k="ssr:date" v="2019-12-27" />
		<tag k="ssr:gruppe" v="veg" />
		<tag k="ssr:hovedgruppe" v="infrastruktur" />
		<tag k="ssr:stedsnr" v="119243" />
		<tag k="ssr:type" v="vegstrekning" />
	</node>
	<node lat="61.752027775998414" lon="10.290355559230864" id="-26172">
		<tag k="name" v="Setningslivegen" />
		<tag k="ssr:date" v="2019-12-27" />
		<tag k="ssr:gruppe" v="veg" />
		<tag k="ssr:hovedgruppe" v="infrastruktur" />
		<tag k="ssr:stedsnr" v="119433" />
		<tag k="ssr:type" v="vegstrekning" />
	</node>
	<node lat="61.658572223740265" lon="10.99937500499793" id="-26181">
		<tag k="name" v="Bjønnskarvegen" />
		<tag k="ssr:date" v="2019-12-27" />
		<tag k="ssr:gruppe" v="veg" />
		<tag k="ssr:hovedgruppe" v="infrastruktur" />
		<tag k="ssr:stedsnr" v="120720" />
		<tag k="ssr:type" v="vegstrekning" />
	</node>
	<node lat="61.36167933241026" lon="10.846250955027797" id="-26212">
		<tag k="name" v="Birkebeinervegen" />
		<tag k="ssr:date" v="2021-09-29" />
		<tag k="ssr:gruppe" v="veg" />
		<tag k="ssr:hovedgruppe" v="infrastruktur" />
		<tag k="ssr:stedsnr" v="160732" />
		<tag k="ssr:type" v="vegstrekning" />
	</node>
	<node lat="61.617708337828894" lon="10.95501388890161" id="-26217">
		<tag k="name" v="Frøsålivegen" />
		<tag k="ssr:date" v="2019-12-27" />
		<tag k="ssr:gruppe" v="veg" />
		<tag k="ssr:hovedgruppe" v="infrastruktur" />
		<tag k="ssr:stedsnr" v="161121" />
		<tag k="ssr:type" v="vegstrekning" />
	</node>
	<node lat="61.39461944738178" lon="11.020352780853324" id="-26233">
		<tag k="name" v="Åsvegen" />
		<tag k="ssr:date" v="2019-12-27" />
		<tag k="ssr:gruppe" v="veg" />
		<tag k="ssr:hovedgruppe" v="infrastruktur" />
		<tag k="ssr:stedsnr" v="162897" />
		<tag k="ssr:type" v="vegstrekning" />
	</node>
	<node lat="61.41682777912616" lon="11.151883341796827" id="-26245">
		<tag k="name" v="Styggeggvegen" />
		<tag k="ssr:date" v="2019-12-27" />
		<tag k="ssr:gruppe" v="veg" />
		<tag k="ssr:hovedgruppe" v="infrastruktur" />
		<tag k="ssr:stedsnr" v="179258" />
		<tag k="ssr:type" v="vegstrekning" />
	</node>
	<node lat="61.230613886086914" lon="11.25160555107912" id="-26346">
		<tag k="name" v="Slagåsvegen" />
		<tag k="ssr:date" v="2019-12-27" />
		<tag k="ssr:gruppe" v="veg" />
		<tag k="ssr:hovedgruppe" v="infrastruktur" />
		<tag k="ssr:stedsnr" v="283399" />
		<tag k="ssr:type" v="vegstrekning" />
	</node>
	<node lat="61.4402055577963" lon="11.163149995846437" id="-26352">
		<tag k="name" v="Tøråsvegen" />
		<tag k="ssr:date" v="2019-12-27" />
		<tag k="ssr:gruppe" v="veg" />
		<tag k="ssr:hovedgruppe" v="infrastruktur" />
		<tag k="ssr:stedsnr" v="284382" />
		<tag k="ssr:type" v="vegstrekning" />
	</node>
	<node lat="61.509674997663915" lon="10.836341666182715" id="-26363">
		<tag k="name" v="Gravåsvegen" />
		<tag k="ssr:date" v="2019-12-27" />
		<tag k="ssr:gruppe" v="veg" />
		<tag k="ssr:hovedgruppe" v="infrastruktur" />
		<tag k="ssr:stedsnr" v="298648" />
		<tag k="ssr:type" v="vegstrekning" />
	</node>
	<node lat="61.43345277928363" lon="11.141805560019996" id="-26376">
		<tag k="name" v="Nabbvegen" />
		<tag k="ssr:date" v="2019-12-27" />
		<tag k="ssr:gruppe" v="veg" />
		<tag k="ssr:hovedgruppe" v="infrastruktur" />
		<tag k="ssr:stedsnr" v="300348" />
		<tag k="ssr:type" v="vegstrekning" />
	</node>
	<node lat="61.81980000304081" lon="10.573652787100416" id="-26378">
		<tag k="name" v="Hanestadnysætervegen" />
		<tag k="ssr:date" v="2019-12-27" />
		<tag k="ssr:gruppe" v="veg" />
		<tag k="ssr:hovedgruppe" v="infrastruktur" />
		<tag k="ssr:stedsnr" v="301988" />
		<tag k="ssr:type" v="vegstrekning" />
	</node>
	<node lat="61.61464722105458" lon="11.028608327644765" id="-26442">
		<tag k="name" v="Stenmovegen" />
		<tag k="ssr:date" v="2019-12-27" />
		<tag k="ssr:gruppe" v="veg" />
		<tag k="ssr:hovedgruppe" v="infrastruktur" />
		<tag k="ssr:stedsnr" v="359288" />
		<tag k="ssr:type" v="vegstrekning" />
	</node>
	<node lat="61.668097224309356" lon="10.932116662463569" id="-26455">
		<tag k="name" v="Vibekkskarvegen" />
		<tag k="ssr:date" v="2019-12-27" />
		<tag k="ssr:gruppe" v="veg" />
		<tag k="ssr:hovedgruppe" v="infrastruktur" />
		<tag k="ssr:stedsnr" v="362117" />
		<tag k="ssr:type" v="vegstrekning" />
	</node>
	<node lat="61.423072221755454" lon="11.132430564215767" id="-26540">
		<tag k="name" v="Øvre Messeltrustvegen" />
		<tag k="ssr:date" v="2019-12-27" />
		<tag k="ssr:gruppe" v="veg" />
		<tag k="ssr:hovedgruppe" v="infrastruktur" />
		<tag k="ssr:stedsnr" v="403189" />
		<tag k="ssr:type" v="vegstrekning" />
	</node>
	<node lat="61.33442222113213" lon="11.207780560597161" id="-26547">
		<tag k="name" v="Tøråsvegen" />
		<tag k="ssr:date" v="2019-12-27" />
		<tag k="ssr:gruppe" v="veg" />
		<tag k="ssr:hovedgruppe" v="infrastruktur" />
		<tag k="ssr:stedsnr" v="404664" />
		<tag k="ssr:type" v="vegstrekning" />
	</node>
	<node lat="61.50643611210371" lon="10.82179166029736" id="-26556">
		<tag k="name" v="Søndre Imsdalsvegen" />
		<tag k="ssr:date" v="2019-12-27" />
		<tag k="ssr:gruppe" v="veg" />
		<tag k="ssr:hovedgruppe" v="infrastruktur" />
		<tag k="ssr:stedsnr" v="420688" />
		<tag k="ssr:type" v="vegstrekning" />
	</node>
	<node lat="61.27375555281229" lon="11.312325001058676" id="-26561">
		<tag k="name" v="Strand Østre liveg" />
		<tag k="ssr:date" v="2019-12-27" />
		<tag k="ssr:gruppe" v="veg" />
		<tag k="ssr:hovedgruppe" v="infrastruktur" />
		<tag k="ssr:stedsnr" v="421521" />
		<tag k="ssr:type" v="vegstrekning" />
	</node>
	<node lat="61.7173416690832" lon="10.964616664770464" id="-26574">
		<tag k="name" v="Koppangskjølvegen" />
		<tag k="ssr:date" v="2019-12-27" />
		<tag k="ssr:gruppe" v="veg" />
		<tag k="ssr:hovedgruppe" v="infrastruktur" />
		<tag k="ssr:stedsnr" v="422645" />
		<tag k="ssr:type" v="vegstrekning" />
	</node>
	<node lat="61.608066670503696" lon="10.884130546670455" id="-26643">
		<tag k="name" v="Klarbekklivegen" />
		<tag k="ssr:date" v="2019-12-27" />
		<tag k="ssr:gruppe" v="veg" />
		<tag k="ssr:hovedgruppe" v="infrastruktur" />
		<tag k="ssr:stedsnr" v="525118" />
		<tag k="ssr:type" v="vegstrekning" />
	</node>
	<node lat="61.616286107137014" lon="10.884530553411173" id="-26644">
		<tag k="alt_name" v="Garbekkvegen" />
		<tag k="name" v="Garbekklivegen" />
		<tag k="ssr:date" v="2019-12-27" />
		<tag k="ssr:gruppe" v="veg" />
		<tag k="ssr:hovedgruppe" v="infrastruktur" />
		<tag k="ssr:stedsnr" v="525119" />
		<tag k="ssr:type" v="vegstrekning" />
	</node>
	<node lat="61.78019166853388" lon="10.652708325736064" id="-26666">
		<tag k="name" v="Syrklettvegen" />
		<tag k="ssr:date" v="2019-12-27" />
		<tag k="ssr:gruppe" v="veg" />
		<tag k="ssr:hovedgruppe" v="infrastruktur" />
		<tag k="ssr:stedsnr" v="540856" />
		<tag k="ssr:type" v="vegstrekning" />
	</node>
	<node lat="61.69392778176077" lon="11.014191669418272" id="-26731">
		<tag k="name" v="Langmovegen" />
		<tag k="ssr:date" v="2019-12-27" />
		<tag k="ssr:gruppe" v="veg" />
		<tag k="ssr:hovedgruppe" v="infrastruktur" />
		<tag k="ssr:stedsnr" v="556059" />
		<tag k="ssr:type" v="vegstrekning" />
	</node>
	<node lat="61.2766944461155" lon="11.238061106978494" id="-26750">
		<tag k="name" v="Tjuevegen" />
		<tag k="ssr:date" v="2019-12-27" />
		<tag k="ssr:gruppe" v="veg" />
		<tag k="ssr:hovedgruppe" v="infrastruktur" />
		<tag k="ssr:stedsnr" v="585492" />
		<tag k="ssr:type" v="vegstrekning" />
	</node>
	<node lat="61.352261114769995" lon="11.125394437574947" id="-26754">
		<tag k="name" v="Grindmyrvegen" />
		<tag k="ssr:date" v="2019-12-27" />
		<tag k="ssr:gruppe" v="veg" />
		<tag k="ssr:hovedgruppe" v="infrastruktur" />
		<tag k="ssr:stedsnr" v="586076" />
		<tag k="ssr:type" v="vegstrekning" />
	</node>
	<node lat="61.37048888531677" lon="11.01191388913469" id="-26766">
		<tag k="name" v="Gamle Møklebysætervegen" />
		<tag k="ssr:date" v="2019-12-27" />
		<tag k="ssr:gruppe" v="veg" />
		<tag k="ssr:hovedgruppe" v="infrastruktur" />
		<tag k="ssr:stedsnr" v="587945" />
		<tag k="ssr:type" v="vegstrekning" />
	</node>
	<node lat="61.374280551986054" lon="11.12365556192378" id="-26795">
		<tag k="name" v="Fallvegen" />
		<tag k="ssr:date" v="2019-12-27" />
		<tag k="ssr:gruppe" v="veg" />
		<tag k="ssr:hovedgruppe" v="infrastruktur" />
		<tag k="ssr:stedsnr" v="605289" />
		<tag k="ssr:type" v="vegstrekning" />
	</node>
	<node lat="61.222936115500524" lon="11.26238333000408" id="-26847">
		<tag k="name" v="Gravingsvegen" />
		<tag k="ssr:date" v="2019-12-27" />
		<tag k="ssr:gruppe" v="veg" />
		<tag k="ssr:hovedgruppe" v="infrastruktur" />
		<tag k="ssr:stedsnr" v="646431" />
		<tag k="ssr:type" v="vegstrekning" />
	</node>
	<node lat="61.53432222668843" lon="11.070677774725032" id="-26849">
		<tag k="name" v="Gustulivegen" />
		<tag k="ssr:date" v="2019-12-27" />
		<tag k="ssr:gruppe" v="veg" />
		<tag k="ssr:hovedgruppe" v="infrastruktur" />
		<tag k="ssr:stedsnr" v="646444" />
		<tag k="ssr:type" v="vegstrekning" />
	</node>
	<node lat="61.7738999995048" lon="10.494119448986787" id="-26875">
		<tag k="alt_name" v="Mosjøsætervegen" />
		<tag k="name" v="Mokjølsætervegen" />
		<tag k="ssr:date" v="2019-12-27" />
		<tag k="ssr:gruppe" v="veg" />
		<tag k="ssr:hovedgruppe" v="infrastruktur" />
		<tag k="ssr:stedsnr" v="662998" />
		<tag k="ssr:type" v="vegstrekning" />
	</node>
	<node lat="61.77335277832648" lon="10.504941660108193" id="-26965">
		<tag k="name" v="Skjæringfjellivegen" />
		<tag k="ssr:date" v="2019-12-27" />
		<tag k="ssr:gruppe" v="veg" />
		<tag k="ssr:hovedgruppe" v="infrastruktur" />
		<tag k="ssr:stedsnr" v="771000" />
		<tag k="ssr:type" v="vegstrekning" />
	</node>
	<node lat="61.42624444188147" lon="11.21461945089131" id="-26971">
		<tag k="name" v="Jønnbuåsvegen" />
		<tag k="ssr:date" v="2019-12-27" />
		<tag k="ssr:gruppe" v="veg" />
		<tag k="ssr:hovedgruppe" v="infrastruktur" />
		<tag k="ssr:stedsnr" v="784277" />
		<tag k="ssr:type" v="vegstrekning" />
	</node>
	<node lat="61.61884722255011" lon="11.020583335244654" id="-27063">
		<tag k="name" v="Bråtålivegen" />
		<tag k="ssr:date" v="2019-12-27" />
		<tag k="ssr:gruppe" v="veg" />
		<tag k="ssr:hovedgruppe" v="infrastruktur" />
		<tag k="ssr:stedsnr" v="845273" />
		<tag k="ssr:type" v="vegstrekning" />
	</node>
	<node lat="61.2058472178017" lon="11.229833332996593" id="-27066">
		<tag k="name" v="Bjørnmyrvegen" />
		<tag k="ssr:date" v="2019-12-27" />
		<tag k="ssr:gruppe" v="veg" />
		<tag k="ssr:hovedgruppe" v="infrastruktur" />
		<tag k="ssr:stedsnr" v="846444" />
		<tag k="ssr:type" v="vegstrekning" />
	</node>
	<node lat="61.325366668438896" lon="10.941491658935943" id="-27134">
		<tag k="name" v="Sjøvegen" />
		<tag k="ssr:date" v="2019-12-27" />
		<tag k="ssr:gruppe" v="veg" />
		<tag k="ssr:hovedgruppe" v="infrastruktur" />
		<tag k="ssr:stedsnr" v="950637" />
		<tag k="ssr:type" v="vegstrekning" />
	</node>
	<node lat="61.61009444736128" lon="10.977308338637782" id="-27138">
		<tag k="name" v="Frosålivegen" />
		<tag k="ssr:date" v="2019-12-27" />
		<tag k="ssr:gruppe" v="veg" />
		<tag k="ssr:hovedgruppe" v="infrastruktur" />
		<tag k="ssr:stedsnr" v="966261" />
		<tag k="ssr:type" v="vegstrekning" />
	</node>
	<node lat="61.57522777434341" lon="10.984400003642557" id="-27156">
		<tag k="name" v="Løvmyrvegen" />
		<tag k="ssr:date" v="2019-12-27" />
		<tag k="ssr:gruppe" v="veg" />
		<tag k="ssr:hovedgruppe" v="infrastruktur" />
		<tag k="ssr:stedsnr" v="969374" />
		<tag k="ssr:type" v="vegstrekning" />
	</node>
	<node lat="61.2824704816537" lon="11.32603152066666" id="-27161">
		<tag k="name" v="Brennteigvegen" />
		<tag k="ssr:date" v="2019-12-27" />
		<tag k="ssr:gruppe" v="veg" />
		<tag k="ssr:hovedgruppe" v="infrastruktur" />
		<tag k="ssr:stedsnr" v="969857" />
		<tag k="ssr:type" v="vegstrekning" />
	</node>
	<node lat="61.79451591305677" lon="10.198141496248327" id="-27172">
		<tag k="name" v="Vollsætra" />
		<tag k="ssr:date" v="2019-12-27" />
		<tag k="ssr:gruppe" v="veg" />
		<tag k="ssr:hovedgruppe" v="infrastruktur" />
		<tag k="ssr:stedsnr" v="1007257" />
		<tag k="ssr:type" v="adressenavn" />
	</node>
	<node lat="61.590811353822176" lon="10.76866998705209" id="-27173">
		<tag k="name" v="Negardstjønnen" />
		<tag k="ssr:date" v="2019-12-27" />
		<tag k="ssr:gruppe" v="veg" />
		<tag k="ssr:hovedgruppe" v="infrastruktur" />
		<tag k="ssr:stedsnr" v="1007425" />
		<tag k="ssr:type" v="adressenavn" />
	</node>
	<node lat="61.570743006318665" lon="10.679315293548637" id="-27174">
		<tag k="name" v="Fampsætra" />
		<tag k="ssr:date" v="2019-12-27" />
		<tag k="ssr:gruppe" v="veg" />
		<tag k="ssr:hovedgruppe" v="infrastruktur" />
		<tag k="ssr:stedsnr" v="1007429" />
		<tag k="ssr:type" v="adressenavn" />
	</node>
	<node lat="61.546417241012975" lon="11.120424153347097" id="-27175">
		<tag k="name" v="Skårnsjøen" />
		<tag k="ssr:date" v="2019-12-27" />
		<tag k="ssr:gruppe" v="veg" />
		<tag k="ssr:hovedgruppe" v="infrastruktur" />
		<tag k="ssr:stedsnr" v="1007496" />
		<tag k="ssr:type" v="adressenavn" />
	</node>
	<node lat="61.53460635558765" lon="10.966379330602445" id="-27176">
		<tag k="name" v="Åslisætra" />
		<tag k="ssr:date" v="2019-12-27" />
		<tag k="ssr:gruppe" v="veg" />
		<tag k="ssr:hovedgruppe" v="infrastruktur" />
		<tag k="ssr:stedsnr" v="1007502" />
		<tag k="ssr:type" v="adressenavn" />
	</node>
	<node lat="61.46813069238008" lon="11.220949914881919" id="-27177">
		<tag k="name" v="Netsjøen" />
		<tag k="ssr:date" v="2019-12-27" />
		<tag k="ssr:gruppe" v="veg" />
		<tag k="ssr:hovedgruppe" v="infrastruktur" />
		<tag k="ssr:stedsnr" v="1007507" />
		<tag k="ssr:type" v="adressenavn" />
	</node>
	<node lat="60.795248707246294" lon="11.082591224285064" id="-27179">
		<tag k="name" v="Innlandet fylke" />
		<tag k="ssr:date" v="2021-06-08" />
		<tag k="ssr:gruppe" v="administrativeIndelinger" />
		<tag k="ssr:hovedgruppe" v="offentligAdministrasjon" />
		<tag k="ssr:stedsnr" v="1074406" />
		<tag k="ssr:type" v="fylke" />
	</node>
</osm>
