<?xml version="1.0" encoding="UTF-8"?>
<osm generator="osmapis" version="0.6">
	<node id="-384629" lat="58.6943127169" lon="6.66972099269">
		<tag k="name" v="Bjønndalsheie" />
		<tag k="ssr:date" v="2019-05-30" />
		<tag k="ssr:gruppe" v="veg" />
		<tag k="ssr:hovedgruppe" v="infrastruktur" />
		<tag k="ssr:stedsnr" v="1009202" />
		<tag k="ssr:type" v="adressenavn" />
	</node>
	<node id="-384628" lat="58.6577311868" lon="6.76021778657">
		<tag k="name" v="Tonstadheie" />
		<tag k="ssr:date" v="2019-05-30" />
		<tag k="ssr:gruppe" v="veg" />
		<tag k="ssr:hovedgruppe" v="infrastruktur" />
		<tag k="ssr:stedsnr" v="1009201" />
		<tag k="ssr:type" v="adressenavn" />
	</node>
	<node id="-384723" lat="58.6651000006" lon="6.71573888309">
		<tag k="name" v="Sirdal kommune" />
		<tag k="ssr:date" v="2017-11-10" />
		<tag k="ssr:gruppe" v="administrativeIndelinger" />
		<tag k="ssr:hovedgruppe" v="offentligAdministrasjon" />
		<tag k="ssr:stedsnr" v="24288" />
		<tag k="ssr:type" v="kommune" />
	</node>
	<node id="-384626" lat="58.6380099757" lon="6.50572674241">
		<tag k="name" v="Nordgardsheie" />
		<tag k="ssr:date" v="2019-05-30" />
		<tag k="ssr:gruppe" v="veg" />
		<tag k="ssr:hovedgruppe" v="infrastruktur" />
		<tag k="ssr:stedsnr" v="1009198" />
		<tag k="ssr:type" v="adressenavn" />
	</node>
	<node id="-384627" lat="58.6570670754" lon="6.7585052512">
		<tag k="name" v="Ovedalsheie" />
		<tag k="ssr:date" v="2019-05-30" />
		<tag k="ssr:gruppe" v="veg" />
		<tag k="ssr:hovedgruppe" v="infrastruktur" />
		<tag k="ssr:stedsnr" v="1009199" />
		<tag k="ssr:type" v="adressenavn" />
	</node>
	<node id="-384592" lat="58.6329653218" lon="6.51108334727">
		<tag k="name" v="Snelldal" />
		<tag k="ssr:date" v="2019-05-30" />
		<tag k="ssr:gruppe" v="veg" />
		<tag k="ssr:hovedgruppe" v="infrastruktur" />
		<tag k="ssr:stedsnr" v="981566" />
		<tag k="ssr:type" v="adressenavn" />
	</node>
	<node id="-384591" lat="59.0358621743" lon="6.87322279321">
		<tag k="name" v="Grydalen" />
		<tag k="ssr:date" v="2019-05-30" />
		<tag k="ssr:gruppe" v="veg" />
		<tag k="ssr:hovedgruppe" v="infrastruktur" />
		<tag k="ssr:stedsnr" v="981458" />
		<tag k="ssr:type" v="adressenavn" />
	</node>
	<node id="-384593" lat="58.6756237699" lon="6.72962785122">
		<tag k="name" v="Dalevegen" />
		<tag k="ssr:date" v="2019-05-30" />
		<tag k="ssr:gruppe" v="veg" />
		<tag k="ssr:hovedgruppe" v="infrastruktur" />
		<tag k="ssr:stedsnr" v="981693" />
		<tag k="ssr:type" v="adressenavn" />
	</node>
	<node id="-384625" lat="59.0149112288" lon="6.96084322026">
		<tag k="name" v="Hesture" />
		<tag k="ssr:date" v="2019-05-30" />
		<tag k="ssr:gruppe" v="veg" />
		<tag k="ssr:hovedgruppe" v="infrastruktur" />
		<tag k="ssr:stedsnr" v="1008938" />
		<tag k="ssr:type" v="adressenavn" />
	</node>
	<node id="-387106" lat="58.7473333346" lon="6.78882500646">
		<tag k="name" v="Rosstølbakken" />
		<tag k="ssr:date" v="2016-05-10" />
		<tag k="ssr:gruppe" v="veg" />
		<tag k="ssr:hovedgruppe" v="infrastruktur" />
		<tag k="ssr:stedsnr" v="589759" />
		<tag k="ssr:type" v="vegstrekning" />
	</node>
</osm>
