<?xml version="1.0" encoding="UTF-8"?>
<osm generator="osmapis" version="0.6">
	<node id="-541262" lat="61.9324537812" lon="5.38823834271">
		<tag k="alt_name" v="Totland" />
		<tag k="amenity" v="place_of_worship" />
		<tag k="denomination" v="lutheran" />
		<tag k="name" v="Totland kyrkje" />
		<tag k="religion" v="christian" />
		<tag k="ssr:stedsnr" v="738243" />
	</node>
	<node id="-541443" lat="61.9883444421" lon="5.15169444616">
		<tag k="alt_name" v="Vågsøy;Nord-Vågsøy;Nord Vågsøy kyrkje" />
		<tag k="amenity" v="place_of_worship" />
		<tag k="denomination" v="lutheran" />
		<tag k="name" v="Nord-Vågsøy kyrkje" />
		<tag k="religion" v="christian" />
		<tag k="ssr:stedsnr" v="859852" />
	</node>
	<node id="-540782" lat="61.9303416688" lon="5.11093888376">
		<tag k="alt_name" v="Sør-Vågsøy;Sør Vågsøy Kyrkje" />
		<tag k="amenity" v="place_of_worship" />
		<tag k="denomination" v="lutheran" />
		<tag k="name" v="Sør-Vågsøy kyrkje" />
		<tag k="religion" v="christian" />
		<tag k="ssr:stedsnr" v="252789" />
	</node>
</osm>
