<?xml version="1.0" encoding="UTF-8"?>
<osm generator="osmapis" version="0.6">
	<node id="-541354" lat="61.9569544687" lon="5.36156540573">
		<tag k="historic" v="shieling" />
		<tag k="name" v="Rimstadsætra" />
		<tag k="place" v="locality" />
		<tag k="ssr:stedsnr" v="799815" />
	</node>
	<node id="-541178" lat="61.9595250561" lon="5.04234988583">
		<tag k="fixme" v="consider place=hamlet" />
		<tag k="name" v="Færestranda" />
		<tag k="place" v="farm" />
		<tag k="ssr:stedsnr" v="677956" />
	</node>
	<node id="-541176" lat="61.9863722191" lon="5.11756666081">
		<tag k="name" v="Hagen" />
		<tag k="place" v="farm" />
		<tag k="ssr:stedsnr" v="677875" />
	</node>
	<node id="-541175" lat="61.9353444448" lon="5.11365833434">
		<tag k="name" v="Måløy" />
		<tag k="place" v="town" />
		<tag k="ssr:stedsnr" v="677817" />
	</node>
	<node id="-541172" lat="61.9702222209" lon="5.37992776958">
		<tag k="name" v="Rimstadsætra" />
		<tag k="place" v="locality" />
		<tag k="ssr:stedsnr" v="677786" />
	</node>
	<node id="-541170" lat="61.9383861079" lon="5.43032223204">
		<tag k="name" v="Bryggja" />
		<tag k="place" v="hamlet" />
		<tag k="ssr:stedsnr" v="677220" />
	</node>
	<node id="-541154" lat="61.8887888867" lon="5.15311388129">
		<tag k="name" v="Rognelund" />
		<tag k="place" v="farm" />
		<tag k="ssr:stedsnr" v="659838" />
	</node>
	<node id="-540325" lat="61.91537405" lon="5.04147342917">
		<tag k="fixme" v="consider place=hamlet" />
		<tag k="name" v="Husevåg" />
		<tag k="place" v="village" />
		<tag k="ssr:stedsnr" v="374985" />
	</node>
	<node id="-540636" lat="61.8972808198" lon="5.04863058748">
		<tag k="fixme" v="consider place=hamlet" />
		<tag k="name" v="Krabbestigen" />
		<tag k="place" v="farm" />
		<tag k="ssr:stedsnr" v="131998" />
	</node>
	<node id="-540621" lat="62.0025886007" lon="5.14263627308">
		<tag k="fixme" v="consider place=hamlet" />
		<tag k="name" v="Halsøyra" />
		<tag k="place" v="farm" />
		<tag k="ssr:stedsnr" v="131664" />
	</node>
	<node id="-540620" lat="61.9478206149" lon="5.46856842167">
		<tag k="fixme" v="consider place=hamlet" />
		<tag k="name" v="Brubakken" />
		<tag k="place" v="farm" />
		<tag k="ssr:stedsnr" v="131454" />
	</node>
	<node id="-541131" lat="61.9638202581" lon="5.49176097321">
		<tag k="fixme" v="consider place=hamlet" />
		<tag k="name" v="Nave" />
		<tag k="place" v="farm" />
		<tag k="ssr:stedsnr" v="639849" />
	</node>
	<node id="-541125" lat="61.9723583311" lon="5.11369444347">
		<tag k="historic" v="shieling" />
		<tag k="name" v="Rystestølen" />
		<tag k="place" v="locality" />
		<tag k="ssr:stedsnr" v="639747" />
	</node>
	<node id="-540607" lat="62.0220194436" lon="5.00696111439">
		<tag k="historic" v="shieling" />
		<tag k="name" v="Kloppestølen" />
		<tag k="place" v="locality" />
		<tag k="ssr:stedsnr" v="94453" />
	</node>
	<node id="-541426" lat="61.9351694402" lon="5.49397777613">
		<tag k="name" v="Nygard" />
		<tag k="place" v="farm" />
		<tag k="ssr:stedsnr" v="847652" />
	</node>
	<node id="-540743" lat="61.9344170547" lon="5.10599692851">
		<tag k="name" v="Skram" />
		<tag k="place" v="hamlet" />
		<tag k="ssr:stedsnr" v="215675" />
	</node>
	<node id="-541094" lat="62.0127472184" lon="5.13021110884">
		<tag k="alt_name" v="Sæter" />
		<tag k="name" v="Setra" />
		<tag k="place" v="farm" />
		<tag k="ssr:stedsnr" v="617641" />
	</node>
	<node id="-541090" lat="61.9891632729" lon="5.05415899326">
		<tag k="fixme" v="consider place=hamlet" />
		<tag k="name" v="Myre" />
		<tag k="place" v="farm" />
		<tag k="ssr:stedsnr" v="616967" />
	</node>
	<node id="-541089" lat="61.9850112933" lon="5.1379511006">
		<tag k="fixme" v="consider place=hamlet" />
		<tag k="name" v="Raudeberg" />
		<tag k="place" v="village" />
		<tag k="ssr:stedsnr" v="616891" />
	</node>
	<node id="-541088" lat="61.9414670154" lon="5.45131566997">
		<tag k="fixme" v="consider place=hamlet" />
		<tag k="name" v="Indre Nore" />
		<tag k="place" v="farm" />
		<tag k="ssr:stedsnr" v="616831" />
	</node>
	<node id="-541087" lat="61.9430621975" lon="5.14873631351">
		<tag k="fixme" v="consider place=hamlet" />
		<tag k="name" v="Trollebø" />
		<tag k="place" v="farm" />
		<tag k="ssr:stedsnr" v="616803" />
	</node>
	<node id="-540996" lat="61.9176583346" lon="5.35511945258">
		<tag k="name" v="Krokepollen" />
		<tag k="place" v="farm" />
		<tag k="ssr:stedsnr" v="555167" />
	</node>
	<node id="-541076" lat="61.9205250029" lon="5.23098889322">
		<tag k="name" v="Austadalen" />
		<tag k="place" v="farm" />
		<tag k="ssr:stedsnr" v="616200" />
	</node>
	<node id="-541075" lat="61.9131099638" lon="5.28819534195">
		<tag k="fixme" v="consider place=hamlet" />
		<tag k="name" v="Raudegga" />
		<tag k="place" v="farm" />
		<tag k="ssr:stedsnr" v="616199" />
	</node>
	<node id="-541074" lat="61.9017732038" lon="5.16698359395">
		<tag k="fixme" v="consider place=hamlet" />
		<tag k="name" v="Vemmelsvika" />
		<tag k="place" v="farm" />
		<tag k="ssr:stedsnr" v="616195" />
	</node>
	<node id="-541073" lat="61.9009737076" lon="5.19181426799">
		<tag k="fixme" v="consider place=hamlet" />
		<tag k="name" v="Angelshaug" />
		<tag k="place" v="farm" />
		<tag k="ssr:stedsnr" v="616192" />
	</node>
	<node id="-540558" lat="61.9292166706" lon="5.38913611436">
		<tag k="name" v="Fjordly" />
		<tag k="ssr:stedsnr" v="81202" />
		<tag k="tourism" v="camp_site" />
	</node>
	<node id="-540551" lat="61.998400658" lon="5.1460766492">
		<tag k="fixme" v="consider place=hamlet" />
		<tag k="name" v="Hals" />
		<tag k="place" v="farm" />
		<tag k="ssr:stedsnr" v="71182" />
	</node>
	<node id="-540550" lat="61.8878071365" lon="5.15502639337">
		<tag k="fixme" v="consider place=hamlet" />
		<tag k="name" v="Gangsøy" />
		<tag k="place" v="farm" />
		<tag k="ssr:stedsnr" v="71221" />
	</node>
	<node id="-541060" lat="62.0178333318" lon="5.20540834131">
		<tag k="name" v="Nordre Silda" />
		<tag k="place" v="hamlet" />
		<tag k="ssr:stedsnr" v="579879" />
	</node>
	<node id="-540822" lat="61.9516638906" lon="5.42739445202">
		<tag k="historic" v="shieling" />
		<tag k="name" v="Hesseviksætra" />
		<tag k="place" v="locality" />
		<tag k="ssr:stedsnr" v="435822" />
	</node>
	<node id="-540546" lat="61.9499745072" lon="5.39711680712">
		<tag k="name" v="Rimstad" />
		<tag k="place" v="hamlet" />
		<tag k="ssr:stedsnr" v="70789" />
	</node>
	<node id="-540543" lat="61.9302886765" lon="5.14027934024">
		<tag k="fixme" v="consider place=hamlet" />
		<tag k="name" v="Deknepollen" />
		<tag k="place" v="farm" />
		<tag k="ssr:stedsnr" v="70231" />
	</node>
	<node id="-540539" lat="61.9370972196" lon="5.13821666242">
		<tag k="name" v="Trollebø industriområde" />
		<tag k="place" v="quarter" />
		<tag k="ssr:stedsnr" v="58895" />
	</node>
	<node id="-541561" lat="61.9310876775" lon="5.38365376038">
		<tag k="name" v="Totland" />
		<tag k="place" v="hamlet" />
		<tag k="ssr:stedsnr" v="978967" />
	</node>
	<node id="-541560" lat="61.9834809678" lon="5.13186953478">
		<tag k="fixme" v="consider place=hamlet" />
		<tag k="name" v="Raudeberg" />
		<tag k="place" v="farm" />
		<tag k="ssr:stedsnr" v="978965" />
	</node>
	<node id="-541559" lat="61.9435350835" lon="5.12255671429">
		<tag k="fixme" v="consider place=hamlet" />
		<tag k="name" v="Gotteberg" />
		<tag k="place" v="farm" />
		<tag k="ssr:stedsnr" v="978964" />
	</node>
	<node id="-541039" lat="61.9561888895" lon="5.36177499414">
		<tag k="historic" v="shieling" />
		<tag k="name" v="Gamlestølen" />
		<tag k="place" v="locality" />
		<tag k="ssr:stedsnr" v="578870" />
	</node>
	<node id="-540306" lat="61.9643444421" lon="5.52665555911">
		<tag k="historic" v="shieling" />
		<tag k="name" v="Høgelida" />
		<tag k="place" v="locality" />
		<tag k="ssr:stedsnr" v="373017" />
	</node>
	<node id="-540513" lat="61.9719428259" lon="5.15871709827">
		<tag k="alt_name" v="Tvindeseter" />
		<tag k="fixme" v="consider place=hamlet" />
		<tag k="name" v="Tvinneseter" />
		<tag k="place" v="farm" />
		<tag k="ssr:stedsnr" v="33755" />
	</node>
	<node id="-540507" lat="61.9295424508" lon="5.10972243637">
		<tag k="fixme" v="consider place=hamlet" />
		<tag k="name" v="Seternes" />
		<tag k="place" v="farm" />
		<tag k="ssr:stedsnr" v="33688" />
	</node>
	<node id="-541013" lat="61.9462888869" lon="5.08160556101">
		<tag k="historic" v="shieling" />
		<tag k="name" v="Nysetra" />
		<tag k="place" v="locality" />
		<tag k="ssr:stedsnr" v="578219" />
	</node>
	<node id="-541010" lat="61.9612166643" lon="5.07251388423">
		<tag k="historic" v="shieling" />
		<tag k="name" v="Søroppedalsstøylen" />
		<tag k="place" v="locality" />
		<tag k="ssr:stedsnr" v="566013" />
	</node>
	<node id="-541009" lat="62.0076675961" lon="5.13862660253">
		<tag k="fixme" v="consider place=hamlet" />
		<tag k="name" v="Kjerringdalen" />
		<tag k="place" v="farm" />
		<tag k="ssr:stedsnr" v="557610" />
	</node>
	<node id="-540999" lat="61.9173786697" lon="5.16006672762">
		<tag k="fixme" v="consider place=hamlet" />
		<tag k="name" v="Tennebø" />
		<tag k="place" v="farm" />
		<tag k="ssr:stedsnr" v="555202" />
	</node>
	<node id="-540997" lat="61.9140343492" lon="5.23193038616">
		<tag k="fixme" v="consider place=hamlet" />
		<tag k="name" v="Eldevika" />
		<tag k="place" v="farm" />
		<tag k="ssr:stedsnr" v="555181" />
	</node>
	<node id="-540484" lat="61.9321861118" lon="5.38687777479">
		<tag k="alt_name" v="Totland Indre" />
		<tag k="fixme" v="consider place=hamlet" />
		<tag k="name" v="Indre Totland" />
		<tag k="place" v="village" />
		<tag k="ssr:stedsnr" v="33203" />
	</node>
	<node id="-540995" lat="61.8901444435" lon="5.14987499062">
		<tag k="name" v="Buvika" />
		<tag k="place" v="farm" />
		<tag k="ssr:stedsnr" v="555159" />
	</node>
	<node id="-541500" lat="62.0091388869" lon="5.19197777181">
		<tag k="fixme" v="consider place=hamlet" />
		<tag k="name" v="Søre Silda" />
		<tag k="place" v="village" />
		<tag k="ssr:stedsnr" v="943852" />
	</node>
	<node id="-540987" lat="61.897991663" lon="5.05695833942">
		<tag k="name" v="Haugen" />
		<tag k="place" v="farm" />
		<tag k="ssr:stedsnr" v="539296" />
	</node>
	<node id="-540985" lat="61.986054276" lon="5.18661535648">
		<tag k="fixme" v="consider place=hamlet" />
		<tag k="name" v="Osmundsvåg" />
		<tag k="place" v="farm" />
		<tag k="ssr:stedsnr" v="537845" />
	</node>
	<node id="-541496" lat="61.9290166645" lon="5.08079722631">
		<tag k="fixme" v="consider place=hamlet" />
		<tag k="name" v="Holvika" />
		<tag k="place" v="farm" />
		<tag k="ssr:stedsnr" v="936452" />
	</node>
	<node id="-540468" lat="61.9288638926" lon="5.46915000333">
		<tag k="name" v="Åsnes" />
		<tag k="place" v="farm" />
		<tag k="ssr:stedsnr" v="10839" />
	</node>
	<node id="-541406" lat="61.9457861074" lon="5.42559721635">
		<tag k="historic" v="shieling" />
		<tag k="name" v="Fjellstølen" />
		<tag k="place" v="locality" />
		<tag k="ssr:stedsnr" v="822936" />
	</node>
	<node id="-541490" lat="62.0241527774" lon="4.9976249935">
		<tag k="name" v="Teige" />
		<tag k="place" v="farm" />
		<tag k="ssr:stedsnr" v="921691" />
	</node>
	<node id="-540465" lat="61.9329240354" lon="5.22521891624">
		<tag k="alt_name" v="Sør-pollen" />
		<tag k="fixme" v="consider place=hamlet" />
		<tag k="name" v="Sørpollen" />
		<tag k="place" v="farm" />
		<tag k="ssr:stedsnr" v="10245" />
	</node>
	<node id="-540462" lat="61.910265323" lon="5.16758679696">
		<tag k="alt_name" v="Evjen" />
		<tag k="fixme" v="consider place=hamlet" />
		<tag k="name" v="Evja" />
		<tag k="place" v="farm" />
		<tag k="ssr:stedsnr" v="10221" />
	</node>
	<node id="-540461" lat="61.899485281" lon="5.08916600468">
		<tag k="fixme" v="consider place=hamlet" />
		<tag k="name" v="Tytingvågen" />
		<tag k="place" v="farm" />
		<tag k="ssr:stedsnr" v="10214" />
	</node>
	<node id="-541482" lat="61.9974061096" lon="5.09047983205">
		<tag k="fixme" v="consider place=hamlet" />
		<tag k="name" v="Refvika" />
		<tag k="place" v="farm" />
		<tag k="ssr:stedsnr" v="920881" />
	</node>
	<node id="-541480" lat="61.9621222201" lon="5.4541166718">
		<tag k="name" v="Kringla" />
		<tag k="place" v="locality" />
		<tag k="ssr:stedsnr" v="920792" />
	</node>
	<node id="-541479" lat="61.9593611068" lon="5.44048332779">
		<tag k="alt_name" v="Nysetra" />
		<tag k="historic" v="shieling" />
		<tag k="name" v="Nysætra" />
		<tag k="place" v="locality" />
		<tag k="ssr:stedsnr" v="920791" />
	</node>
	<node id="-541062" lat="61.9146111122" lon="5.23000278692">
		<tag k="name" v="Eldevika" />
		<tag k="place" v="quarter" />
		<tag k="ssr:stedsnr" v="586535" />
	</node>
	<node id="-541474" lat="61.9965527765" lon="5.02793888083">
		<tag k="name" v="Skjenet" />
		<tag k="place" v="locality" />
		<tag k="ssr:stedsnr" v="920528" />
	</node>
	<node id="-540959" lat="61.9633596513" lon="5.06710430384">
		<tag k="fixme" v="consider place=hamlet" />
		<tag k="name" v="Søre Oppedalen" />
		<tag k="place" v="farm" />
		<tag k="ssr:stedsnr" v="518845" />
	</node>
	<node id="-541470" lat="61.9141694404" lon="5.29845000472">
		<tag k="name" v="Brunnsvika" />
		<tag k="place" v="farm" />
		<tag k="ssr:stedsnr" v="920214" />
	</node>
	<node id="-541469" lat="61.9137540011" lon="5.21687557711">
		<tag k="fixme" v="consider place=hamlet" />
		<tag k="name" v="Falkevika" />
		<tag k="old_name" v="Falkevik" />
		<tag k="place" v="farm" />
		<tag k="ssr:stedsnr" v="920212" />
	</node>
	<node id="-541464" lat="61.9470666706" lon="5.05090832462">
		<tag k="name" v="Nyborg" />
		<tag k="place" v="isolated_dwelling" />
		<tag k="ssr:stedsnr" v="903467" />
	</node>
	<node id="-540439" lat="61.9174555568" lon="5.35450833847">
		<tag k="name" v="Krokeide" />
		<tag k="place" v="farm" />
		<tag k="ssr:stedsnr" v="883670" />
	</node>
	<node id="-541457" lat="62.0166540859" lon="5.20216511316">
		<tag k="fixme" v="consider place=hamlet" />
		<tag k="name" v="Nordsilda" />
		<tag k="place" v="farm" />
		<tag k="ssr:stedsnr" v="861611" />
	</node>
	<node id="-541454" lat="61.9373972224" lon="5.04782777221">
		<tag k="name" v="Vågsvåg" />
		<tag k="place" v="village" />
		<tag k="ssr:stedsnr" v="860976" />
	</node>
	<node id="-541447" lat="61.9754950877" lon="5.15772976978">
		<tag k="fixme" v="consider place=hamlet" />
		<tag k="name" v="Ura" />
		<tag k="place" v="farm" />
		<tag k="ssr:stedsnr" v="860789" />
	</node>
	<node id="-541442" lat="61.9439270323" lon="5.37928981525">
		<tag k="fixme" v="consider place=hamlet" />
		<tag k="name" v="Øgarden" />
		<tag k="place" v="farm" />
		<tag k="ssr:stedsnr" v="859785" />
	</node>
	<node id="-541436" lat="61.9196331236" lon="5.1319564033">
		<tag k="fixme" v="consider place=hamlet" />
		<tag k="name" v="Blålid" />
		<tag k="place" v="farm" />
		<tag k="ssr:stedsnr" v="859218" />
	</node>
	<node id="-541435" lat="61.9399967839" lon="5.46358396199">
		<tag k="fixme" v="consider place=hamlet" />
		<tag k="name" v="Maurstad" />
		<tag k="place" v="farm" />
		<tag k="ssr:stedsnr" v="859219" />
	</node>
	<node id="-541430" lat="61.893894465" lon="5.12911122333">
		<tag k="fixme" v="consider place=hamlet" />
		<tag k="name" v="Grindøya" />
		<tag k="place" v="farm" />
		<tag k="ssr:stedsnr" v="859177" />
	</node>
	<node id="-540917" lat="61.99839722" lon="5.0898861138">
		<tag k="name" v="Refvika" />
		<tag k="place" v="hamlet" />
		<tag k="ssr:stedsnr" v="506008" />
	</node>
	<node id="-541427" lat="61.9601694404" lon="5.48633054715">
		<tag k="alt_name" v="Øyehaug" />
		<tag k="name" v="Øyehaugen" />
		<tag k="place" v="farm" />
		<tag k="ssr:stedsnr" v="859001" />
	</node>
	<node id="-540402" lat="61.914416668" lon="5.25063611092">
		<tag k="historic" v="shieling" />
		<tag k="name" v="Setra" />
		<tag k="place" v="locality" />
		<tag k="ssr:stedsnr" v="882478" />
	</node>
	<node id="-540913" lat="62.010274577" lon="5.19431438788">
		<tag k="fixme" v="consider place=hamlet" />
		<tag k="name" v="Sørsilda" />
		<tag k="place" v="farm" />
		<tag k="ssr:stedsnr" v="496663" />
	</node>
	<node id="-540970" lat="62.022322225" lon="5.02648611943">
		<tag k="historic" v="shieling" />
		<tag k="name" v="Setra" />
		<tag k="place" v="locality" />
		<tag k="ssr:stedsnr" v="519321" />
	</node>
	<node id="-540910" lat="61.9123711681" lon="5.07235676102">
		<tag k="fixme" v="consider place=hamlet" />
		<tag k="name" v="Ramsevika" />
		<tag k="place" v="farm" />
		<tag k="ssr:stedsnr" v="495981" />
	</node>
	<node id="-540396" lat="61.95606024" lon="5.05701705462">
		<tag k="fixme" v="consider place=hamlet" />
		<tag k="name" v="Myrestrand" />
		<tag k="place" v="farm" />
		<tag k="ssr:stedsnr" v="882364" />
	</node>
	<node id="-540394" lat="61.9478083331" lon="5.05289167153">
		<tag k="name" v="Gravdal" />
		<tag k="place" v="farm" />
		<tag k="ssr:stedsnr" v="478504" />
	</node>
	<node id="-541223" lat="61.9420861111" lon="5.45213055421">
		<tag k="name" v="Indre Nore" />
		<tag k="place" v="hamlet" />
		<tag k="ssr:stedsnr" v="700855" />
	</node>
	<node id="-540904" lat="61.9898514414" lon="5.15376122325">
		<tag k="fixme" v="consider place=hamlet" />
		<tag k="name" v="Røysa" />
		<tag k="place" v="farm" />
		<tag k="ssr:stedsnr" v="495879" />
	</node>
	<node id="-540388" lat="61.9712721805" lon="5.07095210313">
		<tag k="fixme" v="consider place=hamlet" />
		<tag k="name" v="Nordoppedalen" />
		<tag k="place" v="farm" />
		<tag k="ssr:stedsnr" v="477967" />
	</node>
	<node id="-540897" lat="61.9110586656" lon="5.24096064667">
		<tag k="fixme" v="consider place=hamlet" />
		<tag k="name" v="Allmenningen" />
		<tag k="place" v="farm" />
		<tag k="ssr:stedsnr" v="495234" />
	</node>
	<node id="-540896" lat="61.9159225708" lon="5.19331978182">
		<tag k="fixme" v="consider place=hamlet" />
		<tag k="name" v="Skavøypollen" />
		<tag k="place" v="farm" />
		<tag k="ssr:stedsnr" v="495232" />
	</node>
	<node id="-540895" lat="61.9150249986" lon="5.18479167415">
		<tag k="name" v="Grønevika" />
		<tag k="place" v="farm" />
		<tag k="ssr:stedsnr" v="495231" />
	</node>
	<node id="-540382" lat="61.961491666" lon="5.41205278324">
		<tag k="historic" v="shieling" />
		<tag k="name" v="Geisdalsetra" />
		<tag k="place" v="locality" />
		<tag k="ssr:stedsnr" v="397931" />
	</node>
	<node id="-540893" lat="61.9783555563" lon="5.47964999721">
		<tag k="historic" v="shieling" />
		<tag k="name" v="Skorsteinshola" />
		<tag k="place" v="locality" />
		<tag k="ssr:stedsnr" v="495071" />
	</node>
	<node id="-540794" lat="61.9788140858" lon="5.15877279061">
		<tag k="fixme" v="consider place=hamlet" />
		<tag k="name" v="Hjartaneset" />
		<tag k="place" v="farm" />
		<tag k="ssr:stedsnr" v="253776" />
	</node>
	<node id="-541393" lat="61.9377975705" lon="5.10917952274">
		<tag k="alt_name" v="Midgarden" />
		<tag k="fixme" v="consider place=hamlet" />
		<tag k="name" v="Midtgård" />
		<tag k="place" v="farm" />
		<tag k="ssr:stedsnr" v="822673" />
	</node>
	<node id="-541388" lat="62.0088185105" lon="5.13528142401">
		<tag k="fixme" v="consider place=hamlet" />
		<tag k="name" v="Hovset" />
		<tag k="place" v="farm" />
		<tag k="ssr:stedsnr" v="822595" />
	</node>
	<node id="-541386" lat="61.9130638896" lon="5.21622222504">
		<tag k="name" v="Falkevik" />
		<tag k="place" v="hamlet" />
		<tag k="ssr:stedsnr" v="822589" />
	</node>
	<node id="-541384" lat="62.011530554" lon="5.10363054974">
		<tag k="name" v="Steinagard" />
		<tag k="place" v="farm" />
		<tag k="ssr:stedsnr" v="822563" />
	</node>
	<node id="-541380" lat="61.9145283045" lon="5.29679422187">
		<tag k="alt_name" v="Rødhjelle" />
		<tag k="fixme" v="consider place=hamlet" />
		<tag k="name" v="Raudhjellane" />
		<tag k="place" v="farm" />
		<tag k="ssr:stedsnr" v="822520" />
	</node>
	<node id="-540340" lat="61.8805861129" lon="5.17673610677">
		<tag k="alt_name" v="Risøy" />
		<tag k="fixme" v="consider place=hamlet" />
		<tag k="name" v="Risøya" />
		<tag k="place" v="farm" />
		<tag k="ssr:stedsnr" v="397283" />
	</node>
	<node id="-540849" lat="61.9230638914" lon="5.20686389763">
		<tag k="historic" v="shieling" />
		<tag k="name" v="Gamlestølen" />
		<tag k="place" v="locality" />
		<tag k="ssr:stedsnr" v="457569" />
	</node>
	<node id="-541360" lat="61.9398482226" lon="5.05266463939">
		<tag k="fixme" v="consider place=hamlet" />
		<tag k="name" v="Våge" />
		<tag k="place" v="farm" />
		<tag k="ssr:stedsnr" v="799976" />
	</node>
	<node id="-540844" lat="61.9373500017" lon="5.05239166168">
		<tag k="fixme" v="consider place=hamlet" />
		<tag k="name" v="Våge" />
		<tag k="place" v="village" />
		<tag k="ssr:stedsnr" v="457411" />
	</node>
	<node id="-540330" lat="62.0269796856" lon="4.99644686201">
		<tag k="fixme" v="consider place=hamlet" />
		<tag k="name" v="Kråkeneset" />
		<tag k="place" v="farm" />
		<tag k="ssr:stedsnr" v="375637" />
	</node>
	<node id="-541353" lat="61.9527773032" lon="5.40479946204">
		<tag k="name" v="Myklebust" />
		<tag k="place" v="hamlet" />
		<tag k="ssr:stedsnr" v="799816" />
	</node>
	<node id="-541350" lat="61.9557944417" lon="5.15372499142">
		<tag k="name" v="Saltkjelvika" />
		<tag k="place" v="farm" />
		<tag k="ssr:stedsnr" v="799803" />
	</node>
	<node id="-541349" lat="61.9624997929" lon="5.16046839157">
		<tag k="fixme" v="consider place=hamlet" />
		<tag k="name" v="Hagevik" />
		<tag k="place" v="farm" />
		<tag k="ssr:stedsnr" v="799788" />
	</node>
	<node id="-540323" lat="61.9293861133" lon="5.07951388151">
		<tag k="name" v="Holvika" />
		<tag k="place" v="village" />
		<tag k="ssr:stedsnr" v="374968" />
	</node>
	<node id="-541346" lat="61.9327583328" lon="5.22089721818">
		<tag k="name" v="Nybø" />
		<tag k="place" v="farm" />
		<tag k="ssr:stedsnr" v="799251" />
	</node>
	<node id="-541344" lat="61.9274931739" lon="5.46341315061">
		<tag k="fixme" v="consider place=hamlet" />
		<tag k="name" v="Åsnes" />
		<tag k="place" v="farm" />
		<tag k="ssr:stedsnr" v="799241" />
	</node>
	<node id="-541343" lat="61.9075895036" lon="5.20871092261">
		<tag k="alt_name" v="Verpeide" />
		<tag k="fixme" v="consider place=hamlet" />
		<tag k="name" v="Verpeidet" />
		<tag k="place" v="farm" />
		<tag k="ssr:stedsnr" v="799225" />
	</node>
	<node id="-540830" lat="61.9989249968" lon="5.0818666756">
		<tag k="name" v="Refvika" />
		<tag k="place" v="farm" />
		<tag k="ssr:stedsnr" v="435977" />
	</node>
	<node id="-540829" lat="61.9898570063" lon="5.04434808208">
		<tag k="fixme" v="consider place=hamlet" />
		<tag k="name" v="Ytre Kvalheim" />
		<tag k="place" v="farm" />
		<tag k="ssr:stedsnr" v="435975" />
	</node>
	<node id="-540315" lat="61.9437638881" lon="5.46828055345">
		<tag k="name" v="Maurstad" />
		<tag k="place" v="farm" />
		<tag k="ssr:stedsnr" v="374470" />
	</node>
	<node id="-540824" lat="61.9873472259" lon="5.19217500491">
		<tag k="name" v="Nordheim" />
		<tag k="place" v="farm" />
		<tag k="ssr:stedsnr" v="435888" />
	</node>
	<node id="-540310" lat="61.9479112795" lon="5.46210148333">
		<tag k="fixme" v="consider place=hamlet" />
		<tag k="name" v="Sollidbakke" />
		<tag k="place" v="farm" />
		<tag k="ssr:stedsnr" v="373802" />
	</node>
	<node id="-541331" lat="62.0323083291" lon="5.12288888549">
		<tag k="fixme" v="consider tourism=alpine_hut or tourism=chalet" />
		<tag k="name" v="Skongenes fyr" />
		<tag k="ssr:stedsnr" v="783999" />
		<tag k="tourism" v="wilderness_hut" />
	</node>
	<node id="-541330" lat="61.9334130749" lon="5.40330276358">
		<tag k="fixme" v="consider place=hamlet" />
		<tag k="name" v="Bryggja" />
		<tag k="place" v="farm" />
		<tag k="ssr:stedsnr" v="782588" />
	</node>
	<node id="-540815" lat="61.9372640424" lon="5.39556796134">
		<tag k="alt_name" v="Rundshaug" />
		<tag k="fixme" v="consider place=hamlet" />
		<tag k="name" v="Runnshaug" />
		<tag k="place" v="farm" />
		<tag k="ssr:stedsnr" v="435266" />
	</node>
	<node id="-541325" lat="61.9434500043" lon="5.44953055192">
		<tag k="name" v="Indre Nore" />
		<tag k="place" v="quarter" />
		<tag k="ssr:stedsnr" v="768517" />
	</node>
	<node id="-541323" lat="61.9331416708" lon="5.34111110198">
		<tag k="historic" v="shieling" />
		<tag k="name" v="Setra" />
		<tag k="place" v="locality" />
		<tag k="ssr:stedsnr" v="761961" />
	</node>
	<node id="-540802" lat="61.9330349571" lon="5.05245613096">
		<tag k="fixme" v="consider place=hamlet" />
		<tag k="name" v="Vågsberget" />
		<tag k="place" v="farm" />
		<tag k="ssr:stedsnr" v="263016" />
	</node>
	<node id="-540800" lat="62.0126194456" lon="5.11125555292">
		<tag k="name" v="Bakke" />
		<tag k="place" v="farm" />
		<tag k="ssr:stedsnr" v="254603" />
	</node>
	<node id="-540795" lat="61.9681125128" lon="5.41147822072">
		<tag k="historic" v="shieling" />
		<tag k="name" v="Myklebustsætra" />
		<tag k="place" v="locality" />
		<tag k="ssr:stedsnr" v="253798" />
	</node>
	<node id="-540282" lat="61.8987928331" lon="5.09735033767">
		<tag k="name" v="Nordvik" />
		<tag k="place" v="farm" />
		<tag k="ssr:stedsnr" v="337341" />
	</node>
	<node id="-541305" lat="61.9300383541" lon="5.12779419401">
		<tag k="fixme" v="consider place=hamlet" />
		<tag k="name" v="Kulen" />
		<tag k="place" v="farm" />
		<tag k="ssr:stedsnr" v="761668" />
	</node>
	<node id="-540789" lat="62.0137472253" lon="5.08881389803">
		<tag k="alt_name" v="Kongshaugen" />
		<tag k="name" v="Kongshaug" />
		<tag k="place" v="farm" />
		<tag k="ssr:stedsnr" v="253659" />
	</node>
	<node id="-540788" lat="62.013812293" lon="5.09904596435">
		<tag k="fixme" v="consider place=hamlet" />
		<tag k="name" v="Vedvika" />
		<tag k="place" v="farm" />
		<tag k="ssr:stedsnr" v="253649" />
	</node>
	<node id="-540272" lat="61.9294555529" lon="5.38283334214">
		<tag k="name" v="Ytre Totland" />
		<tag k="place" v="hamlet" />
		<tag k="ssr:stedsnr" v="336864" />
	</node>
	<node id="-540776" lat="61.952538885" lon="5.51209167012">
		<tag k="historic" v="shieling" />
		<tag k="name" v="Åsnessætra" />
		<tag k="place" v="locality" />
		<tag k="ssr:stedsnr" v="252002" />
	</node>
	<node id="-540781" lat="61.9449695702" lon="5.40410824151">
		<tag k="fixme" v="consider place=hamlet" />
		<tag k="name" v="Gjesdal" />
		<tag k="place" v="farm" />
		<tag k="ssr:stedsnr" v="252787" />
	</node>
	<node id="-541288" lat="61.9453916684" lon="5.16122500774">
		<tag k="historic" v="shieling" />
		<tag k="name" v="Setra" />
		<tag k="place" v="locality" />
		<tag k="ssr:stedsnr" v="761316" />
	</node>
	<node id="-541281" lat="61.9144120423" lon="5.04342972128">
		<tag k="fixme" v="consider place=hamlet" />
		<tag k="name" v="Husevåg" />
		<tag k="place" v="farm" />
		<tag k="ssr:stedsnr" v="753391" />
	</node>
	<node id="-541275" lat="62.0109912116" lon="5.13873753139">
		<tag k="fixme" v="consider place=hamlet" />
		<tag k="name" v="Langeneset" />
		<tag k="place" v="farm" />
		<tag k="ssr:stedsnr" v="739636" />
	</node>
	<node id="-541272" lat="61.9827635059" lon="5.0591099215">
		<tag k="fixme" v="consider place=hamlet" />
		<tag k="name" v="Indre Kvalheim" />
		<tag k="place" v="farm" />
		<tag k="ssr:stedsnr" v="738960" />
	</node>
	<node id="-541269" lat="61.9462072376" lon="5.4514335063">
		<tag k="fixme" v="consider place=hamlet" />
		<tag k="name" v="Heggedal" />
		<tag k="place" v="farm" />
		<tag k="ssr:stedsnr" v="738829" />
	</node>
	<node id="-541268" lat="61.9495442045" lon="5.20375611283">
		<tag k="fixme" v="consider place=hamlet" />
		<tag k="name" v="Reina" />
		<tag k="place" v="farm" />
		<tag k="ssr:stedsnr" v="738815" />
	</node>
	<node id="-541267" lat="61.9666472197" lon="5.40064722856">
		<tag k="alt_name" v="Abelsetra" />
		<tag k="historic" v="shieling" />
		<tag k="name" v="Runnshaugsætrane" />
		<tag k="place" v="locality" />
		<tag k="ssr:stedsnr" v="738811" />
	</node>
	<node id="-540242" lat="61.9399194429" lon="5.10056666438">
		<tag k="historic" v="shieling" />
		<tag k="name" v="Gamlesetra" />
		<tag k="place" v="locality" />
		<tag k="ssr:stedsnr" v="336281" />
	</node>
	<node id="-541264" lat="62.001411114" lon="5.0785999957">
		<tag k="name" v="Refvika" />
		<tag k="place" v="farm" />
		<tag k="ssr:stedsnr" v="738654" />
	</node>
	<node id="-541263" lat="61.9193476275" lon="5.18306246028">
		<tag k="fixme" v="consider place=hamlet" />
		<tag k="name" v="Nygård" />
		<tag k="place" v="farm" />
		<tag k="ssr:stedsnr" v="738252" />
	</node>
	<node id="-541261" lat="61.9400918343" lon="5.39293350959">
		<tag k="fixme" v="consider place=hamlet" />
		<tag k="name" v="Berget" />
		<tag k="place" v="farm" />
		<tag k="ssr:stedsnr" v="738244" />
	</node>
	<node id="-540746" lat="61.9957472245" lon="5.09296943795">
		<tag k="fixme" v="consider place=hamlet" />
		<tag k="name" v="Revik" />
		<tag k="place" v="village" />
		<tag k="ssr:stedsnr" v="215748" />
	</node>
	<node id="-541257" lat="61.9138444414" lon="5.13957221358">
		<tag k="name" v="Skavøy" />
		<tag k="place" v="farm" />
		<tag k="ssr:stedsnr" v="738227" />
	</node>
	<node id="-541255" lat="61.9131518368" lon="5.33593583631">
		<tag k="fixme" v="consider place=hamlet" />
		<tag k="name" v="Kroken" />
		<tag k="place" v="farm" />
		<tag k="ssr:stedsnr" v="738222" />
	</node>
	<node id="-540683" lat="62.0165027805" lon="5.11345832693">
		<tag k="name" v="Nordsanden" />
		<tag k="place" v="neighbourhood" />
		<tag k="ssr:stedsnr" v="161689" />
	</node>
	<node id="-540222" lat="61.9521901535" lon="5.15341542284">
		<tag k="fixme" v="consider place=hamlet" />
		<tag k="name" v="Saltkjelen" />
		<tag k="place" v="farm" />
		<tag k="ssr:stedsnr" v="313818" />
	</node>
	<node id="-540217" lat="61.9179714595" lon="5.14868454417">
		<tag k="fixme" v="consider place=hamlet" />
		<tag k="name" v="Okshola" />
		<tag k="place" v="farm" />
		<tag k="ssr:stedsnr" v="313233" />
	</node>
	<node id="-540215" lat="61.9632833373" lon="5.49118333621">
		<tag k="name" v="Nave" />
		<tag k="place" v="farm" />
		<tag k="ssr:stedsnr" v="313030" />
	</node>
	<node id="-540212" lat="61.9282852735" lon="5.11605018269">
		<tag k="fixme" v="consider place=hamlet" />
		<tag k="name" v="Måløy" />
		<tag k="place" v="farm" />
		<tag k="ssr:stedsnr" v="301899" />
	</node>
	<node id="-540716" lat="61.9237305518" lon="5.24637777132">
		<tag k="historic" v="shieling" />
		<tag k="name" v="Setra" />
		<tag k="place" v="locality" />
		<tag k="ssr:stedsnr" v="214570" />
	</node>
	<node id="-540201" lat="61.9154249982" lon="5.23274443555">
		<tag k="name" v="Leitet" />
		<tag k="place" v="isolated_dwelling" />
		<tag k="ssr:stedsnr" v="295620" />
	</node>
	<node id="-540200" lat="61.9188722226" lon="5.13003332695">
		<tag k="name" v="Blålid" />
		<tag k="place" v="quarter" />
		<tag k="ssr:stedsnr" v="283474" />
	</node>
	<node id="-540199" lat="62.0114305539" lon="5.11020556086">
		<tag k="name" v="Vedvika" />
		<tag k="place" v="quarter" />
		<tag k="ssr:stedsnr" v="283473" />
	</node>
	<node id="-540700" lat="61.9401391991" lon="5.43265844098">
		<tag k="fixme" v="consider place=hamlet" />
		<tag k="name" v="Ytre Nore" />
		<tag k="place" v="farm" />
		<tag k="ssr:stedsnr" v="192844" />
	</node>
	<node id="-540699" lat="61.946625933" lon="5.39342372094">
		<tag k="fixme" v="consider place=hamlet" />
		<tag k="name" v="Hole" />
		<tag k="place" v="farm" />
		<tag k="ssr:stedsnr" v="192842" />
	</node>
	<node id="-540698" lat="61.9587305515" lon="5.43548056188">
		<tag k="historic" v="shieling" />
		<tag k="name" v="Nakkelida" />
		<tag k="place" v="locality" />
		<tag k="ssr:stedsnr" v="192832" />
	</node>
	<node id="-540697" lat="61.9518051941" lon="5.20803836887">
		<tag k="fixme" v="consider place=hamlet" />
		<tag k="name" v="Straumen" />
		<tag k="old_name" v="Strauman" />
		<tag k="place" v="farm" />
		<tag k="ssr:stedsnr" v="192822" />
	</node>
	<node id="-540696" lat="61.9664277746" lon="5.43776945026">
		<tag k="historic" v="shieling" />
		<tag k="name" v="Sollida" />
		<tag k="place" v="locality" />
		<tag k="ssr:stedsnr" v="192818" />
	</node>
	<node id="-541204" lat="61.9527194413" lon="5.21959723212">
		<tag k="name" v="Straumssetra" />
		<tag k="place" v="farm" />
		<tag k="ssr:stedsnr" v="700605" />
	</node>
	<node id="-540691" lat="61.9362731607" lon="5.41595902354">
		<tag k="fixme" v="consider place=hamlet" />
		<tag k="name" v="Hessevika" />
		<tag k="place" v="farm" />
		<tag k="ssr:stedsnr" v="192253" />
	</node>
	<node id="-540690" lat="61.9335754703" lon="5.35989907885">
		<tag k="fixme" v="consider place=hamlet" />
		<tag k="name" v="Fagerlid" />
		<tag k="place" v="farm" />
		<tag k="ssr:stedsnr" v="192251" />
	</node>
	<node id="-540689" lat="61.924199999" lon="5.28983610581">
		<tag k="historic" v="shieling" />
		<tag k="name" v="Raudeggesætra" />
		<tag k="place" v="locality" />
		<tag k="ssr:stedsnr" v="192243" />
	</node>
	<node id="-540418" lat="61.9439444444" lon="5.47426944739">
		<tag k="historic" v="shieling" />
		<tag k="name" v="Gardstølane" />
		<tag k="place" v="locality" />
		<tag k="ssr:stedsnr" v="882715" />
	</node>
	<node id="-540682" lat="61.9882888902" lon="5.0735638934">
		<tag k="name" v="Kvalheim" />
		<tag k="place" v="quarter" />
		<tag k="ssr:stedsnr" v="161500" />
	</node>
	<node id="-541185" lat="61.9353222186" lon="5.23917777862">
		<tag k="historic" v="shieling" />
		<tag k="name" v="Godfarsetra" />
		<tag k="place" v="locality" />
		<tag k="ssr:stedsnr" v="699540" />
	</node>
</osm>
