<?xml version="1.0" encoding="UTF-8"?>
<osm generator="osmapis" version="0.6">
	<node id="-540672" lat="62.0046638867" lon="5.1735138944">
		<tag k="name" v="Lysholmfluda" />
		<tag k="natural" v="shoal" />
		<tag k="place" v="locality" />
		<tag k="ssr:stedsnr" v="906530" />
	</node>
	<node id="-540671" lat="62.0034083296" lon="5.19794999349">
		<tag k="name" v="Nørdre Kyrkjefluda" />
		<tag k="natural" v="shoal" />
		<tag k="place" v="locality" />
		<tag k="ssr:stedsnr" v="906526" />
	</node>
	<node id="-540670" lat="62.0132555519" lon="5.18027499219">
		<tag k="fixme" v="consider seamark:type=rock or natural=shoal" />
		<tag k="name" v="Artuskjeret" />
		<tag k="place" v="islet" />
		<tag k="ssr:stedsnr" v="906524" />
	</node>
	<node id="-540667" lat="61.9197500027" lon="5.1215722225">
		<tag k="fixme" v="consider seamark:type=rock or natural=shoal" />
		<tag k="name" v="Kariskjeret" />
		<tag k="place" v="islet" />
		<tag k="ssr:stedsnr" v="902538" />
	</node>
	<node id="-540666" lat="61.9287527742" lon="5.14237777922">
		<tag k="name" v="Ivahavet" />
		<tag k="natural" v="bay" />
		<tag k="ssr:stedsnr" v="877822" />
	</node>
	<node id="-540663" lat="62.0071749978" lon="5.14782499345">
		<tag k="name" v="Gamfluda" />
		<tag k="natural" v="shoal" />
		<tag k="place" v="locality" />
		<tag k="ssr:stedsnr" v="867136" />
	</node>
	<node id="-540661" lat="61.9432833305" lon="4.93449443838">
		<tag k="name" v="Nørdrefludene" />
		<tag k="natural" v="shoal" />
		<tag k="place" v="locality" />
		<tag k="ssr:stedsnr" v="860979" />
	</node>
	<node id="-540660" lat="61.9319305566" lon="4.95015832378">
		<tag k="name" v="Klovningen" />
		<tag k="place" v="island" />
		<tag k="ssr:stedsnr" v="860978" />
	</node>
	<node id="-540657" lat="61.9808555512" lon="5.05029444809">
		<tag k="name" v="Kvalheimsvika" />
		<tag k="natural" v="bay" />
		<tag k="ssr:stedsnr" v="860966" />
	</node>
	<node id="-540651" lat="62.069700002" lon="5.09170833122">
		<tag k="name" v="Djupeskallen" />
		<tag k="natural" v="shoal" />
		<tag k="place" v="locality" />
		<tag k="ssr:stedsnr" v="860706" />
	</node>
	<node id="-540650" lat="62.001236115" lon="5.15019722187">
		<tag k="name" v="Halsaneset" />
		<tag k="natural" v="cape" />
		<tag k="ssr:stedsnr" v="860698" />
	</node>
	<node id="-540643" lat="61.9948249972" lon="4.98725833215">
		<tag k="name" v="Einevarden" />
		<tag k="place" v="islet" />
		<tag k="ssr:stedsnr" v="859515" />
	</node>
	<node id="-540636" lat="61.9149527809" lon="5.34936111031">
		<tag k="name" v="Neset" />
		<tag k="natural" v="cape" />
		<tag k="ssr:stedsnr" v="859190" />
	</node>
	<node id="-540634" lat="61.8882888851" lon="5.14428056292">
		<tag k="name" v="Gangsøya" />
		<tag k="place" v="island" />
		<tag k="ssr:stedsnr" v="859173" />
	</node>
	<node id="-540630" lat="62.017377778" lon="5.22187499222">
		<tag k="name" v="Grunna" />
		<tag k="natural" v="shoal" />
		<tag k="place" v="locality" />
		<tag k="ssr:stedsnr" v="846512" />
	</node>
	<node id="-540629" lat="61.9677499995" lon="4.87554166903">
		<tag k="name" v="Gauteskallen" />
		<tag k="natural" v="shoal" />
		<tag k="place" v="locality" />
		<tag k="ssr:stedsnr" v="846488" />
	</node>
	<node id="-540628" lat="62.0367694485" lon="4.98599444055">
		<tag k="fixme" v="consider seamark:type=rock or natural=shoal" />
		<tag k="name" v="Kobbane" />
		<tag k="place" v="islet" />
		<tag k="ssr:stedsnr" v="845659" />
	</node>
	<node id="-540627" lat="61.9524861099" lon="5.20418055613">
		<tag k="name" v="Straumsneset" />
		<tag k="natural" v="cape" />
		<tag k="ssr:stedsnr" v="845032" />
	</node>
	<node id="-540626" lat="61.9275750027" lon="5.45980278128">
		<tag k="name" v="Åsneset" />
		<tag k="natural" v="cape" />
		<tag k="ssr:stedsnr" v="843509" />
	</node>
	<node id="-540625" lat="61.9651333323" lon="5.03646111266">
		<tag k="name" v="Hendaneset" />
		<tag k="natural" v="cape" />
		<tag k="ssr:stedsnr" v="843482" />
	</node>
	<node id="-540624" lat="61.9608638935" lon="5.14153056367">
		<tag k="name" v="Kiåneset" />
		<tag k="natural" v="cape" />
		<tag k="ssr:stedsnr" v="842733" />
	</node>
	<node id="-540623" lat="61.9479222249" lon="5.13736388373">
		<tag k="name" v="Leistholmen" />
		<tag k="place" v="islet" />
		<tag k="ssr:stedsnr" v="842714" />
	</node>
	<node id="-540622" lat="61.9113944479" lon="5.2166194353">
		<tag k="name" v="Lakseneset" />
		<tag k="natural" v="cape" />
		<tag k="ssr:stedsnr" v="842629" />
	</node>
	<node id="-540621" lat="61.9131666667" lon="5.3009555568">
		<tag k="name" v="Brunnsvika" />
		<tag k="natural" v="bay" />
		<tag k="ssr:stedsnr" v="842622" />
	</node>
	<node id="-540620" lat="61.9086972258" lon="5.27351944091">
		<tag k="name" v="Storevikfluda" />
		<tag k="natural" v="shoal" />
		<tag k="place" v="locality" />
		<tag k="ssr:stedsnr" v="842615" />
	</node>
	<node id="-540618" lat="61.9180166696" lon="5.35736666478">
		<tag k="name" v="Tasken" />
		<tag k="place" v="locality" />
		<tag k="ssr:stedsnr" v="842833" />
	</node>
	<node id="-540609" lat="61.9431416655" lon="5.01381945375">
		<tag k="alt_name" v="Langeneset" />
		<tag k="name" v="Langenes" />
		<tag k="natural" v="cape" />
		<tag k="ssr:stedsnr" v="822878" />
	</node>
	<node id="-540601" lat="62.0156222199" lon="5.08431666808">
		<tag k="name" v="Gangvika" />
		<tag k="natural" v="bay" />
		<tag k="ssr:stedsnr" v="822739" />
	</node>
	<node id="-540594" lat="62.0063333319" lon="5.14564723046">
		<tag k="fixme" v="consider seamark:type=rock or natural=shoal" />
		<tag k="name" v="Nobba" />
		<tag k="place" v="islet" />
		<tag k="ssr:stedsnr" v="822597" />
	</node>
	<node id="-540592" lat="61.9116444401" lon="5.26472499898">
		<tag k="name" v="Raudeggestranda" />
		<tag k="natural" v="beach" />
		<tag k="place" v="locality" />
		<tag k="ssr:stedsnr" v="822592" />
	</node>
	<node id="-540590" lat="62.0152305578" lon="5.1021638937">
		<tag k="name" v="Tjørna" />
		<tag k="natural" v="strait" />
		<tag k="ssr:stedsnr" v="822568" />
	</node>
	<node id="-540587" lat="61.9104305587" lon="5.31485556212">
		<tag k="name" v="Midtvika" />
		<tag k="natural" v="bay" />
		<tag k="ssr:stedsnr" v="822535" />
	</node>
	<node id="-540581" lat="62.0360027767" lon="4.99378054725">
		<tag k="name" v="Solveggen" />
		<tag k="natural" v="cape" />
		<tag k="ssr:stedsnr" v="822401" />
	</node>
	<node id="-540580" lat="62.0243944404" lon="4.98372222961">
		<tag k="alt_name" v="Purka" />
		<tag k="fixme" v="consider seamark:type=rock or natural=shoal" />
		<tag k="name" v="Purkeskjeret" />
		<tag k="place" v="islet" />
		<tag k="ssr:stedsnr" v="822392" />
	</node>
	<node id="-540578" lat="61.8864083303" lon="5.13234721535">
		<tag k="name" v="Otreneset" />
		<tag k="natural" v="cape" />
		<tag k="ssr:stedsnr" v="822348" />
	</node>
	<node id="-540577" lat="61.9126972247" lon="5.18452221338">
		<tag k="name" v="Kleivvika" />
		<tag k="natural" v="bay" />
		<tag k="ssr:stedsnr" v="822346" />
	</node>
	<node id="-540569" lat="62.0338916622" lon="5.18487777769">
		<tag k="alt_name" v="Monseflua" />
		<tag k="name" v="Monsefluda" />
		<tag k="natural" v="shoal" />
		<tag k="place" v="locality" />
		<tag k="ssr:stedsnr" v="800666" />
	</node>
	<node id="-540563" lat="61.9693277794" lon="5.08324166464">
		<tag k="name" v="Vågsøy" />
		<tag k="place" v="island" />
		<tag k="ssr:stedsnr" v="799963" />
	</node>
	<node id="-540547" lat="61.891958334" lon="5.12101667181">
		<tag k="alt_name" v="Litle Grindøya" />
		<tag k="name" v="Grindøyholmen" />
		<tag k="place" v="islet" />
		<tag k="ssr:stedsnr" v="799212" />
	</node>
	<node id="-540546" lat="61.8809277767" lon="5.16998056257">
		<tag k="name" v="Djupsundet" />
		<tag k="natural" v="strait" />
		<tag k="ssr:stedsnr" v="799206" />
	</node>
	<node id="-540543" lat="62.0160361143" lon="4.94159444919">
		<tag k="name" v="Landkrakkgrunna" />
		<tag k="natural" v="shoal" />
		<tag k="place" v="locality" />
		<tag k="ssr:stedsnr" v="785498" />
	</node>
	<node id="-540541" lat="61.9881472227" lon="5.19205832452">
		<tag k="name" v="Lammevågneset" />
		<tag k="natural" v="cape" />
		<tag k="ssr:stedsnr" v="784901" />
	</node>
	<node id="-540540" lat="62.0459416701" lon="4.88906387992">
		<tag k="name" v="Mulegrunna" />
		<tag k="natural" v="shoal" />
		<tag k="place" v="locality" />
		<tag k="ssr:stedsnr" v="784552" />
	</node>
	<node id="-540539" lat="61.9978083363" lon="5.21296666288">
		<tag k="name" v="Vestre Simaskallen" />
		<tag k="natural" v="shoal" />
		<tag k="place" v="locality" />
		<tag k="ssr:stedsnr" v="784542" />
	</node>
	<node id="-540538" lat="62.0204166674" lon="5.19444999339">
		<tag k="name" v="Tangfluda" />
		<tag k="natural" v="shoal" />
		<tag k="place" v="locality" />
		<tag k="ssr:stedsnr" v="784536" />
	</node>
	<node id="-540537" lat="61.931025002" lon="5.12336389101">
		<tag k="name" v="Måløysundet" />
		<tag k="natural" v="strait" />
		<tag k="ssr:stedsnr" v="784192" />
	</node>
	<node id="-540533" lat="61.8985722256" lon="5.03268333612">
		<tag k="name" v="Skarvholmen" />
		<tag k="place" v="islet" />
		<tag k="ssr:stedsnr" v="781358" />
	</node>
	<node id="-540517" lat="62.0274083307" lon="5.11673889538">
		<tag k="fixme" v="consider seamark:type=rock or natural=shoal" />
		<tag k="name" v="Tindane" />
		<tag k="place" v="islet" />
		<tag k="ssr:stedsnr" v="761758" />
	</node>
	<node id="-540509" lat="61.928750001" lon="5.14118888246">
		<tag k="name" v="Ivahavet" />
		<tag k="natural" v="bay" />
		<tag k="ssr:stedsnr" v="761661" />
	</node>
	<node id="-540497" lat="62.0318888893" lon="5.03103055379">
		<tag k="name" v="Stadhavet" />
		<tag k="place" v="sea" />
		<tag k="ssr:stedsnr" v="761404" />
	</node>
	<node id="-540496" lat="62.0250694458" lon="5.03507222477">
		<tag k="name" v="Villgytten" />
		<tag k="natural" v="cape" />
		<tag k="ssr:stedsnr" v="761378" />
	</node>
	<node id="-540495" lat="61.9175611125" lon="5.17757499846">
		<tag k="name" v="Nygardstangen" />
		<tag k="natural" v="cape" />
		<tag k="ssr:stedsnr" v="761354" />
	</node>
	<node id="-540492" lat="61.8835444451" lon="5.18330278122">
		<tag k="fixme" v="consider seamark:type=rock or natural=shoal" />
		<tag k="name" v="Risøysteinane" />
		<tag k="place" v="islet" />
		<tag k="ssr:stedsnr" v="761299" />
	</node>
	<node id="-540491" lat="62.0316361078" lon="4.98610556379">
		<tag k="name" v="Gytteneset" />
		<tag k="natural" v="cape" />
		<tag k="ssr:stedsnr" v="761016" />
	</node>
	<node id="-540490" lat="62.0254277749" lon="4.99039443695">
		<tag k="name" v="Skarvenakken" />
		<tag k="natural" v="cape" />
		<tag k="ssr:stedsnr" v="761013" />
	</node>
	<node id="-540485" lat="62.0361861086" lon="4.98798333534">
		<tag k="name" v="Brattholmen" />
		<tag k="place" v="islet" />
		<tag k="ssr:stedsnr" v="739670" />
	</node>
	<node id="-540484" lat="62.0488583357" lon="5.00368055229">
		<tag k="name" v="Nørdstefluda" />
		<tag k="natural" v="shoal" />
		<tag k="place" v="locality" />
		<tag k="ssr:stedsnr" v="739660" />
	</node>
	<node id="-540482" lat="62.0179611141" lon="5.08440556102">
		<tag k="name" v="Rysseneset" />
		<tag k="natural" v="cape" />
		<tag k="ssr:stedsnr" v="739643" />
	</node>
	<node id="-540481" lat="62.0177222212" lon="4.98391389442">
		<tag k="alt_name" v="Storetinden" />
		<tag k="name" v="Tindane" />
		<tag k="place" v="islet" />
		<tag k="ssr:stedsnr" v="739638" />
	</node>
	<node id="-540479" lat="61.9217472253" lon="5.10290000302">
		<tag k="alt_name" v="Vågsfjord" />
		<tag k="bay" v="fjord" />
		<tag k="name" v="Vågsfjorden" />
		<tag k="natural" v="bay" />
		<tag k="ssr:stedsnr" v="738981" />
	</node>
	<node id="-540476" lat="61.957283335" lon="5.0205277767">
		<tag k="name" v="Tykjeneset" />
		<tag k="natural" v="cape" />
		<tag k="ssr:stedsnr" v="738954" />
	</node>
	<node id="-540463" lat="61.9144777784" lon="5.17471944599">
		<tag k="name" v="Skavøypollen" />
		<tag k="natural" v="bay" />
		<tag k="ssr:stedsnr" v="738230" />
	</node>
	<node id="-540458" lat="62.0157472184" lon="5.09854166361">
		<tag k="name" v="Medsolkeila" />
		<tag k="natural" v="bay" />
		<tag k="ssr:stedsnr" v="724973" />
	</node>
	<node id="-540457" lat="62.0311166658" lon="5.15321389808">
		<tag k="name" v="Djupefluda" />
		<tag k="natural" v="shoal" />
		<tag k="place" v="locality" />
		<tag k="ssr:stedsnr" v="724616" />
	</node>
	<node id="-540456" lat="62.0259055581" lon="5.09123054593">
		<tag k="name" v="Kollefluda" />
		<tag k="natural" v="shoal" />
		<tag k="place" v="locality" />
		<tag k="ssr:stedsnr" v="724613" />
	</node>
	<node id="-540455" lat="62.0138833347" lon="4.98107500904">
		<tag k="name" v="Slørebåen" />
		<tag k="natural" v="shoal" />
		<tag k="place" v="locality" />
		<tag k="ssr:stedsnr" v="724608" />
	</node>
	<node id="-540454" lat="62.0480388856" lon="5.11076944507">
		<tag k="name" v="Skjergrunna" />
		<tag k="natural" v="shoal" />
		<tag k="place" v="locality" />
		<tag k="ssr:stedsnr" v="724584" />
	</node>
	<node id="-540453" lat="62.0077833299" lon="5.19725277118">
		<tag k="name" v="Vardetangen" />
		<tag k="natural" v="cape" />
		<tag k="ssr:stedsnr" v="724489" />
	</node>
	<node id="-540452" lat="61.9959916644" lon="5.19006667126">
		<tag k="fixme" v="consider seamark:type=rock or natural=shoal" />
		<tag k="name" v="Smørskjeret" />
		<tag k="place" v="islet" />
		<tag k="ssr:stedsnr" v="724488" />
	</node>
	<node id="-540451" lat="61.9741638905" lon="5.02424721955">
		<tag k="name" v="Håskallen" />
		<tag k="natural" v="shoal" />
		<tag k="place" v="locality" />
		<tag k="ssr:stedsnr" v="724457" />
	</node>
	<node id="-540450" lat="61.9291250001" lon="5.05210277776">
		<tag k="name" v="Kyraholmen" />
		<tag k="place" v="islet" />
		<tag k="ssr:stedsnr" v="721474" />
	</node>
	<node id="-540449" lat="61.9277527769" lon="5.11092500785">
		<tag k="name" v="Seteneset" />
		<tag k="natural" v="cape" />
		<tag k="ssr:stedsnr" v="721470" />
	</node>
	<node id="-540448" lat="61.9526638915" lon="5.13890277322">
		<tag k="name" v="Brandthamnneset" />
		<tag k="natural" v="cape" />
		<tag k="ssr:stedsnr" v="720731" />
	</node>
	<node id="-540447" lat="61.8995111108" lon="5.19471111152">
		<tag k="name" v="Angelshaugneset" />
		<tag k="natural" v="cape" />
		<tag k="ssr:stedsnr" v="720632" />
	</node>
	<node id="-540446" lat="61.9136472266" lon="5.22335555245">
		<tag k="name" v="Kvernhusvika" />
		<tag k="natural" v="bay" />
		<tag k="ssr:stedsnr" v="720620" />
	</node>
	<node id="-540436" lat="61.8823027816" lon="5.17396944709">
		<tag k="name" v="Avløysningen" />
		<tag k="natural" v="cape" />
		<tag k="ssr:stedsnr" v="701311" />
	</node>
	<node id="-540434" lat="61.92998056" lon="5.38190278305">
		<tag k="name" v="Haugvågen" />
		<tag k="natural" v="bay" />
		<tag k="ssr:stedsnr" v="700979" />
	</node>
	<node id="-540400" lat="62.0117444445" lon="5.08881388922">
		<tag k="name" v="Skipgjølet" />
		<tag k="natural" v="bay" />
		<tag k="ssr:stedsnr" v="700548" />
	</node>
	<node id="-540388" lat="62.0313055526" lon="5.122419451">
		<tag k="name" v="Skongsneset" />
		<tag k="natural" v="cape" />
		<tag k="ssr:stedsnr" v="688316" />
	</node>
	<node id="-540386" lat="62.0013666689" lon="4.96068056059">
		<tag k="name" v="Ytstefluda" />
		<tag k="natural" v="shoal" />
		<tag k="place" v="locality" />
		<tag k="ssr:stedsnr" v="678627" />
	</node>
	<node id="-540382" lat="61.9868999954" lon="5.20002776982">
		<tag k="name" v="Mikkelholmen" />
		<tag k="place" v="islet" />
		<tag k="ssr:stedsnr" v="677884" />
	</node>
	<node id="-540379" lat="61.938297223" lon="5.1392333256">
		<tag k="name" v="Morteneset" />
		<tag k="natural" v="cape" />
		<tag k="ssr:stedsnr" v="677816" />
	</node>
	<node id="-540374" lat="61.9302444467" lon="5.40239999621">
		<tag k="name" v="Storøya" />
		<tag k="place" v="islet" />
		<tag k="ssr:stedsnr" v="677216" />
	</node>
	<node id="-540372" lat="61.8943805594" lon="5.1253583274">
		<tag k="alt_name" v="Grindøy;Store Grindøya" />
		<tag k="name" v="Grindøya" />
		<tag k="place" v="islet" />
		<tag k="ssr:stedsnr" v="677192" />
	</node>
	<node id="-540370" lat="62.0159924954" lon="5.10880701964">
		<tag k="name" v="Medsandnebbene" />
		<tag k="natural" v="cape" />
		<tag k="ssr:stedsnr" v="663953" />
	</node>
	<node id="-540369" lat="62.0159333293" lon="5.14537777477">
		<tag k="name" v="Timmevikgrunna" />
		<tag k="natural" v="shoal" />
		<tag k="place" v="locality" />
		<tag k="ssr:stedsnr" v="663629" />
	</node>
	<node id="-540368" lat="62.021608335" lon="5.13461666649">
		<tag k="name" v="Kveldstøytneset" />
		<tag k="natural" v="cape" />
		<tag k="ssr:stedsnr" v="663628" />
	</node>
	<node id="-540367" lat="62.0450583298" lon="5.12790000685">
		<tag k="name" v="Vidfluda" />
		<tag k="natural" v="shoal" />
		<tag k="place" v="locality" />
		<tag k="ssr:stedsnr" v="663605" />
	</node>
	<node id="-540366" lat="62.0220500011" lon="4.90338888028">
		<tag k="name" v="Steinefluda" />
		<tag k="natural" v="shoal" />
		<tag k="place" v="locality" />
		<tag k="ssr:stedsnr" v="663498" />
	</node>
	<node id="-540365" lat="62.0177805584" lon="5.19831666991">
		<tag k="name" v="Nørdre Sildevika" />
		<tag k="natural" v="bay" />
		<tag k="ssr:stedsnr" v="663488" />
	</node>
	<node id="-540364" lat="62.0026972199" lon="4.89042777097">
		<tag k="name" v="Litlefluda" />
		<tag k="natural" v="shoal" />
		<tag k="place" v="locality" />
		<tag k="ssr:stedsnr" v="663477" />
	</node>
	<node id="-540363" lat="61.9805277742" lon="5.18989722945">
		<tag k="name" v="Hestevika" />
		<tag k="natural" v="bay" />
		<tag k="ssr:stedsnr" v="663199" />
	</node>
	<node id="-540362" lat="62.0047249988" lon="5.16241667451">
		<tag k="name" v="Halsøyrbåen" />
		<tag k="place" v="locality" />
		<tag k="seamark:type" v="rock" />
		<tag k="ssr:stedsnr" v="663110" />
	</node>
	<node id="-540360" lat="61.9058916673" lon="5.02228055692">
		<tag k="name" v="Kvitenes" />
		<tag k="natural" v="cape" />
		<tag k="ssr:stedsnr" v="660561" />
	</node>
	<node id="-540358" lat="61.9543444426" lon="5.15228055751">
		<tag k="name" v="Saltkjelneset" />
		<tag k="natural" v="cape" />
		<tag k="ssr:stedsnr" v="659743" />
	</node>
	<node id="-540357" lat="61.9377055538" lon="5.1336777743">
		<tag k="name" v="Geileskjeret" />
		<tag k="natural" v="shoal" />
		<tag k="place" v="locality" />
		<tag k="ssr:stedsnr" v="659509" />
	</node>
	<node id="-540344" lat="61.8887777817" lon="5.11950000251">
		<tag k="name" v="Røyrvikane" />
		<tag k="natural" v="bay" />
		<tag k="ssr:stedsnr" v="640313" />
	</node>
	<node id="-540337" lat="61.8903777784" lon="5.12465556436">
		<tag k="name" v="Søre Grindøystraumen" />
		<tag k="natural" v="strait" />
		<tag k="ssr:stedsnr" v="639882" />
	</node>
	<node id="-540317" lat="62.0173638889" lon="5.10506666737">
		<tag k="name" v="Støholmen" />
		<tag k="place" v="islet" />
		<tag k="ssr:stedsnr" v="639550" />
	</node>
	<node id="-540316" lat="62.0199805593" lon="5.11226943456">
		<tag k="name" v="Nørstevika" />
		<tag k="natural" v="bay" />
		<tag k="ssr:stedsnr" v="639547" />
	</node>
	<node id="-540310" lat="61.9197944449" lon="5.03493332727">
		<tag k="alt_name" v="Strandaholmane" />
		<tag k="name" v="Strandaholmen" />
		<tag k="place" v="islet" />
		<tag k="ssr:stedsnr" v="639457" />
	</node>
	<node id="-540305" lat="62.0188083316" lon="4.94424721793">
		<tag k="alt_name" v="Nipeflu" />
		<tag k="name" v="Nipefluda" />
		<tag k="natural" v="shoal" />
		<tag k="place" v="locality" />
		<tag k="ssr:stedsnr" v="634091" />
	</node>
	<node id="-540302" lat="62.0329083343" lon="4.90791389276">
		<tag k="name" v="Nørdre Spenefluda" />
		<tag k="natural" v="shoal" />
		<tag k="place" v="locality" />
		<tag k="ssr:stedsnr" v="627330" />
	</node>
	<node id="-540301" lat="62.0335249986" lon="4.97616388602">
		<tag k="fixme" v="consider seamark:type=rock or natural=shoal" />
		<tag k="name" v="Galten" />
		<tag k="place" v="islet" />
		<tag k="ssr:stedsnr" v="617697" />
	</node>
	<node id="-540298" lat="62.0060944403" lon="5.09130555153">
		<tag k="alt_name" v="Nordstenes;Kjerringdalsneset" />
		<tag k="name" v="Neset" />
		<tag k="natural" v="cape" />
		<tag k="ssr:stedsnr" v="617189" />
	</node>
	<node id="-540296" lat="61.9309333349" lon="5.04625833371">
		<tag k="name" v="Gulholmen" />
		<tag k="place" v="islet" />
		<tag k="ssr:stedsnr" v="616972" />
	</node>
	<node id="-540283" lat="61.9267694401" lon="5.38677222048">
		<tag k="alt_name" v="Holmen" />
		<tag k="name" v="Holmane" />
		<tag k="place" v="islet" />
		<tag k="ssr:stedsnr" v="616210" />
	</node>
	<node id="-540277" lat="61.9093527758" lon="5.32231944752">
		<tag k="name" v="Tofta" />
		<tag k="natural" v="cape" />
		<tag k="ssr:stedsnr" v="616190" />
	</node>
	<node id="-540276" lat="62.0510749992" lon="4.86078889637">
		<tag k="name" v="Nøreskallen" />
		<tag k="natural" v="shoal" />
		<tag k="place" v="locality" />
		<tag k="ssr:stedsnr" v="602531" />
	</node>
	<node id="-540275" lat="62.0100749995" lon="5.18230000022">
		<tag k="name" v="Rekvikfludene" />
		<tag k="natural" v="shoal" />
		<tag k="place" v="locality" />
		<tag k="ssr:stedsnr" v="602524" />
	</node>
	<node id="-540274" lat="61.9648361146" lon="5.19512221497">
		<tag k="name" v="Røyrneset" />
		<tag k="natural" v="cape" />
		<tag k="ssr:stedsnr" v="602199" />
	</node>
	<node id="-540272" lat="61.9429194473" lon="4.9704583317">
		<tag k="name" v="Jokkefluda" />
		<tag k="natural" v="shoal" />
		<tag k="place" v="locality" />
		<tag k="ssr:stedsnr" v="599417" />
	</node>
	<node id="-540271" lat="61.9624527783" lon="5.14881389345">
		<tag k="fixme" v="consider seamark:type=rock or natural=shoal" />
		<tag k="name" v="Ulven" />
		<tag k="place" v="islet" />
		<tag k="ssr:stedsnr" v="598717" />
	</node>
	<node id="-540270" lat="61.9191361123" lon="5.12506388396">
		<tag k="name" v="Blålidneset" />
		<tag k="natural" v="cape" />
		<tag k="old_name" v="Blålineset" />
		<tag k="ssr:stedsnr" v="598488" />
	</node>
	<node id="-540257" lat="61.9858972247" lon="5.00873611566">
		<tag k="alt_name" v="Sletteskarneset" />
		<tag k="name" v="Neset" />
		<tag k="natural" v="cape" />
		<tag k="ssr:stedsnr" v="579420" />
	</node>
	<node id="-540255" lat="61.9163027789" lon="5.13839444583">
		<tag k="name" v="Hesjevika" />
		<tag k="natural" v="bay" />
		<tag k="ssr:stedsnr" v="579365" />
	</node>
	<node id="-540254" lat="62.0233416674" lon="5.03888055505">
		<tag k="name" v="Kievika" />
		<tag k="natural" v="bay" />
		<tag k="ssr:stedsnr" v="579355" />
	</node>
	<node id="-540252" lat="61.9118777743" lon="5.1448333432">
		<tag k="name" v="Vindhammarsundet" />
		<tag k="natural" v="strait" />
		<tag k="ssr:stedsnr" v="579314" />
	</node>
	<node id="-540251" lat="61.912519448" lon="5.16966110682">
		<tag k="alt_name" v="Store Furøy" />
		<tag k="name" v="Furøy" />
		<tag k="place" v="island" />
		<tag k="ssr:stedsnr" v="579312" />
	</node>
	<node id="-540246" lat="61.9255361129" lon="5.37799721407">
		<tag k="alt_name" v="Kvalneset" />
		<tag k="name" v="Kvalen" />
		<tag k="natural" v="cape" />
		<tag k="ssr:stedsnr" v="578945" />
	</node>
	<node id="-540235" lat="61.9841694449" lon="5.18423887945">
		<tag k="name" v="Åsmundnes" />
		<tag k="natural" v="cape" />
		<tag k="ssr:stedsnr" v="578663" />
	</node>
	<node id="-540234" lat="61.9885750003" lon="5.1551222259">
		<tag k="name" v="Røysaneset" />
		<tag k="natural" v="cape" />
		<tag k="ssr:stedsnr" v="578660" />
	</node>
	<node id="-540232" lat="61.988902782" lon="5.10181667034">
		<tag k="name" v="Kalveneset" />
		<tag k="natural" v="cape" />
		<tag k="ssr:stedsnr" v="578640" />
	</node>
	<node id="-540230" lat="61.9354694475" lon="5.22709722326">
		<tag k="name" v="Skøytevika" />
		<tag k="natural" v="bay" />
		<tag k="ssr:stedsnr" v="578544" />
	</node>
	<node id="-540227" lat="62.0090583316" lon="5.18860556145">
		<tag k="alt_name" v="Rekvika" />
		<tag k="name" v="Rekevika" />
		<tag k="natural" v="bay" />
		<tag k="ssr:stedsnr" v="578527" />
	</node>
	<node id="-540226" lat="62.0179166644" lon="5.1870638847">
		<tag k="name" v="Djupevågen" />
		<tag k="natural" v="bay" />
		<tag k="ssr:stedsnr" v="578517" />
	</node>
	<node id="-540215" lat="62.0319833362" lon="5.00488333501">
		<tag k="name" v="Timrestøa" />
		<tag k="natural" v="bay" />
		<tag k="ssr:stedsnr" v="578004" />
	</node>
	<node id="-540211" lat="61.9142305556" lon="5.01008055772">
		<tag k="name" v="Vestre Fereldneset" />
		<tag k="natural" v="cape" />
		<tag k="ssr:stedsnr" v="556982" />
	</node>
	<node id="-540208" lat="62.0400722256" lon="5.00318888642">
		<tag k="name" v="Fallet" />
		<tag k="natural" v="shoal" />
		<tag k="place" v="locality" />
		<tag k="ssr:stedsnr" v="556704" />
	</node>
	<node id="-540195" lat="62.0313361135" lon="5.11137221636">
		<tag k="name" v="Skjerbåen" />
		<tag k="place" v="locality" />
		<tag k="seamark:type" v="rock" />
		<tag k="ssr:stedsnr" v="542611" />
	</node>
	<node id="-540194" lat="62.020438893" lon="5.0838972204">
		<tag k="name" v="Såta" />
		<tag k="natural" v="shoal" />
		<tag k="place" v="locality" />
		<tag k="ssr:stedsnr" v="542607" />
	</node>
	<node id="-540193" lat="62.0278638861" lon="5.19499165953">
		<tag k="name" v="Nordfargrunnene" />
		<tag k="natural" v="shoal" />
		<tag k="place" v="locality" />
		<tag k="ssr:stedsnr" v="542518" />
	</node>
	<node id="-540192" lat="62.0120166696" lon="5.14740276816">
		<tag k="name" v="Langenesfluda" />
		<tag k="natural" v="shoal" />
		<tag k="place" v="locality" />
		<tag k="ssr:stedsnr" v="542108" />
	</node>
	<node id="-540190" lat="61.9646722204" lon="5.13978888023">
		<tag k="name" v="Barstadvika" />
		<tag k="natural" v="bay" />
		<tag k="ssr:stedsnr" v="538746" />
	</node>
	<node id="-540184" lat="61.9165000027" lon="5.3568138976">
		<tag k="name" v="Taska" />
		<tag k="natural" v="bay" />
		<tag k="ssr:stedsnr" v="519616" />
	</node>
	<node id="-540177" lat="61.9090777805" lon="5.08968610483">
		<tag k="name" v="Hatlevik" />
		<tag k="natural" v="bay" />
		<tag k="ssr:stedsnr" v="519353" />
	</node>
	<node id="-540176" lat="61.9070222183" lon="5.09869721499">
		<tag k="alt_name" v="Buøya" />
		<tag k="name" v="Buøyna" />
		<tag k="place" v="island" />
		<tag k="ssr:stedsnr" v="519340" />
	</node>
	<node id="-540171" lat="61.8844694442" lon="5.15394444269">
		<tag k="name" v="Kvithellersvika" />
		<tag k="natural" v="bay" />
		<tag k="ssr:stedsnr" v="519271" />
	</node>
	<node id="-540164" lat="62.0086333318" lon="5.19296666852">
		<tag k="name" v="Søre Hamna" />
		<tag k="natural" v="strait" />
		<tag k="ssr:stedsnr" v="518853" />
	</node>
	<node id="-540159" lat="61.9327416671" lon="5.4482583266">
		<tag k="name" v="Verpeneset" />
		<tag k="natural" v="cape" />
		<tag k="ssr:stedsnr" v="518798" />
	</node>
	<node id="-540158" lat="61.9309027807" lon="5.45261110784">
		<tag k="alt_name" v="Kalnesvika" />
		<tag k="name" v="Kalvnesvika" />
		<tag k="natural" v="bay" />
		<tag k="ssr:stedsnr" v="518794" />
	</node>
	<node id="-540152" lat="62.0372666643" lon="5.10998610792">
		<tag k="bay" v="fjord" />
		<tag k="name" v="Stadhavet" />
		<tag k="natural" v="bay" />
		<tag k="ssr:stedsnr" v="518718" />
	</node>
	<node id="-540151" lat="62.0315638858" lon="5.12536943785">
		<tag k="fixme" v="consider seamark:type=rock or natural=shoal" />
		<tag k="name" v="Bjørnaskjeret" />
		<tag k="place" v="islet" />
		<tag k="ssr:stedsnr" v="518715" />
	</node>
	<node id="-540149" lat="61.9855361115" lon="5.18294722611">
		<tag k="alt_name" v="Åsmundvågen" />
		<tag k="name" v="Åsmundsvågen" />
		<tag k="natural" v="bay" />
		<tag k="ssr:stedsnr" v="518670" />
	</node>
	<node id="-540148" lat="61.9841388888" lon="5.13685000015">
		<tag k="alt_name" v="Skarebukta" />
		<tag k="name" v="Skarevika" />
		<tag k="natural" v="bay" />
		<tag k="ssr:stedsnr" v="518666" />
	</node>
	<node id="-540141" lat="61.9134916709" lon="5.34713611328">
		<tag k="name" v="Krokholmen" />
		<tag k="place" v="islet" />
		<tag k="ssr:stedsnr" v="518581" />
	</node>
	<node id="-540140" lat="62.0188416626" lon="5.20423333131">
		<tag k="name" v="Naustvågen" />
		<tag k="natural" v="bay" />
		<tag k="ssr:stedsnr" v="518577" />
	</node>
	<node id="-540136" lat="61.9102694432" lon="5.26905555816">
		<tag k="name" v="Storevika" />
		<tag k="natural" v="bay" />
		<tag k="ssr:stedsnr" v="518525" />
	</node>
	<node id="-540135" lat="62.0176500034" lon="5.09391667171">
		<tag k="name" v="Stonganeset" />
		<tag k="natural" v="cape" />
		<tag k="ssr:stedsnr" v="518512" />
	</node>
	<node id="-540134" lat="62.0157888928" lon="5.09070834014">
		<tag k="name" v="Kolledalen" />
		<tag k="natural" v="bay" />
		<tag k="ssr:stedsnr" v="518511" />
	</node>
	<node id="-540132" lat="61.8984583304" lon="5.03585278453">
		<tag k="name" v="Krabbestigholmane" />
		<tag k="place" v="islet" />
		<tag k="ssr:stedsnr" v="518460" />
	</node>
	<node id="-540128" lat="61.9494805558" lon="5.04922222357">
		<tag k="name" v="Keila" />
		<tag k="natural" v="bay" />
		<tag k="ssr:stedsnr" v="518412" />
	</node>
	<node id="-540120" lat="62.0361222252" lon="5.06308054656">
		<tag k="name" v="Breidfluda" />
		<tag k="natural" v="shoal" />
		<tag k="place" v="locality" />
		<tag k="ssr:stedsnr" v="496690" />
	</node>
	<node id="-540119" lat="62.0382861113" lon="4.97210555252">
		<tag k="alt_name" v="Nesflua" />
		<tag k="name" v="Nesfluda" />
		<tag k="natural" v="shoal" />
		<tag k="place" v="locality" />
		<tag k="ssr:stedsnr" v="496685" />
	</node>
	<node id="-540118" lat="62.0261500044" lon="5.17630277739">
		<tag k="name" v="Artufluda" />
		<tag k="natural" v="shoal" />
		<tag k="place" v="locality" />
		<tag k="ssr:stedsnr" v="496680" />
	</node>
	<node id="-540116" lat="62.0126916676" lon="4.95361111068">
		<tag k="bay" v="fjord" />
		<tag k="name" v="Stavsdjupet" />
		<tag k="natural" v="bay" />
		<tag k="ssr:stedsnr" v="496639" />
	</node>
	<node id="-540098" lat="61.9130111103" lon="5.14087776852">
		<tag k="name" v="Skavøya" />
		<tag k="place" v="islet" />
		<tag k="ssr:stedsnr" v="495228" />
	</node>
	<node id="-540092" lat="62.0511444414" lon="5.06661389383">
		<tag k="name" v="Ytstefluda" />
		<tag k="natural" v="shoal" />
		<tag k="place" v="locality" />
		<tag k="ssr:stedsnr" v="481629" />
	</node>
	<node id="-540091" lat="62.0193861131" lon="5.10541943986">
		<tag k="name" v="Storbåen" />
		<tag k="natural" v="shoal" />
		<tag k="place" v="locality" />
		<tag k="ssr:stedsnr" v="481626" />
	</node>
	<node id="-540090" lat="62.0202861145" lon="5.11188611089">
		<tag k="fixme" v="consider seamark:type=rock or natural=shoal" />
		<tag k="name" v="Svarteskjeret" />
		<tag k="place" v="islet" />
		<tag k="ssr:stedsnr" v="481623" />
	</node>
	<node id="-540089" lat="62.0261888929" lon="5.03197499458">
		<tag k="name" v="Ukseneset" />
		<tag k="natural" v="cape" />
		<tag k="ssr:stedsnr" v="481619" />
	</node>
	<node id="-540087" lat="62.0350750043" lon="4.96458889784">
		<tag k="name" v="Hestfluda" />
		<tag k="natural" v="shoal" />
		<tag k="place" v="locality" />
		<tag k="ssr:stedsnr" v="481613" />
	</node>
	<node id="-540086" lat="61.9978555596" lon="4.97825833998">
		<tag k="name" v="Lortbåen" />
		<tag k="natural" v="shoal" />
		<tag k="place" v="locality" />
		<tag k="ssr:stedsnr" v="481519" />
	</node>
	<node id="-540085" lat="62.0034222189" lon="4.96882221465">
		<tag k="name" v="Einevardfludene" />
		<tag k="natural" v="shoal" />
		<tag k="place" v="locality" />
		<tag k="ssr:stedsnr" v="481518" />
	</node>
	<node id="-540084" lat="61.9379694409" lon="5.21626666458">
		<tag k="name" v="Grøtneset" />
		<tag k="natural" v="cape" />
		<tag k="ssr:stedsnr" v="481023" />
	</node>
	<node id="-540078" lat="62.0128277746" lon="5.20118054909">
		<tag k="name" v="Nordre hamna" />
		<tag k="natural" v="bay" />
		<tag k="ssr:stedsnr" v="458892" />
	</node>
	<node id="-540074" lat="61.9370861114" lon="5.45241945216">
		<tag k="name" v="Maurstadvika" />
		<tag k="natural" v="bay" />
		<tag k="ssr:stedsnr" v="458830" />
	</node>
	<node id="-540071" lat="62.009844443" lon="5.09380278218">
		<tag k="name" v="Telvika" />
		<tag k="natural" v="bay" />
		<tag k="ssr:stedsnr" v="458589" />
	</node>
	<node id="-540066" lat="61.962669446" lon="5.03133332409">
		<tag k="name" v="Borkegytten" />
		<tag k="natural" v="bay" />
		<tag k="ssr:stedsnr" v="458468" />
	</node>
	<node id="-540065" lat="61.961833333" lon="5.05933889488">
		<tag k="name" v="Bjørnsneset" />
		<tag k="natural" v="cape" />
		<tag k="ssr:stedsnr" v="458466" />
	</node>
	<node id="-540062" lat="62.0224250013" lon="4.98736945164">
		<tag k="name" v="Synnstøa" />
		<tag k="natural" v="bay" />
		<tag k="ssr:stedsnr" v="458399" />
	</node>
	<node id="-540060" lat="61.915586114" lon="5.16580832864">
		<tag k="fixme" v="consider seamark:type=rock or natural=shoal" />
		<tag k="name" v="Bruraskjer" />
		<tag k="place" v="islet" />
		<tag k="ssr:stedsnr" v="458341" />
	</node>
	<node id="-540059" lat="61.9135944404" lon="5.16537221346">
		<tag k="fixme" v="consider seamark:type=rock or natural=shoal" />
		<tag k="name" v="Evjeskjeret" />
		<tag k="place" v="islet" />
		<tag k="ssr:stedsnr" v="458337" />
	</node>
	<node id="-540057" lat="61.9264500002" lon="5.38594445359">
		<tag k="name" v="Søholmen" />
		<tag k="place" v="islet" />
		<tag k="ssr:stedsnr" v="457982" />
	</node>
	<node id="-540049" lat="61.9189638896" lon="5.03554444287">
		<tag k="name" v="Kalveneset" />
		<tag k="natural" v="cape" />
		<tag k="ssr:stedsnr" v="457414" />
	</node>
	<node id="-540045" lat="62.0269222234" lon="4.91828610433">
		<tag k="name" v="Søre Spenefluda" />
		<tag k="natural" v="shoal" />
		<tag k="place" v="locality" />
		<tag k="ssr:stedsnr" v="445309" />
	</node>
	<node id="-540043" lat="62.0331416688" lon="4.99789722228">
		<tag k="name" v="Stiksvika" />
		<tag k="natural" v="bay" />
		<tag k="ssr:stedsnr" v="436664" />
	</node>
	<node id="-540042" lat="62.0365138877" lon="5.01134999121">
		<tag k="name" v="Kråkenesholmen" />
		<tag k="place" v="islet" />
		<tag k="ssr:stedsnr" v="436663" />
	</node>
	<node id="-540041" lat="62.0297388905" lon="4.8983138875">
		<tag k="fixme" v="consider seamark:type=rock or natural=shoal" />
		<tag k="name" v="Steinen" />
		<tag k="place" v="islet" />
		<tag k="ssr:stedsnr" v="436655" />
	</node>
	<node id="-540040" lat="62.0600277786" lon="4.96249999666">
		<tag k="name" v="Røneldegrunskene" />
		<tag k="natural" v="shoal" />
		<tag k="place" v="locality" />
		<tag k="ssr:stedsnr" v="436636" />
	</node>
	<node id="-540039" lat="62.0460305584" lon="4.85659165936">
		<tag k="name" v="Havfruskallen" />
		<tag k="natural" v="shoal" />
		<tag k="place" v="locality" />
		<tag k="ssr:stedsnr" v="436633" />
	</node>
	<node id="-540036" lat="62.0124472224" lon="4.93578055382">
		<tag k="fixme" v="consider seamark:type=rock or natural=shoal" />
		<tag k="name" v="Tårnet" />
		<tag k="place" v="islet" />
		<tag k="ssr:stedsnr" v="436607" />
	</node>
	<node id="-540035" lat="61.909558332" lon="5.04685000271">
		<tag k="name" v="Husevågøy" />
		<tag k="place" v="island" />
		<tag k="ssr:stedsnr" v="435991" />
	</node>
	<node id="-540030" lat="61.9506249979" lon="4.88852499698">
		<tag k="name" v="Hårfludene" />
		<tag k="natural" v="shoal" />
		<tag k="place" v="locality" />
		<tag k="ssr:stedsnr" v="435960" />
	</node>
	<node id="-540029" lat="61.9569666664" lon="5.05166944706">
		<tag k="name" v="Torskangerpollen" />
		<tag k="natural" v="bay" />
		<tag k="ssr:stedsnr" v="435957" />
	</node>
	<node id="-540023" lat="61.9002277814" lon="5.12484723113">
		<tag k="name" v="Vågeneset" />
		<tag k="natural" v="cape" />
		<tag k="ssr:stedsnr" v="435815" />
	</node>
	<node id="-540020" lat="62.0014194452" lon="5.17868055215">
		<tag k="name" v="Lysholmen" />
		<tag k="place" v="islet" />
		<tag k="ssr:stedsnr" v="435682" />
	</node>
	<node id="-540018" lat="61.9314694434" lon="5.44716388343">
		<tag k="name" v="Kalvneset" />
		<tag k="natural" v="cape" />
		<tag k="ssr:stedsnr" v="435261" />
	</node>
	<node id="-540016" lat="62.0155777756" lon="5.08653055951">
		<tag k="name" v="Klubbetangen" />
		<tag k="natural" v="cape" />
		<tag k="ssr:stedsnr" v="421974" />
	</node>
	<node id="-540015" lat="62.0040472228" lon="5.14651944508">
		<tag k="name" v="Halsøyrvika" />
		<tag k="natural" v="bay" />
		<tag k="ssr:stedsnr" v="421941" />
	</node>
	<node id="-540014" lat="62.0299361135" lon="5.23548889143">
		<tag k="name" v="Nørdre Sildefluda" />
		<tag k="natural" v="shoal" />
		<tag k="place" v="locality" />
		<tag k="ssr:stedsnr" v="421513" />
	</node>
	<node id="-540013" lat="62.0356611147" lon="5.09426389755">
		<tag k="name" v="Loknesgrunna" />
		<tag k="natural" v="shoal" />
		<tag k="place" v="locality" />
		<tag k="ssr:stedsnr" v="420656" />
	</node>
	<node id="-540012" lat="62.0335666686" lon="4.98718334153">
		<tag k="name" v="Kråkeneset" />
		<tag k="natural" v="cape" />
		<tag k="ssr:stedsnr" v="420652" />
	</node>
	<node id="-540011" lat="61.9357472259" lon="5.01900277564">
		<tag k="name" v="Vikafluda" />
		<tag k="natural" v="shoal" />
		<tag k="place" v="locality" />
		<tag k="ssr:stedsnr" v="418428" />
	</node>
	<node id="-540010" lat="61.9015444427" lon="5.20160556065">
		<tag k="name" v="Verpeneset" />
		<tag k="natural" v="cape" />
		<tag k="ssr:stedsnr" v="417658" />
	</node>
	<node id="-540009" lat="61.9343749993" lon="4.92303056387">
		<tag k="name" v="Kålefluda" />
		<tag k="natural" v="shoal" />
		<tag k="place" v="locality" />
		<tag k="ssr:stedsnr" v="417468" />
	</node>
	<node id="-540003" lat="61.939502774" lon="5.01641389547">
		<tag k="alt_name" v="Halsen" />
		<tag k="name" v="Båtesundhalsen" />
		<tag k="natural" v="cape" />
		<tag k="ssr:stedsnr" v="253978" />
	</node>
	<node id="-539996" lat="62.0355500006" lon="4.93031945251">
		<tag k="name" v="Klovningegrunna" />
		<tag k="natural" v="shoal" />
		<tag k="place" v="locality" />
		<tag k="ssr:stedsnr" v="253692" />
	</node>
	<node id="-539995" lat="62.0563805539" lon="5.09552499414">
		<tag k="fixme" v="consider seamark:type=rock or natural=shoal" />
		<tag k="name" v="Kråka" />
		<tag k="place" v="islet" />
		<tag k="ssr:stedsnr" v="253693" />
	</node>
	<node id="-539994" lat="62.0184722187" lon="4.93281388607">
		<tag k="name" v="Båen" />
		<tag k="natural" v="shoal" />
		<tag k="place" v="locality" />
		<tag k="ssr:stedsnr" v="253687" />
	</node>
	<node id="-539991" lat="62.0055972251" lon="5.08198055636">
		<tag k="name" v="Refvika" />
		<tag k="natural" v="bay" />
		<tag k="ssr:stedsnr" v="253648" />
	</node>
	<node id="-539983" lat="61.932405553" lon="5.13262499932">
		<tag k="name" v="Deknepollen" />
		<tag k="natural" v="bay" />
		<tag k="ssr:stedsnr" v="252217" />
	</node>
	<node id="-539982" lat="61.8955472258" lon="5.17853333809">
		<tag k="name" v="Biskjelneset" />
		<tag k="natural" v="cape" />
		<tag k="ssr:stedsnr" v="252174" />
	</node>
	<node id="-539979" lat="61.9980944449" lon="4.86277221993">
		<tag k="name" v="Muleskallane" />
		<tag k="natural" v="shoal" />
		<tag k="place" v="locality" />
		<tag k="ssr:stedsnr" v="239489" />
	</node>
	<node id="-539978" lat="62.0357638878" lon="4.9020194499">
		<tag k="name" v="Skongenesgrunna" />
		<tag k="natural" v="shoal" />
		<tag k="place" v="locality" />
		<tag k="ssr:stedsnr" v="238560" />
	</node>
	<node id="-539977" lat="62.0098722242" lon="4.92769166251">
		<tag k="name" v="Karlsfluda" />
		<tag k="natural" v="shoal" />
		<tag k="place" v="locality" />
		<tag k="ssr:stedsnr" v="238555" />
	</node>
	<node id="-539976" lat="61.9693750008" lon="5.051133338">
		<tag k="name" v="Oppedalsbåen" />
		<tag k="natural" v="shoal" />
		<tag k="place" v="locality" />
		<tag k="ssr:stedsnr" v="238512" />
	</node>
	<node id="-539975" lat="62.0157777814" lon="5.07961945169">
		<tag k="name" v="Gangvikfluda" />
		<tag k="natural" v="shoal" />
		<tag k="place" v="locality" />
		<tag k="ssr:stedsnr" v="238632" />
	</node>
	<node id="-539974" lat="61.9257500037" lon="5.02417777083">
		<tag k="name" v="Hovdeneset" />
		<tag k="natural" v="cape" />
		<tag k="ssr:stedsnr" v="236440" />
	</node>
	<node id="-539973" lat="61.9365999993" lon="5.00801945391">
		<tag k="fixme" v="consider seamark:type=rock or natural=shoal" />
		<tag k="name" v="Båtesundskjeret" />
		<tag k="place" v="islet" />
		<tag k="ssr:stedsnr" v="236411" />
	</node>
	<node id="-539972" lat="61.8855527814" lon="5.14276110239">
		<tag k="name" v="Kviteklubben" />
		<tag k="natural" v="cape" />
		<tag k="ssr:stedsnr" v="235833" />
	</node>
	<node id="-539971" lat="61.9100250006" lon="5.27838888379">
		<tag k="fixme" v="consider seamark:type=rock or natural=shoal" />
		<tag k="name" v="Raudskjeret" />
		<tag k="place" v="islet" />
		<tag k="ssr:stedsnr" v="235654" />
	</node>
	<node id="-539967" lat="61.9331750021" lon="5.40529999316">
		<tag k="name" v="Grønevika" />
		<tag k="natural" v="bay" />
		<tag k="ssr:stedsnr" v="215976" />
	</node>
	<node id="-539965" lat="61.9205611128" lon="5.36240832771">
		<tag k="name" v="Raftevika" />
		<tag k="natural" v="bay" />
		<tag k="ssr:stedsnr" v="215968" />
	</node>
	<node id="-539945" lat="61.9164249974" lon="5.35090555601">
		<tag k="name" v="Krokepollen" />
		<tag k="natural" v="bay" />
		<tag k="ssr:stedsnr" v="215649" />
	</node>
	<node id="-539944" lat="61.9194111097" lon="5.36229443658">
		<tag k="name" v="Raftevikneset" />
		<tag k="natural" v="cape" />
		<tag k="ssr:stedsnr" v="215646" />
	</node>
	<node id="-539942" lat="61.9102444481" lon="5.26579999166">
		<tag k="name" v="Halvneset" />
		<tag k="natural" v="cape" />
		<tag k="ssr:stedsnr" v="215593" />
	</node>
	<node id="-539936" lat="61.955925001" lon="5.04357222981">
		<tag k="name" v="Verpet" />
		<tag k="natural" v="beach" />
		<tag k="place" v="locality" />
		<tag k="ssr:stedsnr" v="215538" />
	</node>
	<node id="-539934" lat="61.922288886" lon="5.02864166797">
		<tag k="name" v="Hovdevika" />
		<tag k="natural" v="bay" />
		<tag k="ssr:stedsnr" v="215482" />
	</node>
	<node id="-539933" lat="61.9636805595" lon="5.03332499869">
		<tag k="name" v="Hendavika" />
		<tag k="natural" v="bay" />
		<tag k="ssr:stedsnr" v="215460" />
	</node>
	<node id="-539929" lat="61.9022527797" lon="5.11468332948">
		<tag k="alt_name" v="Storevika" />
		<tag k="name" v="Verpesvika" />
		<tag k="natural" v="bay" />
		<tag k="ssr:stedsnr" v="215381" />
	</node>
	<node id="-539927" lat="61.890847221" lon="5.13141389445">
		<tag k="name" v="Notholmen" />
		<tag k="place" v="islet" />
		<tag k="ssr:stedsnr" v="215355" />
	</node>
	<node id="-539926" lat="61.899919445" lon="5.1690444442">
		<tag k="name" v="Vemmelsvika" />
		<tag k="natural" v="bay" />
		<tag k="ssr:stedsnr" v="215346" />
	</node>
	<node id="-539924" lat="61.8905055577" lon="5.14102500653">
		<tag k="name" v="Naustholmen" />
		<tag k="natural" v="cape" />
		<tag k="ssr:stedsnr" v="215319" />
	</node>
	<node id="-539923" lat="61.8813611135" lon="5.18328888714">
		<tag k="name" v="Risøystraumen" />
		<tag k="natural" v="strait" />
		<tag k="ssr:stedsnr" v="215301" />
	</node>
	<node id="-539918" lat="62.0274861113" lon="5.01586389841">
		<tag k="name" v="Sælbota" />
		<tag k="natural" v="cape" />
		<tag k="ssr:stedsnr" v="193659" />
	</node>
	<node id="-539917" lat="62.025633331" lon="5.11095277809">
		<tag k="name" v="Halsetangen" />
		<tag k="natural" v="cape" />
		<tag k="ssr:stedsnr" v="193658" />
	</node>
	<node id="-539915" lat="62.0645138912" lon="4.91699443699">
		<tag k="name" v="Tårnstøda" />
		<tag k="natural" v="shoal" />
		<tag k="place" v="locality" />
		<tag k="ssr:stedsnr" v="193638" />
	</node>
	<node id="-539914" lat="62.007844444" lon="5.19594165996">
		<tag k="name" v="Varden" />
		<tag k="place" v="islet" />
		<tag k="ssr:stedsnr" v="193635" />
	</node>
	<node id="-539910" lat="61.939408335" lon="5.0237722251">
		<tag k="name" v="Ytstevika" />
		<tag k="natural" v="bay" />
		<tag k="ssr:stedsnr" v="192970" />
	</node>
	<node id="-539909" lat="61.9356166653" lon="5.03596111466">
		<tag k="alt_name" v="Instevikane" />
		<tag k="name" v="Fremstevika" />
		<tag k="natural" v="bay" />
		<tag k="ssr:stedsnr" v="192963" />
	</node>
	<node id="-539908" lat="61.9877027821" lon="5.00130555048">
		<tag k="name" v="Raudsteinsneset" />
		<tag k="natural" v="cape" />
		<tag k="ssr:stedsnr" v="192956" />
	</node>
	<node id="-539907" lat="61.9772944435" lon="4.88087778173">
		<tag k="bay" v="fjord" />
		<tag k="name" v="Hølen" />
		<tag k="natural" v="bay" />
		<tag k="ssr:stedsnr" v="192951" />
	</node>
	<node id="-539899" lat="61.9504416655" lon="5.1416444358">
		<tag k="name" v="Ulvesundet" />
		<tag k="natural" v="strait" />
		<tag k="ssr:stedsnr" v="192811" />
	</node>
	<node id="-539892" lat="61.9242222201" lon="5.0846777793">
		<tag k="name" v="Matrog" />
		<tag k="natural" v="cape" />
		<tag k="ssr:stedsnr" v="175489" />
	</node>
	<node id="-539891" lat="61.9047611094" lon="5.22249165847">
		<tag k="name" v="Skallen" />
		<tag k="natural" v="shoal" />
		<tag k="place" v="locality" />
		<tag k="ssr:stedsnr" v="174637" />
	</node>
	<node id="-539890" lat="61.9099499973" lon="5.2534888949">
		<tag k="name" v="Allmenningsklubben" />
		<tag k="natural" v="cape" />
		<tag k="ssr:stedsnr" v="174632" />
	</node>
	<node id="-539879" lat="62.0092916662" lon="5.06596388947">
		<tag k="name" v="Rekevika" />
		<tag k="natural" v="bay" />
		<tag k="ssr:stedsnr" v="155346" />
	</node>
	<node id="-539876" lat="61.9313166644" lon="5.39740834212">
		<tag k="name" v="Griseholmen" />
		<tag k="place" v="islet" />
		<tag k="ssr:stedsnr" v="154971" />
	</node>
	<node id="-539871" lat="61.966588888" lon="5.1930777801">
		<tag k="name" v="Blåfjellvika" />
		<tag k="natural" v="bay" />
		<tag k="ssr:stedsnr" v="154768" />
	</node>
	<node id="-539863" lat="61.9570361149" lon="5.20585832583">
		<tag k="name" v="Kisteneset" />
		<tag k="natural" v="cape" />
		<tag k="ssr:stedsnr" v="154649" />
	</node>
	<node id="-539862" lat="61.9536166677" lon="5.20719722501">
		<tag k="name" v="Straumsvika" />
		<tag k="natural" v="bay" />
		<tag k="ssr:stedsnr" v="154647" />
	</node>
	<node id="-539861" lat="62.0148916662" lon="5.18541388232">
		<tag k="name" v="Furevika" />
		<tag k="natural" v="bay" />
		<tag k="ssr:stedsnr" v="154632" />
	</node>
	<node id="-539856" lat="61.8965305559" lon="5.06821388164">
		<tag k="alt_name" v="Furnes" />
		<tag k="name" v="Furenes" />
		<tag k="natural" v="cape" />
		<tag k="ssr:stedsnr" v="154538" />
	</node>
	<node id="-539853" lat="61.9503083345" lon="5.05403889272">
		<tag k="name" v="Vika" />
		<tag k="natural" v="bay" />
		<tag k="ssr:stedsnr" v="154486" />
	</node>
	<node id="-539851" lat="61.9121138886" lon="5.17797499609">
		<tag k="alt_name" v="Litle Furøy" />
		<tag k="name" v="Puskøya" />
		<tag k="place" v="island" />
		<tag k="ssr:stedsnr" v="154376" />
	</node>
	<node id="-539848" lat="61.9271333375" lon="5.12658054952">
		<tag k="name" v="Kulavågen" />
		<tag k="natural" v="bay" />
		<tag k="ssr:stedsnr" v="154703" />
	</node>
	<node id="-539844" lat="62.040980552" lon="4.94958056349">
		<tag k="name" v="Tårngrunna" />
		<tag k="natural" v="shoal" />
		<tag k="place" v="locality" />
		<tag k="ssr:stedsnr" v="132689" />
	</node>
	<node id="-539843" lat="62.0175888907" lon="5.18525834207">
		<tag k="name" v="Ospeneset" />
		<tag k="natural" v="cape" />
		<tag k="ssr:stedsnr" v="132651" />
	</node>
	<node id="-539842" lat="62.0125999994" lon="4.91546666874">
		<tag k="name" v="Håbåen" />
		<tag k="natural" v="shoal" />
		<tag k="place" v="locality" />
		<tag k="ssr:stedsnr" v="132643" />
	</node>
	<node id="-539839" lat="61.9149305531" lon="5.00320278476">
		<tag k="name" v="Eikholmane" />
		<tag k="place" v="islet" />
		<tag k="ssr:stedsnr" v="131987" />
	</node>
	<node id="-539838" lat="61.9332944407" lon="4.97609445295">
		<tag k="name" v="Skorningane" />
		<tag k="place" v="islet" />
		<tag k="ssr:stedsnr" v="131973" />
	</node>
	<node id="-539837" lat="61.9318527733" lon="5.03389166007">
		<tag k="name" v="Vombaneset" />
		<tag k="natural" v="cape" />
		<tag k="ssr:stedsnr" v="131972" />
	</node>
	<node id="-539836" lat="61.9379666679" lon="5.03046666224">
		<tag k="alt_name" v="Buvikane" />
		<tag k="name" v="Buvika" />
		<tag k="natural" v="bay" />
		<tag k="ssr:stedsnr" v="131971" />
	</node>
	<node id="-539829" lat="61.9714083324" lon="5.1952361202">
		<tag k="alt_name" v="Osingholmen" />
		<tag k="name" v="Osingeholmen" />
		<tag k="place" v="islet" />
		<tag k="ssr:stedsnr" v="131794" />
	</node>
	<node id="-539822" lat="62.0196638934" lon="4.98050277926">
		<tag k="name" v="Uksefalla" />
		<tag k="natural" v="shoal" />
		<tag k="place" v="locality" />
		<tag k="ssr:stedsnr" v="117618" />
	</node>
	<node id="-539821" lat="61.9615777749" lon="5.19590833679">
		<tag k="name" v="Bergeneset" />
		<tag k="natural" v="cape" />
		<tag k="ssr:stedsnr" v="117236" />
	</node>
	<node id="-539820" lat="61.9756305577" lon="5.19348889222">
		<tag k="fixme" v="consider seamark:type=rock or natural=shoal" />
		<tag k="name" v="Setreskjeret" />
		<tag k="place" v="islet" />
		<tag k="ssr:stedsnr" v="117237" />
	</node>
	<node id="-539819" lat="61.9304388865" lon="5.38576666134">
		<tag k="name" v="Totlandsvågen" />
		<tag k="natural" v="bay" />
		<tag k="ssr:stedsnr" v="114650" />
	</node>
	<node id="-539818" lat="61.9317611077" lon="4.9918444435">
		<tag k="fixme" v="consider seamark:type=rock or natural=shoal" />
		<tag k="name" v="Svarteskjera" />
		<tag k="place" v="islet" />
		<tag k="ssr:stedsnr" v="114448" />
	</node>
	<node id="-539814" lat="61.9732777794" lon="5.0574972259">
		<tag k="name" v="Duegytten" />
		<tag k="natural" v="bay" />
		<tag k="ssr:stedsnr" v="94483" />
	</node>
	<node id="-539808" lat="61.9075944478" lon="5.15606666504">
		<tag k="alt_name" v="Timbervika" />
		<tag k="name" v="Tomrevika" />
		<tag k="natural" v="bay" />
		<tag k="ssr:stedsnr" v="94354" />
	</node>
	<node id="-539807" lat="61.8814999982" lon="5.16524166315">
		<tag k="fixme" v="consider seamark:type=rock or natural=shoal" />
		<tag k="name" v="Gangsøyskjeret" />
		<tag k="place" v="islet" />
		<tag k="ssr:stedsnr" v="94314" />
	</node>
	<node id="-539804" lat="61.9325944415" lon="5.3974194364">
		<tag k="name" v="Jektevika" />
		<tag k="natural" v="bay" />
		<tag k="ssr:stedsnr" v="93955" />
	</node>
	<node id="-539790" lat="62.0268694403" lon="5.11436666413">
		<tag k="name" v="Klompen" />
		<tag k="place" v="islet" />
		<tag k="ssr:stedsnr" v="93654" />
	</node>
	<node id="-539787" lat="62.0036138847" lon="5.14598611886">
		<tag k="name" v="Bersnes" />
		<tag k="natural" v="cape" />
		<tag k="ssr:stedsnr" v="93623" />
	</node>
	<node id="-539785" lat="62.0093111116" lon="5.19838333957">
		<tag k="name" v="Kyrkjeneset" />
		<tag k="natural" v="cape" />
		<tag k="ssr:stedsnr" v="93527" />
	</node>
	<node id="-539780" lat="62.0131999986" lon="5.18324999449">
		<tag k="name" v="Gulvika" />
		<tag k="natural" v="bay" />
		<tag k="ssr:stedsnr" v="93492" />
	</node>
	<node id="-539778" lat="61.9099472238" lon="5.23845834126">
		<tag k="alt_name" v="Almenningsholmen" />
		<tag k="name" v="Allmenningsholmen" />
		<tag k="place" v="islet" />
		<tag k="ssr:stedsnr" v="93465" />
	</node>
	<node id="-539777" lat="62.0161203334" lon="5.1097340632">
		<tag k="alt_name" v="Sanden" />
		<tag k="name" v="Nordsanden" />
		<tag k="natural" v="bay" />
		<tag k="ssr:stedsnr" v="93447" />
	</node>
	<node id="-539769" lat="61.9537166627" lon="5.05283056352">
		<tag k="name" v="Holmen" />
		<tag k="place" v="islet" />
		<tag k="ssr:stedsnr" v="93343" />
	</node>
	<node id="-539768" lat="61.9985611086" lon="4.98863054846">
		<tag k="name" v="Einevardsvika" />
		<tag k="natural" v="bay" />
		<tag k="ssr:stedsnr" v="93324" />
	</node>
	<node id="-539761" lat="62.0329777745" lon="4.98366111005">
		<tag k="name" v="Linholmen" />
		<tag k="place" v="islet" />
		<tag k="ssr:stedsnr" v="72662" />
	</node>
	<node id="-539758" lat="61.9272805598" lon="5.06526944549">
		<tag k="name" v="Nakkeneset" />
		<tag k="natural" v="cape" />
		<tag k="ssr:stedsnr" v="71972" />
	</node>
	<node id="-539748" lat="61.9052972264" lon="5.09567500338">
		<tag k="name" v="Røytevågen" />
		<tag k="natural" v="cape" />
		<tag k="ssr:stedsnr" v="70196" />
	</node>
	<node id="-539742" lat="62.0044333365" lon="4.9167722221">
		<tag k="name" v="Blåfjellfluda" />
		<tag k="natural" v="shoal" />
		<tag k="place" v="locality" />
		<tag k="ssr:stedsnr" v="57470" />
	</node>
	<node id="-539740" lat="61.9342722248" lon="5.4113666741">
		<tag k="name" v="Hylla" />
		<tag k="natural" v="cape" />
		<tag k="ssr:stedsnr" v="54519" />
	</node>
	<node id="-539739" lat="61.9569378651" lon="5.1422387298">
		<tag k="name" v="Skoraneset" />
		<tag k="natural" v="cape" />
		<tag k="ssr:stedsnr" v="53733" />
	</node>
	<node id="-539738" lat="61.9085888885" lon="5.09338889769">
		<tag k="name" v="Bleket" />
		<tag k="natural" v="cape" />
		<tag k="ssr:stedsnr" v="53705" />
	</node>
	<node id="-539737" lat="61.9040777796" lon="5.25965554588">
		<tag k="name" v="Allmenningsfludene" />
		<tag k="natural" v="shoal" />
		<tag k="place" v="locality" />
		<tag k="ssr:stedsnr" v="53629" />
	</node>
	<node id="-539736" lat="61.8977527752" lon="5.04549999412">
		<tag k="name" v="Krabbestigneset" />
		<tag k="natural" v="cape" />
		<tag k="ssr:stedsnr" v="53375" />
	</node>
	<node id="-539714" lat="62.0033388888" lon="5.07783611216">
		<tag k="name" v="Refviknausta" />
		<tag k="natural" v="beach" />
		<tag k="place" v="locality" />
		<tag k="ssr:stedsnr" v="33718" />
	</node>
	<node id="-539710" lat="61.9272780197" lon="5.07580576211">
		<tag k="name" v="Holvika" />
		<tag k="natural" v="bay" />
		<tag k="ssr:stedsnr" v="33681" />
	</node>
	<node id="-539702" lat="61.9114916707" lon="5.31155555132">
		<tag k="name" v="Skutvika" />
		<tag k="natural" v="bay" />
		<tag k="ssr:stedsnr" v="33552" />
	</node>
	<node id="-539700" lat="61.9044111128" lon="5.02828054725">
		<tag k="name" v="Mækane" />
		<tag k="natural" v="cape" />
		<tag k="ssr:stedsnr" v="33513" />
	</node>
	<node id="-539692" lat="61.8975305583" lon="5.12353334044">
		<tag k="alt_name" v="Nordre Grindøysundet" />
		<tag k="name" v="Grindøysundet" />
		<tag k="natural" v="strait" />
		<tag k="ssr:stedsnr" v="33371" />
	</node>
	<node id="-539690" lat="61.9169694437" lon="5.18681666073">
		<tag k="name" v="Straumen" />
		<tag k="natural" v="strait" />
		<tag k="ssr:stedsnr" v="33352" />
	</node>
	<node id="-539686" lat="62.0265972256" lon="4.9932972226">
		<tag k="name" v="Dalsfjøra" />
		<tag k="natural" v="bay" />
		<tag k="ssr:stedsnr" v="33015" />
	</node>
	<node id="-539683" lat="62.0335611139" lon="5.12438611277">
		<tag k="name" v="Skongsnesholmen" />
		<tag k="place" v="islet" />
		<tag k="ssr:stedsnr" v="11680" />
	</node>
	<node id="-539682" lat="62.0666166664" lon="4.95392222134">
		<tag k="name" v="Torsfluda" />
		<tag k="natural" v="shoal" />
		<tag k="place" v="locality" />
		<tag k="ssr:stedsnr" v="11654" />
	</node>
	<node id="-539680" lat="62.0177666682" lon="5.19395555844">
		<tag k="name" v="Gardsendevågen" />
		<tag k="natural" v="bay" />
		<tag k="ssr:stedsnr" v="11626" />
	</node>
	<node id="-539674" lat="61.985988885" lon="5.19173333471">
		<tag k="name" v="Neset" />
		<tag k="natural" v="cape" />
		<tag k="ssr:stedsnr" v="10877" />
	</node>
	<node id="-539664" lat="62.0120429098" lon="5.14093305592">
		<tag k="name" v="Langeneset" />
		<tag k="natural" v="cape" />
		<tag k="ssr:stedsnr" v="984169" />
	</node>
	<node id="-539663" lat="61.9338644242" lon="5.04673924193">
		<tag k="name" v="Notholmen" />
		<tag k="natural" v="cape" />
		<tag k="ssr:stedsnr" v="982413" />
	</node>
	<node id="-539648" lat="62.0114722207" lon="5.06207222455">
		<tag k="fixme" v="consider seamark:type=rock or natural=shoal" />
		<tag k="name" v="Raudeskjeret" />
		<tag k="place" v="islet" />
		<tag k="ssr:stedsnr" v="883409" />
	</node>
	<node id="-539647" lat="62.01525833" lon="5.05390278247">
		<tag k="fixme" v="consider seamark:type=rock or natural=shoal" />
		<tag k="name" v="Lammeskora" />
		<tag k="place" v="islet" />
		<tag k="ssr:stedsnr" v="883408" />
	</node>
	<node id="-539645" lat="61.9103638901" lon="5.17935277564">
		<tag k="name" v="Djupevika" />
		<tag k="natural" v="bay" />
		<tag k="ssr:stedsnr" v="883372" />
	</node>
	<node id="-539644" lat="61.8836027806" lon="5.15310000049">
		<tag k="fixme" v="consider seamark:type=rock or natural=shoal" />
		<tag k="name" v="Bruraskjeret" />
		<tag k="place" v="islet" />
		<tag k="ssr:stedsnr" v="883330" />
	</node>
	<node id="-539643" lat="61.8853861118" lon="5.15133054812">
		<tag k="name" v="Lauparvika" />
		<tag k="natural" v="bay" />
		<tag k="ssr:stedsnr" v="883331" />
	</node>
	<node id="-539641" lat="61.9245611126" lon="5.37526388187">
		<tag k="name" v="Fetsteinvika" />
		<tag k="natural" v="bay" />
		<tag k="ssr:stedsnr" v="882947" />
	</node>
	<node id="-539627" lat="62.0281527751" lon="5.1191722229">
		<tag k="name" v="Kvalvågane" />
		<tag k="natural" v="bay" />
		<tag k="ssr:stedsnr" v="882633" />
	</node>
	<node id="-539618" lat="62.0124946654" lon="5.13598364454">
		<tag k="alt_name" v="Setresanden" />
		<tag k="name" v="Setrasanden" />
		<tag k="natural" v="bay" />
		<tag k="ssr:stedsnr" v="882488" />
	</node>
	<node id="-539612" lat="61.917972221" lon="5.04448611028">
		<tag k="name" v="Gardsholmen" />
		<tag k="place" v="islet" />
		<tag k="ssr:stedsnr" v="882382" />
	</node>
	<node id="-539611" lat="61.9378277782" lon="5.02561111463">
		<tag k="name" v="Skjelbenken" />
		<tag k="natural" v="cape" />
		<tag k="ssr:stedsnr" v="882374" />
	</node>
	<node id="-539609" lat="62.0280277817" lon="4.9885000012">
		<tag k="name" v="Dalen" />
		<tag k="natural" v="bay" />
		<tag k="ssr:stedsnr" v="882006" />
	</node>
	<node id="-539607" lat="61.9373944464" lon="4.94605833512">
		<tag k="fixme" v="consider seamark:type=rock or natural=shoal" />
		<tag k="name" v="Klovningskjeret" />
		<tag k="place" v="islet" />
		<tag k="ssr:stedsnr" v="478431" />
	</node>
	<node id="-539605" lat="61.8984361119" lon="5.16377221789">
		<tag k="name" v="Vemmelsvikholmen" />
		<tag k="place" v="islet" />
		<tag k="ssr:stedsnr" v="477638" />
	</node>
	<node id="-539604" lat="61.9125694469" lon="5.22602500702">
		<tag k="name" v="Eldevikholmen" />
		<tag k="place" v="islet" />
		<tag k="ssr:stedsnr" v="477622" />
	</node>
	<node id="-539603" lat="61.9146833368" lon="5.1216805607">
		<tag k="name" v="Gjermundsfluda" />
		<tag k="natural" v="shoal" />
		<tag k="place" v="locality" />
		<tag k="ssr:stedsnr" v="477538" />
	</node>
	<node id="-539579" lat="61.9729833338" lon="5.19296943766">
		<tag k="name" v="Setreneset" />
		<tag k="natural" v="cape" />
		<tag k="ssr:stedsnr" v="397735" />
	</node>
	<node id="-539574" lat="61.9278138854" lon="5.12163889867">
		<tag k="name" v="Måløystraumen" />
		<tag k="natural" v="strait" />
		<tag k="ssr:stedsnr" v="397651" />
	</node>
	<node id="-539573" lat="61.9316750035" lon="5.12931666583">
		<tag k="name" v="Naustneset" />
		<tag k="natural" v="cape" />
		<tag k="ssr:stedsnr" v="397649" />
	</node>
	<node id="-539567" lat="62.0179416676" lon="5.19129721326">
		<tag k="name" v="Pesten" />
		<tag k="natural" v="bay" />
		<tag k="ssr:stedsnr" v="397595" />
	</node>
	<node id="-539565" lat="61.9508972222" lon="5.01569443821">
		<tag k="name" v="Meisavika" />
		<tag k="natural" v="bay" />
		<tag k="ssr:stedsnr" v="397501" />
	</node>
	<node id="-539562" lat="62.0263888912" lon="5.02046388375">
		<tag k="name" v="Sælbåten" />
		<tag k="natural" v="bay" />
		<tag k="ssr:stedsnr" v="397377" />
	</node>
	<node id="-539561" lat="61.907461115" lon="5.10104721243">
		<tag k="name" v="Gåsholmsundet" />
		<tag k="natural" v="strait" />
		<tag k="ssr:stedsnr" v="397361" />
	</node>
	<node id="-539556" lat="61.9526666643" lon="5.13914999834">
		<tag k="name" v="Brandthamna" />
		<tag k="natural" v="cape" />
		<tag k="ssr:stedsnr" v="397301" />
	</node>
	<node id="-539555" lat="61.8834222181" lon="5.15406943648">
		<tag k="name" v="Rumpevikane" />
		<tag k="natural" v="bay" />
		<tag k="ssr:stedsnr" v="397293" />
	</node>
	<node id="-539551" lat="61.9223777819" lon="5.01963888938">
		<tag k="name" v="Svinevik" />
		<tag k="natural" v="bay" />
		<tag k="ssr:stedsnr" v="396391" />
	</node>
	<node id="-539545" lat="62.0216583368" lon="5.04543889605">
		<tag k="name" v="Hundsneset" />
		<tag k="natural" v="cape" />
		<tag k="ssr:stedsnr" v="375648" />
	</node>
	<node id="-539543" lat="62.0027370266" lon="5.14654502198">
		<tag k="name" v="Halsøyrsanden" />
		<tag k="natural" v="beach" />
		<tag k="place" v="locality" />
		<tag k="ssr:stedsnr" v="375606" />
	</node>
	<node id="-539542" lat="62.0091138903" lon="4.98399722922">
		<tag k="name" v="Skateneset" />
		<tag k="natural" v="cape" />
		<tag k="ssr:stedsnr" v="375597" />
	</node>
	<node id="-539541" lat="62.0203888873" lon="5.20724723112">
		<tag k="alt_name" v="Sildekruna" />
		<tag k="name" v="Holmen" />
		<tag k="place" v="islet" />
		<tag k="ssr:stedsnr" v="375595" />
	</node>
	<node id="-539536" lat="61.9504388859" lon="5.01353611763">
		<tag k="name" v="Meisaneset" />
		<tag k="natural" v="cape" />
		<tag k="ssr:stedsnr" v="374958" />
	</node>
	<node id="-539531" lat="62.0596305522" lon="5.00251389299">
		<tag k="name" v="Hågrunskene" />
		<tag k="natural" v="shoal" />
		<tag k="place" v="locality" />
		<tag k="ssr:stedsnr" v="374667" />
	</node>
	<node id="-539530" lat="62.0520444448" lon="5.03495555138">
		<tag k="name" v="Sildegrunna" />
		<tag k="natural" v="shoal" />
		<tag k="place" v="locality" />
		<tag k="ssr:stedsnr" v="374664" />
	</node>
	<node id="-539526" lat="61.8876689408" lon="5.11777769615">
		<tag k="name" v="Gangsøytangen" />
		<tag k="natural" v="cape" />
		<tag k="ssr:stedsnr" v="374228" />
	</node>
	<node id="-539525" lat="61.8815416672" lon="5.17776943556">
		<tag k="name" v="Risøya" />
		<tag k="place" v="island" />
		<tag k="ssr:stedsnr" v="374220" />
	</node>
	<node id="-539519" lat="61.9362722202" lon="5.13641389141">
		<tag k="name" v="Fureneset" />
		<tag k="natural" v="cape" />
		<tag k="ssr:stedsnr" v="360992" />
	</node>
	<node id="-539518" lat="61.9991249971" lon="5.2354527769">
		<tag k="name" v="Austre Simaskallen" />
		<tag k="natural" v="shoal" />
		<tag k="place" v="locality" />
		<tag k="ssr:stedsnr" v="360489" />
	</node>
	<node id="-539517" lat="61.9505166686" lon="5.20062777623">
		<tag k="name" v="Ytstegardvika" />
		<tag k="natural" v="bay" />
		<tag k="ssr:stedsnr" v="360170" />
	</node>
	<node id="-539516" lat="62.0571138879" lon="5.07733333053">
		<tag k="name" v="Rabbetågrunna" />
		<tag k="natural" v="shoal" />
		<tag k="place" v="locality" />
		<tag k="ssr:stedsnr" v="359647" />
	</node>
	<node id="-539515" lat="62.0575000039" lon="5.0989277709">
		<tag k="name" v="Kråkebåen" />
		<tag k="place" v="locality" />
		<tag k="seamark:type" v="rock" />
		<tag k="ssr:stedsnr" v="359643" />
	</node>
	<node id="-539514" lat="62.0611750011" lon="5.11128889794">
		<tag k="name" v="Skåkeskallane" />
		<tag k="natural" v="shoal" />
		<tag k="place" v="locality" />
		<tag k="ssr:stedsnr" v="359644" />
	</node>
	<node id="-539513" lat="62.0176666704" lon="5.13567221589">
		<tag k="name" v="Revesteinane" />
		<tag k="place" v="locality" />
		<tag k="seamark:type" v="rock" />
		<tag k="ssr:stedsnr" v="359640" />
	</node>
	<node id="-539512" lat="61.9324055521" lon="5.41179722407">
		<tag k="name" v="Kisteholmen" />
		<tag k="place" v="islet" />
		<tag k="ssr:stedsnr" v="357477" />
	</node>
	<node id="-539511" lat="61.9281111126" lon="4.95286110713">
		<tag k="name" v="Klovningbåane" />
		<tag k="natural" v="shoal" />
		<tag k="place" v="locality" />
		<tag k="ssr:stedsnr" v="356418" />
	</node>
	<node id="-539510" lat="61.9232361097" lon="4.9905027741">
		<tag k="name" v="Tareskallen" />
		<tag k="natural" v="shoal" />
		<tag k="place" v="locality" />
		<tag k="ssr:stedsnr" v="356413" />
	</node>
	<node id="-539509" lat="61.8940916706" lon="5.09089443584">
		<tag k="name" v="Tytningevågholmane" />
		<tag k="place" v="islet" />
		<tag k="ssr:stedsnr" v="356359" />
	</node>
	<node id="-539502" lat="61.918083329" lon="5.35926111305">
		<tag k="name" v="Laksevika" />
		<tag k="natural" v="bay" />
		<tag k="ssr:stedsnr" v="337586" />
	</node>
	<node id="-539500" lat="61.9901055568" lon="4.99426389378">
		<tag k="name" v="Slumparhola" />
		<tag k="place" v="locality" />
		<tag k="ssr:stedsnr" v="337380" />
	</node>
	<node id="-539494" lat="61.8873361108" lon="5.13167777661">
		<tag k="name" v="Trollevika" />
		<tag k="natural" v="bay" />
		<tag k="ssr:stedsnr" v="337299" />
	</node>
	<node id="-539491" lat="61.8855555561" lon="5.16471389766">
		<tag k="name" v="Langeneset" />
		<tag k="natural" v="cape" />
		<tag k="ssr:stedsnr" v="337266" />
	</node>
	<node id="-539490" lat="61.9304444476" lon="5.39196667489">
		<tag k="name" v="Rundeholmen" />
		<tag k="place" v="islet" />
		<tag k="ssr:stedsnr" v="336979" />
	</node>
	<node id="-539479" lat="61.976022225" lon="5.13005277712">
		<tag k="name" v="Raudebergstranda" />
		<tag k="natural" v="beach" />
		<tag k="place" v="locality" />
		<tag k="ssr:stedsnr" v="336724" />
	</node>
	<node id="-539477" lat="61.972749997" lon="5.13765833071">
		<tag k="name" v="Kapellbukta" />
		<tag k="natural" v="bay" />
		<tag k="ssr:stedsnr" v="336710" />
	</node>
	<node id="-539476" lat="62.0174333335" lon="5.08293889179">
		<tag k="name" v="Klubbekeila" />
		<tag k="natural" v="bay" />
		<tag k="ssr:stedsnr" v="336697" />
	</node>
	<node id="-539475" lat="62.0299888883" lon="5.12015276842">
		<tag k="name" v="Maulkråna" />
		<tag k="natural" v="bay" />
		<tag k="ssr:stedsnr" v="336695" />
	</node>
	<node id="-539461" lat="61.9110555527" lon="5.3110250092">
		<tag k="name" v="Skutvikneset" />
		<tag k="natural" v="cape" />
		<tag k="ssr:stedsnr" v="336468" />
	</node>
	<node id="-539458" lat="61.9516222182" lon="5.05381945321">
		<tag k="name" v="Seljeneset" />
		<tag k="natural" v="cape" />
		<tag k="ssr:stedsnr" v="336402" />
	</node>
	<node id="-539454" lat="62.0321472245" lon="5.00752222838">
		<tag k="name" v="Langeneset" />
		<tag k="natural" v="cape" />
		<tag k="ssr:stedsnr" v="336005" />
	</node>
	<node id="-539451" lat="61.9393333369" lon="5.22348055978">
		<tag k="name" v="Pollaneset" />
		<tag k="natural" v="cape" />
		<tag k="ssr:stedsnr" v="335575" />
	</node>
	<node id="-539448" lat="62.0334222208" lon="5.00153889121">
		<tag k="name" v="Keila" />
		<tag k="place" v="islet" />
		<tag k="ssr:stedsnr" v="93010" />
	</node>
	<node id="-539447" lat="62.03971389" lon="5.1488888949">
		<tag k="name" v="Skongsnesfludene" />
		<tag k="natural" v="shoal" />
		<tag k="place" v="locality" />
		<tag k="ssr:stedsnr" v="314684" />
	</node>
	<node id="-539446" lat="62.019836115" lon="4.91996666937">
		<tag k="alt_name" v="Grunneflua" />
		<tag k="name" v="Grunnefluda" />
		<tag k="natural" v="shoal" />
		<tag k="place" v="locality" />
		<tag k="ssr:stedsnr" v="314681" />
	</node>
	<node id="-539445" lat="62.0681805521" lon="5.12326944004">
		<tag k="bay" v="fjord" />
		<tag k="name" v="Sildegapet" />
		<tag k="natural" v="bay" />
		<tag k="ssr:stedsnr" v="314677" />
	</node>
	<node id="-539443" lat="62.0115833331" lon="5.18256944871">
		<tag k="name" v="Artuneset" />
		<tag k="natural" v="cape" />
		<tag k="ssr:stedsnr" v="314666" />
	</node>
	<node id="-539442" lat="61.8969249981" lon="5.09348332648">
		<tag k="alt_name" v="Tytingvågen;Tytingevågen" />
		<tag k="name" v="Tytningevågen" />
		<tag k="natural" v="bay" />
		<tag k="old_name" v="Tyingevågen" />
		<tag k="ssr:stedsnr" v="313996" />
	</node>
	<node id="-539441" lat="61.9224250021" lon="5.09102777259">
		<tag k="name" v="Halneset" />
		<tag k="natural" v="cape" />
		<tag k="ssr:stedsnr" v="313978" />
	</node>
	<node id="-539440" lat="61.924066666" lon="5.01415554759">
		<tag k="name" v="Æneset" />
		<tag k="natural" v="cape" />
		<tag k="ssr:stedsnr" v="313966" />
	</node>
	<node id="-539439" lat="61.9912694473" lon="4.99045833048">
		<tag k="alt_name" v="Palleneset" />
		<tag k="name" v="Pallen" />
		<tag k="natural" v="cape" />
		<tag k="ssr:stedsnr" v="313961" />
	</node>
	<node id="-539425" lat="62.0131499986" lon="5.08613611546">
		<tag k="name" v="Storvika" />
		<tag k="natural" v="bay" />
		<tag k="ssr:stedsnr" v="299954" />
	</node>
	<node id="-539424" lat="62.030597224" lon="5.03369443964">
		<tag k="name" v="Bergfluda" />
		<tag k="natural" v="shoal" />
		<tag k="place" v="locality" />
		<tag k="ssr:stedsnr" v="299634" />
	</node>
	<node id="-539423" lat="62.025355558" lon="4.97525556098">
		<tag k="name" v="Myrefluda" />
		<tag k="natural" v="shoal" />
		<tag k="place" v="locality" />
		<tag k="ssr:stedsnr" v="299630" />
	</node>
	<node id="-539422" lat="62.0441361115" lon="5.14467500312">
		<tag k="name" v="Sibberhalsgrunna" />
		<tag k="natural" v="shoal" />
		<tag k="place" v="locality" />
		<tag k="ssr:stedsnr" v="299610" />
	</node>
	<node id="-539421" lat="62.0229555537" lon="5.20995277662">
		<tag k="fixme" v="consider seamark:type=rock or natural=shoal" />
		<tag k="name" v="Sildeskjeret" />
		<tag k="place" v="islet" />
		<tag k="ssr:stedsnr" v="299527" />
	</node>
	<node id="-539420" lat="62.0143805551" lon="5.22566943874">
		<tag k="bay" v="fjord" />
		<tag k="name" v="Sildefjorden" />
		<tag k="natural" v="bay" />
		<tag k="ssr:stedsnr" v="299517" />
	</node>
	<node id="-539419" lat="61.9280305567" lon="5.38544166086">
		<tag k="name" v="Totlandsholmane" />
		<tag k="place" v="islet" />
		<tag k="ssr:stedsnr" v="296617" />
	</node>
	<node id="-539418" lat="61.9356055584" lon="5.43158055553">
		<tag k="name" v="Litlefluda" />
		<tag k="place" v="islet" />
		<tag k="ssr:stedsnr" v="296474" />
	</node>
	<node id="-539417" lat="61.9431527806" lon="5.13817778605">
		<tag k="name" v="Trollebøfluda" />
		<tag k="natural" v="shoal" />
		<tag k="place" v="locality" />
		<tag k="ssr:stedsnr" v="295706" />
	</node>
	<node id="-539416" lat="61.9103277792" lon="5.22094443965">
		<tag k="fixme" v="consider seamark:type=rock or natural=shoal" />
		<tag k="name" v="Falken" />
		<tag k="place" v="islet" />
		<tag k="ssr:stedsnr" v="295623" />
	</node>
	<node id="-539411" lat="61.8928916629" lon="5.1208916585">
		<tag k="name" v="Litle Grindøystraumen" />
		<tag k="natural" v="strait" />
		<tag k="ssr:stedsnr" v="276898" />
	</node>
	<node id="-539404" lat="61.9055833301" lon="5.09424722491">
		<tag k="name" v="Røytevågen" />
		<tag k="natural" v="bay" />
		<tag k="ssr:stedsnr" v="276384" />
	</node>
	<node id="-539402" lat="61.9144805555" lon="5.18470554861">
		<tag k="alt_name" v="Grønevika" />
		<tag k="name" v="Grønnevika" />
		<tag k="natural" v="bay" />
		<tag k="ssr:stedsnr" v="276339" />
	</node>
	<node id="-539391" lat="61.992949996" lon="5.15749722021">
		<tag k="fixme" v="consider seamark:type=rock or natural=shoal" />
		<tag k="name" v="Røysaskjeret" />
		<tag k="place" v="islet" />
		<tag k="ssr:stedsnr" v="275660" />
	</node>
	<node id="-539390" lat="61.9867722237" lon="5.17448333877">
		<tag k="alt_name" v="Rabben" />
		<tag k="name" v="Nesarabben" />
		<tag k="natural" v="cape" />
		<tag k="ssr:stedsnr" v="275659" />
	</node>
	<node id="-539387" lat="61.9236874731" lon="5.09276603993">
		<tag k="name" v="Halnesvika" />
		<tag k="natural" v="bay" />
		<tag k="ssr:stedsnr" v="275613" />
	</node>
	<node id="-539384" lat="61.9511888905" lon="5.20278889339">
		<tag k="name" v="Straumen" />
		<tag k="natural" v="strait" />
		<tag k="ssr:stedsnr" v="275545" />
	</node>
	<node id="-539374" lat="61.9006111082" lon="5.03533611983">
		<tag k="name" v="Krabbestighola" />
		<tag k="place" v="locality" />
		<tag k="ssr:stedsnr" v="275425" />
	</node>
	<node id="-540767" lat="61.9286665146" lon="5.11872026556">
		<tag k="alt_name" v="Måløya" />
		<tag k="name" v="Måløyna" />
		<tag k="place" v="island" />
		<tag k="ssr:stedsnr" v="981001" />
	</node>
	<node id="-540762" lat="61.9911638898" lon="4.98768333903">
		<tag k="name" v="Pallefluda" />
		<tag k="natural" v="shoal" />
		<tag k="place" v="locality" />
		<tag k="ssr:stedsnr" v="967454" />
	</node>
	<node id="-540759" lat="62.0119333328" lon="5.18120555098">
		<tag k="name" v="Artutangen" />
		<tag k="natural" v="cape" />
		<tag k="old_name" v="Arturtangen" />
		<tag k="ssr:stedsnr" v="966945" />
	</node>
	<node id="-540758" lat="62.0546249959" lon="5.08780556527">
		<tag k="name" v="Kråkefluda" />
		<tag k="natural" v="shoal" />
		<tag k="place" v="locality" />
		<tag k="ssr:stedsnr" v="966649" />
	</node>
	<node id="-540757" lat="62.0258527794" lon="5.22547221649">
		<tag k="name" v="Sildefludene" />
		<tag k="natural" v="shoal" />
		<tag k="place" v="locality" />
		<tag k="ssr:stedsnr" v="966554" />
	</node>
	<node id="-540756" lat="62.0181916673" lon="4.86296666577">
		<tag k="name" v="Nyfluda" />
		<tag k="natural" v="shoal" />
		<tag k="place" v="locality" />
		<tag k="ssr:stedsnr" v="966552" />
	</node>
	<node id="-540755" lat="62.0060888915" lon="4.94722499064">
		<tag k="name" v="Stavsgrunna" />
		<tag k="natural" v="shoal" />
		<tag k="place" v="locality" />
		<tag k="ssr:stedsnr" v="966549" />
	</node>
	<node id="-540754" lat="62.022625004" lon="5.20220833026">
		<tag k="fixme" v="consider seamark:type=rock or natural=shoal" />
		<tag k="name" v="Sildeholmen" />
		<tag k="place" v="islet" />
		<tag k="ssr:stedsnr" v="966542" />
	</node>
	<node id="-540753" lat="61.9784777774" lon="5.03008610605">
		<tag k="name" v="Skipefluda" />
		<tag k="natural" v="shoal" />
		<tag k="place" v="locality" />
		<tag k="ssr:stedsnr" v="966517" />
	</node>
	<node id="-540752" lat="61.9226055529" lon="5.36749443807">
		<tag k="name" v="Raftevikane" />
		<tag k="natural" v="bay" />
		<tag k="ssr:stedsnr" v="963850" />
	</node>
	<node id="-540751" lat="61.9029277742" lon="5.15760556501">
		<tag k="name" v="Stomnen" />
		<tag k="natural" v="cape" />
		<tag k="ssr:stedsnr" v="963666" />
	</node>
	<node id="-540745" lat="61.9715805564" lon="5.06268333695">
		<tag k="fixme" v="consider seamark:type=rock or natural=shoal" />
		<tag k="name" v="Skjeret" />
		<tag k="place" v="islet" />
		<tag k="ssr:stedsnr" v="944440" />
	</node>
	<node id="-540743" lat="61.9979027745" lon="4.99507222678">
		<tag k="name" v="Skipegytten" />
		<tag k="natural" v="bay" />
		<tag k="ssr:stedsnr" v="944420" />
	</node>
	<node id="-540737" lat="61.8911138891" lon="5.13716944803">
		<tag k="name" v="Rognholmen" />
		<tag k="place" v="islet" />
		<tag k="ssr:stedsnr" v="944313" />
	</node>
	<node id="-540736" lat="61.8823138882" lon="5.15503333256">
		<tag k="name" v="Rumpene" />
		<tag k="natural" v="cape" />
		<tag k="ssr:stedsnr" v="944276" />
	</node>
	<node id="-540735" lat="61.8825555538" lon="5.16905555145">
		<tag k="name" v="Djupsundet" />
		<tag k="natural" v="strait" />
		<tag k="ssr:stedsnr" v="944275" />
	</node>
	<node id="-540734" lat="61.8917249997" lon="5.16320278036">
		<tag k="bay" v="fjord" />
		<tag k="name" v="Gangsøyfjorden" />
		<tag k="natural" v="bay" />
		<tag k="ssr:stedsnr" v="944272" />
	</node>
	<node id="-540716" lat="61.9455694412" lon="5.21198333417">
		<tag k="name" v="Såta" />
		<tag k="natural" v="cape" />
		<tag k="ssr:stedsnr" v="943584" />
	</node>
	<node id="-540714" lat="62.0162527794" lon="5.10156666658">
		<tag k="name" v="Bautavika" />
		<tag k="natural" v="bay" />
		<tag k="ssr:stedsnr" v="943528" />
	</node>
	<node id="-540713" lat="61.913475002" lon="5.06903055403">
		<tag k="alt_name" v="Slåkevågen" />
		<tag k="name" v="Sloka" />
		<tag k="natural" v="bay" />
		<tag k="ssr:stedsnr" v="943472" />
	</node>
	<node id="-540709" lat="62.0032999964" lon="4.98624722904">
		<tag k="fixme" v="consider seamark:type=rock or natural=shoal" />
		<tag k="name" v="Solskjeret" />
		<tag k="place" v="islet" />
		<tag k="ssr:stedsnr" v="943445" />
	</node>
	<node id="-540708" lat="61.9244861124" lon="5.0292555479">
		<tag k="name" v="Bloskiten" />
		<tag k="natural" v="cape" />
		<tag k="ssr:stedsnr" v="943431" />
	</node>
	<node id="-540704" lat="61.8946027805" lon="5.11678054611">
		<tag k="name" v="Store Grindøystraumen" />
		<tag k="natural" v="strait" />
		<tag k="ssr:stedsnr" v="943849" />
	</node>
	<node id="-540698" lat="62.0426361147" lon="5.07776389435">
		<tag k="alt_name" v="Melsfluene" />
		<tag k="name" v="Melsfludene" />
		<tag k="natural" v="shoal" />
		<tag k="place" v="locality" />
		<tag k="ssr:stedsnr" v="921697" />
	</node>
	<node id="-540696" lat="62.0085444488" lon="4.89269721822">
		<tag k="name" v="Alsbåen" />
		<tag k="natural" v="shoal" />
		<tag k="place" v="locality" />
		<tag k="ssr:stedsnr" v="921694" />
	</node>
	<node id="-540694" lat="62.012744443" lon="5.18909721993">
		<tag k="name" v="Silda" />
		<tag k="place" v="island" />
		<tag k="ssr:stedsnr" v="921656" />
	</node>
	<node id="-540690" lat="61.9115055533" lon="5.01371666596">
		<tag k="name" v="Austre Fereldneset" />
		<tag k="natural" v="cape" />
		<tag k="ssr:stedsnr" v="920985" />
	</node>
	<node id="-540688" lat="61.9084138932" lon="5.02374444018">
		<tag k="name" v="Storevika" />
		<tag k="natural" v="bay" />
		<tag k="ssr:stedsnr" v="920979" />
	</node>
	<node id="-540683" lat="61.9523277814" lon="5.20078333798">
		<tag k="alt_name" v="Storpollen" />
		<tag k="name" v="Sørpollen" />
		<tag k="natural" v="bay" />
		<tag k="ssr:stedsnr" v="920787" />
	</node>
	<node id="-540680" lat="61.972613885" lon="5.14323055508">
		<tag k="name" v="Kapellneset" />
		<tag k="natural" v="cape" />
		<tag k="ssr:stedsnr" v="920752" />
	</node>
	<node id="-540677" lat="61.9343777761" lon="5.42514166364">
		<tag k="name" v="Flotøya" />
		<tag k="place" v="islet" />
		<tag k="ssr:stedsnr" v="920226" />
	</node>
	<node id="-540676" lat="61.9092138891" lon="5.10663054954">
		<tag k="name" v="Gåsholmen" />
		<tag k="place" v="islet" />
		<tag k="ssr:stedsnr" v="920223" />
	</node>
	<node id="-540673" lat="62.0260805589" lon="5.14505000536">
		<tag k="name" v="Kveldstøytgrunna" />
		<tag k="natural" v="shoal" />
		<tag k="place" v="locality" />
		<tag k="ssr:stedsnr" v="906648" />
	</node>
</osm>
