<?xml version="1.0" encoding="UTF-8"?>
<osm generator="osmapis" version="0.6">
	<node id="-539773" lat="61.9474916645" lon="5.35869444866">
		<tag k="highway" v="path" />
		<tag k="name" v="Høyvegane" />
		<tag k="ssr:stedsnr" v="93420" />
	</node>
	<node id="-540668" lat="61.9649833338" lon="5.1628138878">
		<tag k="highway" v="path" />
		<tag k="name" v="Hagevikstigen" />
		<tag k="ssr:stedsnr" v="902757" />
	</node>
	<node id="-539640" lat="61.9282777745" lon="5.33330833488">
		<tag k="highway" v="path" />
		<tag k="name" v="Kløvstien" />
		<tag k="ssr:stedsnr" v="882908" />
	</node>
	<node id="-540532" lat="61.9663611123" lon="5.50784723069">
		<tag k="bridge" v="yes" />
		<tag k="layer" v="1" />
		<tag k="name" v="Movass" />
		<tag k="ssr:stedsnr" v="775653" />
	</node>
	<node id="-540531" lat="61.9657083326" lon="5.13777500861">
		<tag k="bridge" v="yes" />
		<tag k="layer" v="1" />
		<tag k="name" v="Barstadvika" />
		<tag k="ssr:stedsnr" v="775649" />
	</node>
	<node id="-539889" lat="61.9381833359" lon="5.11879999909">
		<tag k="bridge" v="yes" />
		<tag k="layer" v="1" />
		<tag k="name" v="Rugsundbrua" />
		<tag k="ssr:stedsnr" v="168666" />
	</node>
	<node id="-539888" lat="61.9295861129" lon="5.07582778015">
		<tag k="bridge" v="yes" />
		<tag k="layer" v="1" />
		<tag k="name" v="Holevik" />
		<tag k="ssr:stedsnr" v="168659" />
	</node>
	<node id="-540269" lat="61.9134638903" lon="5.29529999566">
		<tag k="bridge" v="yes" />
		<tag k="layer" v="1" />
		<tag k="name" v="Raudegga" />
		<tag k="ssr:stedsnr" v="593612" />
	</node>
	<node id="-540396" lat="61.9138194469" lon="5.30710555191">
		<tag k="highway" v="path" />
		<tag k="name" v="Hjellestien" />
		<tag k="ssr:stedsnr" v="700507" />
	</node>
	<node id="-540267" lat="61.9228361149" lon="5.2193583368">
		<tag k="layer" v="-1" />
		<tag k="name" v="Almenning" />
		<tag k="ssr:stedsnr" v="590077" />
		<tag k="tunnel" v="yes" />
	</node>
	<node id="-540130" lat="61.9712138912" lon="5.50865832556">
		<tag k="highway" v="path" />
		<tag k="name" v="Fiskeveien" />
		<tag k="ssr:stedsnr" v="518435" />
	</node>
	<node id="-540123" lat="61.9121972258" lon="5.31624722832">
		<tag k="layer" v="-1" />
		<tag k="name" v="Brunnsviktunnelen" />
		<tag k="ssr:stedsnr" v="506492" />
		<tag k="tunnel" v="yes" />
	</node>
	<node id="-540122" lat="61.9229027735" lon="5.21899166488">
		<tag k="layer" v="-1" />
		<tag k="name" v="Allmenningstunnelen" />
		<tag k="ssr:stedsnr" v="506491" />
		<tag k="tunnel" v="yes" />
	</node>
	<node id="-539763" lat="61.9164638904" lon="5.34221944136">
		<tag k="layer" v="-1" />
		<tag k="name" v="Krokabergtunnelen" />
		<tag k="ssr:stedsnr" v="82470" />
		<tag k="tunnel" v="yes" />
	</node>
	<node id="-539735" lat="61.9715138848" lon="5.15776944476">
		<tag k="bridge" v="yes" />
		<tag k="layer" v="1" />
		<tag k="name" v="Tvinneset" />
		<tag k="ssr:stedsnr" v="47672" />
	</node>
	<node id="-539734" lat="61.940580556" lon="5.4569861088">
		<tag k="bridge" v="yes" />
		<tag k="layer" v="1" />
		<tag k="name" v="Maurstad" />
		<tag k="ssr:stedsnr" v="47667" />
	</node>
	<node id="-540750" lat="61.9182277752" lon="5.16230833406">
		<tag k="bridge" v="yes" />
		<tag k="layer" v="1" />
		<tag k="name" v="Tennebø" />
		<tag k="ssr:stedsnr" v="957671" />
	</node>
	<node id="-539594" lat="61.9423222181" lon="5.38643055869">
		<tag k="highway" v="path" />
		<tag k="name" v="Geitstien" />
		<tag k="ssr:stedsnr" v="397912" />
	</node>
	<node id="-540356" lat="61.9633666707" lon="5.06665276905">
		<tag k="bridge" v="yes" />
		<tag k="layer" v="1" />
		<tag k="name" v="Steinhelle" />
		<tag k="ssr:stedsnr" v="654660" />
	</node>
	<node id="-539970" lat="61.9204305532" lon="5.22543333739">
		<tag k="bridge" v="yes" />
		<tag k="layer" v="1" />
		<tag k="name" v="Myklevatn" />
		<tag k="ssr:stedsnr" v="229674" />
	</node>
	<node id="-539969" lat="61.9205444416" lon="5.19838333437">
		<tag k="bridge" v="yes" />
		<tag k="layer" v="1" />
		<tag k="name" v="Leite" />
		<tag k="ssr:stedsnr" v="229670" />
	</node>
	<node id="-539508" lat="61.9345388846" lon="5.22933333913">
		<tag k="bridge" v="yes" />
		<tag k="layer" v="1" />
		<tag k="name" v="Sørpoll" />
		<tag k="ssr:stedsnr" v="350649" />
	</node>
	<node id="-540083" lat="61.9164222221" lon="5.34222499795">
		<tag k="layer" v="-1" />
		<tag k="name" v="Krokaberget" />
		<tag k="ssr:stedsnr" v="469282" />
		<tag k="tunnel" v="yes" />
	</node>
	<node id="-539507" lat="61.9381280384" lon="5.11897678235">
		<tag k="amenity" v="ferry_terminal" />
		<tag k="name" v="Måløy ferjekai" />
		<tag k="ssr:stedsnr" v="350645" />
	</node>
	<node id="-540700" lat="61.9594333319" lon="5.14126944995">
		<tag k="layer" v="-1" />
		<tag k="name" v="Skoratunnelen" />
		<tag k="ssr:stedsnr" v="931513" />
		<tag k="tunnel" v="yes" />
	</node>
	<node id="-540188" lat="61.9666583318" lon="5.13779167122">
		<tag k="bridge" v="yes" />
		<tag k="layer" v="1" />
		<tag k="name" v="Kiåna" />
		<tag k="ssr:stedsnr" v="533676" />
	</node>
	<node id="-539662" lat="61.9735500016" lon="5.51418610527">
		<tag k="bridge" v="yes" />
		<tag k="layer" v="1" />
		<tag k="name" v="Trovass" />
		<tag k="ssr:stedsnr" v="897645" />
	</node>
	<node id="-539661" lat="61.9204444458" lon="5.22539166028">
		<tag k="bridge" v="yes" />
		<tag k="layer" v="1" />
		<tag k="name" v="Myklevatn" />
		<tag k="ssr:stedsnr" v="897638" />
	</node>
	<node id="-539660" lat="61.9205638904" lon="5.19841388081">
		<tag k="bridge" v="yes" />
		<tag k="layer" v="1" />
		<tag k="name" v="Leite" />
		<tag k="ssr:stedsnr" v="897632" />
	</node>
	<node id="-540268" lat="61.9541472255" lon="5.48558611088">
		<tag k="bridge" v="yes" />
		<tag k="layer" v="1" />
		<tag k="name" v="Navosen" />
		<tag k="ssr:stedsnr" v="593610" />
	</node>
</osm>
