<?xml version="1.0" encoding="UTF-8"?>
<osm generator="osmapis" version="0.6">
	<node id="-540414" lat="62.0033111133" lon="5.10233611989">
		<tag k="name" v="Breiemyra" />
		<tag k="natural" v="wetland" />
		<tag k="ssr:stedsnr" v="700658" />
	</node>
	<node id="-539767" lat="61.9448916705" lon="5.14650832391">
		<tag k="name" v="Garlosteinen" />
		<tag k="natural" v="stone" />
		<tag k="ssr:stedsnr" v="93220" />
	</node>
	<node id="-540022" lat="61.9473903933" lon="5.11555390131">
		<tag k="loc_name" v="Gottebergsrøysa" />
		<tag k="name" v="Gottrøysa" />
		<tag k="natural" v="scree" />
		<tag k="ssr:stedsnr" v="435793" />
	</node>
	<node id="-540145" lat="62.0020916632" lon="5.08526666947">
		<tag k="name" v="Refviksanden" />
		<tag k="natural" v="beach" />
		<tag k="ssr:stedsnr" v="518640" />
		<tag k="surface" v="sand" />
	</node>
	<node id="-540527" lat="61.9577694402" lon="5.39901111879">
		<tag k="name" v="Storemyra" />
		<tag k="natural" v="wetland" />
		<tag k="ssr:stedsnr" v="761919" />
	</node>
	<node id="-539371" lat="61.9473472187" lon="5.1488972234">
		<tag k="name" v="Nakkura" />
		<tag k="natural" v="scree" />
		<tag k="ssr:stedsnr" v="275239" />
	</node>
	<node id="-539878" lat="61.982194441" lon="5.38158889798">
		<tag k="name" v="Futimyra" />
		<tag k="natural" v="wetland" />
		<tag k="ssr:stedsnr" v="154998" />
	</node>
	<node id="-540644" lat="61.9865527756" lon="5.3820972268">
		<tag k="name" v="Futemyra" />
		<tag k="natural" v="wetland" />
		<tag k="ssr:stedsnr" v="859724" />
	</node>
	<node id="-540131" lat="61.9085166626" lon="5.03721665941">
		<tag k="name" v="Myrane" />
		<tag k="natural" v="wetland" />
		<tag k="ssr:stedsnr" v="518457" />
	</node>
	<node id="-539963" lat="61.9381666703" lon="5.34497222232">
		<tag k="name" v="Fossemyra" />
		<tag k="natural" v="wetland" />
		<tag k="ssr:stedsnr" v="215958" />
	</node>
	<node id="-540127" lat="61.9462305587" lon="5.0561444423">
		<tag k="name" v="Vassmyra" />
		<tag k="natural" v="wetland" />
		<tag k="ssr:stedsnr" v="518409" />
	</node>
	<node id="-540503" lat="61.9181305597" lon="5.29311111624">
		<tag k="name" v="Hjellemyrane" />
		<tag k="natural" v="wetland" />
		<tag k="ssr:stedsnr" v="761526" />
	</node>
	<node id="-540502" lat="61.9669499968" lon="5.52236388503">
		<tag k="name" v="Høgelidmyrane" />
		<tag k="natural" v="wetland" />
		<tag k="ssr:stedsnr" v="761502" />
	</node>
	<node id="-539730" lat="61.9322027817" lon="5.3498138951">
		<tag k="name" v="Holtevadet" />
		<tag k="natural" v="wetland" />
		<tag k="ssr:stedsnr" v="33952" />
	</node>
	<node id="-539728" lat="61.931958331" lon="5.35941111125">
		<tag k="name" v="Hestemyra" />
		<tag k="natural" v="wetland" />
		<tag k="ssr:stedsnr" v="33945" />
	</node>
	<node id="-540748" lat="61.9218083313" lon="5.35227221735">
		<tag k="name" v="Raftevikmyrane" />
		<tag k="natural" v="wetland" />
		<tag k="ssr:stedsnr" v="944931" />
	</node>
	<node id="-539722" lat="61.9497361149" lon="5.4746583367">
		<tag k="name" v="Karimyra" />
		<tag k="natural" v="wetland" />
		<tag k="ssr:stedsnr" v="33800" />
	</node>
	<node id="-540233" lat="61.9349611146" lon="5.14859721989">
		<tag k="name" v="Fjellsendemyra" />
		<tag k="natural" v="wetland" />
		<tag k="ssr:stedsnr" v="578657" />
	</node>
	<node id="-539720" lat="61.9630583338" lon="5.39729167446">
		<tag k="name" v="Sagemyra" />
		<tag k="natural" v="wetland" />
		<tag k="ssr:stedsnr" v="33777" />
	</node>
	<node id="-540231" lat="61.9429500037" lon="5.16317500458">
		<tag k="name" v="Pallasteinane" />
		<tag k="natural" v="stone" />
		<tag k="ssr:stedsnr" v="578637" />
	</node>
	<node id="-540613" lat="61.9388972219" lon="5.35539166142">
		<tag k="name" v="Kjennmyra" />
		<tag k="natural" v="wetland" />
		<tag k="ssr:stedsnr" v="822958" />
	</node>
	<node id="-539587" lat="61.9484722262" lon="5.49829999263">
		<tag k="name" v="Løkane" />
		<tag k="natural" v="wetland" />
		<tag k="ssr:stedsnr" v="397812" />
	</node>
	<node id="-539712" lat="61.9368944464" lon="5.08546944771">
		<tag k="name" v="Synesteinen" />
		<tag k="natural" v="stone" />
		<tag k="ssr:stedsnr" v="33693" />
	</node>
	<node id="-539583" lat="61.9543749989" lon="5.47884444663">
		<tag k="name" v="Grønemyrane" />
		<tag k="natural" v="wetland" />
		<tag k="ssr:stedsnr" v="397790" />
	</node>
	<node id="-540604" lat="61.9690888866" lon="5.38185832419">
		<tag k="name" v="Høgeloftsteinane" />
		<tag k="natural" v="stone" />
		<tag k="ssr:stedsnr" v="822773" />
	</node>
	<node id="-540219" lat="61.9175111127" lon="5.29083611185">
		<tag k="name" v="Raudeggemyrane" />
		<tag k="natural" v="wetland" />
		<tag k="ssr:stedsnr" v="578427" />
	</node>
	<node id="-540727" lat="61.9774055549" lon="5.4815083396">
		<tag k="name" v="Mevasslokane" />
		<tag k="natural" v="wetland" />
		<tag k="ssr:stedsnr" v="943795" />
	</node>
	<node id="-540341" lat="61.9342083329" lon="5.37974167374">
		<tag k="name" v="Almemyra" />
		<tag k="natural" v="wetland" />
		<tag k="ssr:stedsnr" v="639967" />
	</node>
	<node id="-540596" lat="61.9278472198" lon="5.28658889832">
		<tag k="name" v="Løkane" />
		<tag k="natural" v="wetland" />
		<tag k="ssr:stedsnr" v="822647" />
	</node>
	<node id="-540595" lat="61.9467083359" lon="5.20972221616">
		<tag k="name" v="Synnevesteinen" />
		<tag k="natural" v="stone" />
		<tag k="ssr:stedsnr" v="822620" />
	</node>
	<node id="-539954" lat="61.942644445" lon="5.44550833153">
		<tag k="name" v="Hestemyra" />
		<tag k="place" v="locality" />
		<tag k="ssr:stedsnr" v="215807" />
	</node>
	<node id="-540723" lat="61.9890166666" lon="5.13299721402">
		<tag k="name" v="Raudura" />
		<tag k="natural" v="scree" />
		<tag k="ssr:stedsnr" v="943681" />
	</node>
	<node id="-540731" lat="61.9387361149" lon="5.40700555926">
		<tag k="name" v="Litlenakkmyra" />
		<tag k="natural" v="wetland" />
		<tag k="ssr:stedsnr" v="943960" />
	</node>
	<node id="-539948" lat="61.9442111127" lon="5.15869167333">
		<tag k="name" v="Torvhussteinane" />
		<tag k="natural" v="stone" />
		<tag k="ssr:stedsnr" v="215695" />
	</node>
	<node id="-540072" lat="61.9190666664" lon="5.35620833578">
		<tag k="name" v="Dynemyra" />
		<tag k="natural" v="wetland" />
		<tag k="ssr:stedsnr" v="458661" />
	</node>
	<node id="-539815" lat="61.9432861093" lon="5.39523055725">
		<tag k="name" v="Vassvika" />
		<tag k="natural" v="wetland" />
		<tag k="ssr:stedsnr" v="94923" />
	</node>
	<node id="-539633" lat="61.9453527814" lon="5.478286114">
		<tag k="name" v="Persmyra" />
		<tag k="natural" v="wetland" />
		<tag k="ssr:stedsnr" v="882716" />
	</node>
	<node id="-540570" lat="61.9595201089" lon="5.09402184094">
		<tag k="name" v="Breimyra" />
		<tag k="natural" v="wetland" />
		<tag k="ssr:stedsnr" v="809201" />
	</node>
	<node id="-540056" lat="61.9369555545" lon="5.36701665784">
		<tag k="name" v="Lauparmyra" />
		<tag k="natural" v="wetland" />
		<tag k="ssr:stedsnr" v="457961" />
	</node>
	<node id="-540183" lat="61.9901083346" lon="5.02178889637">
		<tag k="name" v="Sletteskormyra" />
		<tag k="natural" v="wetland" />
		<tag k="ssr:stedsnr" v="519403" />
	</node>
	<node id="-539620" lat="61.9264138903" lon="5.10107222988">
		<tag k="name" v="Tytesteinen" />
		<tag k="natural" v="stone" />
		<tag k="ssr:stedsnr" v="882563" />
	</node>
	<node id="-540047" lat="61.9464138883" lon="5.15007499591">
		<tag k="name" v="Nakken" />
		<tag k="natural" v="wetland" />
		<tag k="ssr:stedsnr" v="457239" />
	</node>
	<node id="-539406" lat="62.0076722206" lon="5.00508332631">
		<tag k="name" v="Myrane" />
		<tag k="natural" v="wetland" />
		<tag k="ssr:stedsnr" v="276426" />
	</node>
	<node id="-539650" lat="61.9699250035" lon="5.06809999372">
		<tag k="name" v="Kannesteinen" />
		<tag k="natural" v="stone" />
		<tag k="ssr:stedsnr" v="883439" />
	</node>
	<node id="-539782" lat="61.9229361121" lon="5.29717777845">
		<tag k="name" v="Kallen" />
		<tag k="natural" v="stone" />
		<tag k="ssr:stedsnr" v="93554" />
	</node>
	<node id="-540421" lat="62.027572226" lon="5.12725278432">
		<tag k="name" v="Revesteinen" />
		<tag k="natural" v="stone" />
		<tag k="ssr:stedsnr" v="700719" />
	</node>
	<node id="-539478" lat="61.9659055539" lon="5.09801388625">
		<tag k="name" v="Hestesteinen" />
		<tag k="natural" v="stone" />
		<tag k="ssr:stedsnr" v="336718" />
	</node>
	<node id="-540162" lat="61.9708722207" lon="5.49010278163">
		<tag k="name" v="Hornmyrane" />
		<tag k="natural" v="wetland" />
		<tag k="ssr:stedsnr" v="518824" />
	</node>
</osm>
