<?xml version="1.0" encoding="UTF-8"?>
<osm generator="osmapis" version="0.6">
	<node id="-541182" lat="62.0148833359" lon="5.12464165788">
		<tag k="name" v="Storelva" />
		<tag k="ssr:stedsnr" v="678642" />
		<tag k="waterway" v="stream" />
	</node>
	<node id="-540155" lat="62.0274599451" lon="5.00377266216">
		<tag k="name" v="Kråkenesvatnet" />
		<tag k="natural" v="water" />
		<tag k="ssr:stedsnr" v="275006" />
		<tag k="water" v="lake" />
	</node>
	<node id="-540665" lat="61.924011683" lon="5.19454483247">
		<tag k="name" v="Storevatnet" />
		<tag k="natural" v="water" />
		<tag k="ssr:stedsnr" v="154737" />
		<tag k="water" v="lake" />
	</node>
	<node id="-540664" lat="61.9873055556" lon="5.1014777773">
		<tag k="name" v="Kvernhuselva" />
		<tag k="ssr:stedsnr" v="154729" />
		<tag k="waterway" v="river" />
	</node>
	<node id="-540662" lat="61.9451138931" lon="5.18021666008">
		<tag k="name" v="Demma" />
		<tag k="natural" v="water" />
		<tag k="ssr:stedsnr" v="154717" />
		<tag k="water" v="lake" />
	</node>
	<node id="-541171" lat="61.9633423586" lon="5.12376871961">
		<tag k="name" v="Svartebotnvatnet" />
		<tag k="natural" v="water" />
		<tag k="ssr:stedsnr" v="677777" />
	</node>
	<node id="-541168" lat="61.9195333377" lon="5.278450005">
		<tag k="name" v="Ytste Raudeggvatnet" />
		<tag k="natural" v="water" />
		<tag k="ssr:stedsnr" v="677213" />
		<tag k="water" v="lake" />
	</node>
	<node id="-540646" lat="61.9359166659" lon="5.10451665776">
		<tag k="name" v="Skramselva" />
		<tag k="ssr:stedsnr" v="154708" />
		<tag k="waterway" v="stream" />
	</node>
	<node id="-540753" lat="61.961572226" lon="5.5005027846">
		<tag k="name" v="Rakeneset" />
		<tag k="natural" v="cape" />
		<tag k="ssr:stedsnr" v="215833" />
	</node>
	<node id="-541179" lat="61.9862388867" lon="5.08811944674">
		<tag k="name" v="Ongelsvatnet" />
		<tag k="natural" v="water" />
		<tag k="ssr:stedsnr" v="677960" />
	</node>
	<node id="-541150" lat="61.9227444443" lon="5.35781388305">
		<tag k="name" v="Løypet" />
		<tag k="ssr:stedsnr" v="640952" />
		<tag k="waterway" v="stream" />
	</node>
	<node id="-540629" lat="61.9574249991" lon="5.44269444217">
		<tag k="name" v="Nysætrevatnet" />
		<tag k="natural" v="water" />
		<tag k="ssr:stedsnr" v="131844" />
	</node>
	<node id="-541133" lat="61.9672111114" lon="5.10183889235">
		<tag k="name" v="Nordre Oppedalsvatn" />
		<tag k="natural" v="water" />
		<tag k="ssr:stedsnr" v="639886" />
		<tag k="water" v="lake" />
	</node>
	<node id="-541128" lat="61.9525972259" lon="5.45027778012">
		<tag k="name" v="Noraelva" />
		<tag k="ssr:stedsnr" v="639776" />
		<tag k="waterway" v="river" />
	</node>
	<node id="-541123" lat="61.9981999972" lon="5.07059999879">
		<tag k="name" v="Steinelva" />
		<tag k="ssr:stedsnr" v="639721" />
		<tag k="waterway" v="river" />
	</node>
	<node id="-540609" lat="61.9828111089" lon="5.06089166353">
		<tag k="name" v="Kvernhuselva" />
		<tag k="ssr:stedsnr" v="94478" />
		<tag k="waterway" v="river" />
	</node>
	<node id="-541118" lat="61.9611279248" lon="5.18649754365">
		<tag k="name" v="Tjørnaskarvatnet" />
		<tag k="natural" v="water" />
		<tag k="ssr:stedsnr" v="639666" />
		<tag k="water" v="lake" />
	</node>
	<node id="-540605" lat="62.018283332" lon="5.04062222159">
		<tag k="name" v="Alskerelva" />
		<tag k="ssr:stedsnr" v="94399" />
		<tag k="waterway" v="river" />
	</node>
	<node id="-541114" lat="61.9196249991" lon="5.29054722573">
		<tag k="name" v="Osen" />
		<tag k="natural" v="bay" />
		<tag k="ssr:stedsnr" v="639630" />
	</node>
	<node id="-540593" lat="61.9326333336" lon="5.47460833351">
		<tag k="name" v="Åsnestjørna" />
		<tag k="natural" v="water" />
		<tag k="ssr:stedsnr" v="93754" />
	</node>
	<node id="-540590" lat="61.9501611146" lon="5.48704445318">
		<tag k="name" v="Tverrelva" />
		<tag k="ssr:stedsnr" v="93730" />
		<tag k="waterway" v="river" />
	</node>
	<node id="-541101" lat="61.9214745698" lon="5.21626836837">
		<tag k="name" v="Røykvatnet" />
		<tag k="natural" v="water" />
		<tag k="ssr:stedsnr" v="638545" />
		<tag k="water" v="lake" />
	</node>
	<node id="-541099" lat="61.9816055516" lon="5.49812222832">
		<tag k="name" v="Skitnevikelva" />
		<tag k="ssr:stedsnr" v="632314" />
		<tag k="waterway" v="stream" />
	</node>
	<node id="-540582" lat="61.9129638915" lon="5.32536388844">
		<tag k="name" v="Kroketjørna" />
		<tag k="natural" v="water" />
		<tag k="ssr:stedsnr" v="93531" />
	</node>
	<node id="-540580" lat="61.9238447224" lon="5.26578330523">
		<tag k="name" v="Storskarvatnet" />
		<tag k="natural" v="water" />
		<tag k="ssr:stedsnr" v="93508" />
		<tag k="water" v="lake" />
	</node>
	<node id="-540577" lat="61.9226987421" lon="5.24618349336">
		<tag k="name" v="Setrevatnet" />
		<tag k="natural" v="water" />
		<tag k="ssr:stedsnr" v="93501" />
		<tag k="water" v="lake" />
	</node>
	<node id="-541084" lat="61.9685888885" lon="5.3569222166">
		<tag k="name" v="Krokedalsvatnet" />
		<tag k="natural" v="water" />
		<tag k="ssr:stedsnr" v="616784" />
	</node>
	<node id="-540571" lat="61.9568861071" lon="5.37589721674">
		<tag k="name" v="Ospeneset" />
		<tag k="natural" v="cape" />
		<tag k="ssr:stedsnr" v="93431" />
	</node>
	<node id="-541077" lat="61.9240972237" lon="5.31011665978">
		<tag k="name" v="Inste Raudeggvatnet" />
		<tag k="natural" v="water" />
		<tag k="ssr:stedsnr" v="616207" />
	</node>
	<node id="-540562" lat="61.9500058621" lon="5.10245316555">
		<tag k="name" v="Vetevatnet" />
		<tag k="natural" v="water" />
		<tag k="ssr:stedsnr" v="93201" />
		<tag k="water" v="lake" />
	</node>
	<node id="-540561" lat="61.9800611111" lon="5.48361388547">
		<tag k="name" v="Nedre Mevatnet" />
		<tag k="natural" v="water" />
		<tag k="ssr:stedsnr" v="93154" />
		<tag k="water" v="lake" />
	</node>
	<node id="-540553" lat="61.963077781" lon="5.17485276938">
		<tag k="alt_name" v="Rindavatnet" />
		<tag k="name" v="Hagevikvatnet" />
		<tag k="natural" v="water" />
		<tag k="ssr:stedsnr" v="71794" />
	</node>
	<node id="-540547" lat="61.9378127603" lon="5.09971032838">
		<tag k="name" v="Skramsvatnet" />
		<tag k="natural" v="water" />
		<tag k="ssr:stedsnr" v="70792" />
	</node>
	<node id="-541057" lat="61.9456416646" lon="5.46805278659">
		<tag k="name" v="Maurstadelva" />
		<tag k="ssr:stedsnr" v="579795" />
		<tag k="waterway" v="river" />
	</node>
	<node id="-540541" lat="61.957461109" lon="5.48695000605">
		<tag k="name" v="Navevatnet" />
		<tag k="natural" v="water" />
		<tag k="ssr:stedsnr" v="70005" />
	</node>
	<node id="-540540" lat="61.9555999991" lon="5.50406945193">
		<tag k="name" v="Klenevatnet" />
		<tag k="natural" v="water" />
		<tag k="ssr:stedsnr" v="70003" />
	</node>
	<node id="-540820" lat="61.9565555557" lon="5.3704416623">
		<tag k="name" v="Rimstadvatnet" />
		<tag k="natural" v="water" />
		<tag k="ssr:stedsnr" v="435817" />
	</node>
	<node id="-541036" lat="61.9701725871" lon="5.11762213386">
		<tag k="name" v="Rystestølsvatnet" />
		<tag k="natural" v="water" />
		<tag k="ssr:stedsnr" v="578710" />
		<tag k="water" v="lake" />
	</node>
	<node id="-541539" lat="61.9850499962" lon="5.04765556269">
		<tag k="name" v="Hella" />
		<tag k="natural" v="cape" />
		<tag k="ssr:stedsnr" v="944438" />
	</node>
	<node id="-540514" lat="61.9726004631" lon="5.39301020964">
		<tag k="name" v="Juvvatnet" />
		<tag k="natural" v="water" />
		<tag k="ssr:stedsnr" v="33766" />
		<tag k="water" v="lake" />
	</node>
	<node id="-541025" lat="61.9199365361" lon="5.2233151664">
		<tag k="name" v="Myklevatnet" />
		<tag k="natural" v="water" />
		<tag k="ssr:stedsnr" v="578540" />
		<tag k="water" v="lake" />
	</node>
	<node id="-540509" lat="62.0024888903" lon="5.08880000217">
		<tag k="name" v="Sandelva" />
		<tag k="ssr:stedsnr" v="33714" />
		<tag k="waterway" v="river" />
	</node>
	<node id="-541018" lat="61.9460722195" lon="5.36290277479">
		<tag k="name" v="Løkaneset" />
		<tag k="natural" v="cape" />
		<tag k="ssr:stedsnr" v="578441" />
	</node>
	<node id="-541528" lat="61.9839166651" lon="5.38600554656">
		<tag k="name" v="Løypingselva" />
		<tag k="ssr:stedsnr" v="943979" />
		<tag k="waterway" v="river" />
	</node>
	<node id="-540473" lat="61.9552555559" lon="5.0779277785">
		<tag k="name" v="Ulkupevatnet" />
		<tag k="natural" v="water" />
		<tag k="old_name" v="Søre Oppedalsvatnet" />
		<tag k="ssr:stedsnr" v="10971" />
	</node>
	<node id="-540500" lat="61.9562833327" lon="5.37906666716">
		<tag k="name" v="Osen" />
		<tag k="natural" v="bay" />
		<tag k="ssr:stedsnr" v="33567" />
	</node>
	<node id="-541519" lat="61.9995427198" lon="5.10813862146">
		<tag k="name" v="Fossevatnet" />
		<tag k="natural" v="water" />
		<tag k="ssr:stedsnr" v="943690" />
		<tag k="water" v="lake" />
	</node>
	<node id="-540494" lat="61.9660138914" lon="5.5090583394">
		<tag k="name" v="Movasselva" />
		<tag k="ssr:stedsnr" v="33498" />
		<tag k="waterway" v="river" />
	</node>
	<node id="-541002" lat="61.96275278" lon="5.39049166209">
		<tag k="name" v="Sammeltunvatna" />
		<tag k="natural" v="water" />
		<tag k="ssr:stedsnr" v="555767" />
	</node>
	<node id="-540487" lat="62.020311115" lon="5.02303888844">
		<tag k="name" v="Setreelva" />
		<tag k="ssr:stedsnr" v="33354" />
		<tag k="waterway" v="river" />
	</node>
	<node id="-540998" lat="61.9281972206" lon="5.35189722915">
		<tag k="name" v="Totlandselva" />
		<tag k="ssr:stedsnr" v="555190" />
		<tag k="waterway" v="stream" />
	</node>
	<node id="-541506" lat="61.9741083331" lon="5.50879445243">
		<tag k="name" v="Tjørna" />
		<tag k="natural" v="water" />
		<tag k="ssr:stedsnr" v="943456" />
	</node>
	<node id="-541502" lat="61.9443111089" lon="5.10922778426">
		<tag k="name" v="Gottebergselva" />
		<tag k="ssr:stedsnr" v="943302" />
		<tag k="waterway" v="river" />
	</node>
	<node id="-540474" lat="61.9560222233" lon="5.08977778417">
		<tag k="name" v="Vetevatnet" />
		<tag k="natural" v="water" />
		<tag k="old_name" v="Grønholvatnet" />
		<tag k="ssr:stedsnr" v="10972" />
	</node>
	<node id="-541497" lat="61.967255555" lon="5.47591666963">
		<tag k="name" v="Kalneset" />
		<tag k="natural" v="cape" />
		<tag k="ssr:stedsnr" v="943806" />
	</node>
	<node id="-541488" lat="62.0132027755" lon="5.05059167107">
		<tag k="name" v="Rabbevatnet" />
		<tag k="natural" v="water" />
		<tag k="ssr:stedsnr" v="921654" />
	</node>
	<node id="-541487" lat="62.0086027816" lon="5.12697222284">
		<tag k="name" v="Hageskarvatnet" />
		<tag k="natural" v="water" />
		<tag k="ssr:stedsnr" v="921648" />
	</node>
	<node id="-540965" lat="61.9395108302" lon="5.42560265678">
		<tag k="name" v="Hessvikvatnet" />
		<tag k="natural" v="water" />
		<tag k="ssr:stedsnr" v="518988" />
		<tag k="water" v="lake" />
	</node>
	<node id="-541476" lat="61.9718111132" lon="5.42638888273">
		<tag k="name" v="Svartevatnet" />
		<tag k="natural" v="water" />
		<tag k="ssr:stedsnr" v="920784" />
	</node>
	<node id="-540953" lat="61.9543694487" lon="5.48549165695">
		<tag k="name" v="Naveosen" />
		<tag k="natural" v="bay" />
		<tag k="ssr:stedsnr" v="518781" />
	</node>
	<node id="-540440" lat="61.9445083343" lon="5.4467027719">
		<tag k="name" v="Norafossen" />
		<tag k="natural" v="waterfall" />
		<tag k="ssr:stedsnr" v="883821" />
	</node>
	<node id="-540949" lat="61.9657972263" lon="5.13301110829">
		<tag k="alt_name" v="Ulvefalla" />
		<tag k="name" v="Ulvefallet" />
		<tag k="ssr:stedsnr" v="518739" />
		<tag k="waterway" v="stream" />
	</node>
	<node id="-541453" lat="61.936454963" lon="5.06619497906">
		<tag k="name" v="Bergavatnet" />
		<tag k="natural" v="water" />
		<tag k="ssr:stedsnr" v="860974" />
	</node>
	<node id="-541451" lat="61.9780638891" lon="5.07967500109">
		<tag k="name" v="Sørdalsvatnet" />
		<tag k="natural" v="water" />
		<tag k="ssr:stedsnr" v="860964" />
	</node>
	<node id="-541450" lat="61.948797224" lon="5.03331388559">
		<tag k="name" v="Storevatnet" />
		<tag k="natural" v="water" />
		<tag k="ssr:stedsnr" v="860958" />
	</node>
	<node id="-541449" lat="61.9754000045" lon="5.39818334127">
		<tag k="name" v="Vaddalsvatnet" />
		<tag k="natural" v="water" />
		<tag k="ssr:stedsnr" v="860803" />
	</node>
	<node id="-541448" lat="61.980669448" lon="5.3798138827">
		<tag k="alt_name" v="Vaulevatnet" />
		<tag k="name" v="Vaulevatna" />
		<tag k="natural" v="water" />
		<tag k="ssr:stedsnr" v="860793" />
	</node>
	<node id="-540935" lat="61.9387646527" lon="5.20065665549">
		<tag k="name" v="Skolmavatnet" />
		<tag k="natural" v="water" />
		<tag k="ssr:stedsnr" v="518571" />
		<tag k="water" v="lake" />
	</node>
	<node id="-540934" lat="61.934197221" lon="5.2169138972">
		<tag k="name" v="Øybøen" />
		<tag k="natural" v="beach" />
		<tag k="ssr:stedsnr" v="518568" />
	</node>
	<node id="-541444" lat="61.9915083288" lon="5.00919721771">
		<tag k="name" v="Nedrevatnet" />
		<tag k="natural" v="water" />
		<tag k="ssr:stedsnr" v="859931" />
	</node>
	<node id="-540417" lat="61.9647722266" lon="5.38707777367">
		<tag k="name" v="Setrevatnet" />
		<tag k="natural" v="water" />
		<tag k="ssr:stedsnr" v="882679" />
		<tag k="water" v="lake" />
	</node>
	<node id="-541434" lat="61.9271583366" lon="5.27227777733">
		<tag k="name" v="Røyrlidvatnet" />
		<tag k="natural" v="water" />
		<tag k="ssr:stedsnr" v="859210" />
	</node>
	<node id="-540409" lat="62.0013194449" lon="5.08129445139">
		<tag k="name" v="Sjøbruelva" />
		<tag k="ssr:stedsnr" v="882586" />
		<tag k="waterway" v="river" />
	</node>
	<node id="-541428" lat="61.9630527819" lon="5.50111666216">
		<tag k="name" v="Haugvatnet" />
		<tag k="natural" v="water" />
		<tag k="ssr:stedsnr" v="859017" />
	</node>
	<node id="-540403" lat="61.9151750007" lon="5.27331111759">
		<tag k="name" v="Buateltjørna" />
		<tag k="natural" v="water" />
		<tag k="ssr:stedsnr" v="882486" />
	</node>
	<node id="-540908" lat="61.9054277814" lon="5.07465556167">
		<tag k="name" v="Vellavatnet" />
		<tag k="natural" v="water" />
		<tag k="ssr:stedsnr" v="495970" />
	</node>
	<node id="-540899" lat="61.9773972183" lon="5.42038610735">
		<tag k="name" v="Storevatnet" />
		<tag k="natural" v="water" />
		<tag k="ssr:stedsnr" v="495775" />
	</node>
	<node id="-541409" lat="61.9265166703" lon="5.32516666015">
		<tag k="name" v="Blankevatnet" />
		<tag k="natural" v="water" />
		<tag k="ssr:stedsnr" v="822965" />
		<tag k="water" v="lake" />
	</node>
	<node id="-540384" lat="61.9234067793" lon="5.3557127546">
		<tag k="name" v="Raftevikvatnet" />
		<tag k="natural" v="water" />
		<tag k="ssr:stedsnr" v="397953" />
		<tag k="water" v="lake" />
	</node>
	<node id="-541405" lat="61.9420666711" lon="5.3827527826">
		<tag k="name" v="Mevatnet" />
		<tag k="natural" v="water" />
		<tag k="ssr:stedsnr" v="822921" />
		<tag k="water" v="lake" />
	</node>
	<node id="-540891" lat="61.9686499962" lon="5.50485000544">
		<tag k="name" v="Trovatnet" />
		<tag k="natural" v="water" />
		<tag k="ssr:stedsnr" v="495037" />
	</node>
	<node id="-540890" lat="61.9664833302" lon="5.47890277111">
		<tag k="name" v="Vassdalsvatnet" />
		<tag k="natural" v="water" />
		<tag k="ssr:stedsnr" v="495034" />
		<tag k="water" v="lake" />
	</node>
	<node id="-541395" lat="61.9228825041" lon="5.18776355601">
		<tag k="name" v="Hornvatnet" />
		<tag k="natural" v="water" />
		<tag k="ssr:stedsnr" v="822699" />
		<tag k="water" v="lake" />
	</node>
	<node id="-541392" lat="61.9228780575" lon="5.13789490508">
		<tag k="name" v="Blålidvatnet" />
		<tag k="natural" v="water" />
		<tag k="ssr:stedsnr" v="822670" />
		<tag k="water" v="lake" />
	</node>
	<node id="-541383" lat="61.9463416673" lon="5.34080278585">
		<tag k="name" v="Storhølen" />
		<tag k="place" v="locality" />
		<tag k="ssr:stedsnr" v="822538" />
	</node>
	<node id="-540357" lat="61.9225944486" lon="5.3024388956">
		<tag k="name" v="Tjørna" />
		<tag k="natural" v="water" />
		<tag k="ssr:stedsnr" v="397637" />
	</node>
	<node id="-540356" lat="61.922294442" lon="5.28234721653">
		<tag k="name" v="Sandvika" />
		<tag k="natural" v="bay" />
		<tag k="ssr:stedsnr" v="397633" />
	</node>
	<node id="-541378" lat="61.9844305536" lon="5.05042222595">
		<tag k="name" v="Støakollen" />
		<tag k="natural" v="cape" />
		<tag k="ssr:stedsnr" v="822446" />
	</node>
	<node id="-541371" lat="61.9600972224" lon="5.13835000816">
		<tag k="name" v="Kiåda" />
		<tag k="ssr:stedsnr" v="822323" />
		<tag k="waterway" v="river" />
	</node>
	<node id="-541370" lat="61.9423055543" lon="5.15396388233">
		<tag k="name" v="Trollebøelva" />
		<tag k="ssr:stedsnr" v="822316" />
		<tag k="waterway" v="stream" />
	</node>
	<node id="-541368" lat="61.9803555539" lon="5.48454445039">
		<tag k="name" v="Mevatna" />
		<tag k="natural" v="water" />
		<tag k="ssr:stedsnr" v="816309" />
	</node>
	<node id="-541367" lat="61.9815999994" lon="5.45200278704">
		<tag k="name" v="Løkane" />
		<tag k="natural" v="bay" />
		<tag k="ssr:stedsnr" v="815278" />
	</node>
	<node id="-541363" lat="62.0068472183" lon="5.10616110421">
		<tag k="name" v="Fosselva" />
		<tag k="ssr:stedsnr" v="800635" />
		<tag k="waterway" v="stream" />
	</node>
	<node id="-540338" lat="62.0002666658" lon="5.00594166434">
		<tag k="name" v="Dalselva" />
		<tag k="ssr:stedsnr" v="396408" />
		<tag k="waterway" v="river" />
	</node>
	<node id="-540847" lat="61.9537638866" lon="5.37463055212">
		<tag k="name" v="Lunnane" />
		<tag k="natural" v="bay" />
		<tag k="ssr:stedsnr" v="457474" />
	</node>
	<node id="-541357" lat="61.9498694488" lon="5.06911389214">
		<tag k="name" v="Hornvatnet" />
		<tag k="natural" v="water" />
		<tag k="ssr:stedsnr" v="799946" />
	</node>
	<node id="-540840" lat="61.9285583325" lon="5.32579999118">
		<tag k="name" v="Sætrevatnet" />
		<tag k="natural" v="water" />
		<tag k="ssr:stedsnr" v="445190" />
		<tag k="water" v="lake" />
	</node>
	<node id="-541351" lat="61.9463805533" lon="5.18299444991">
		<tag k="name" v="Trollebøvatnet" />
		<tag k="natural" v="water" />
		<tag k="ssr:stedsnr" v="799809" />
	</node>
	<node id="-541348" lat="61.9465583368" lon="5.49673055334">
		<tag k="name" v="Sollidvatnet" />
		<tag k="natural" v="water" />
		<tag k="ssr:stedsnr" v="799483" />
	</node>
	<node id="-541347" lat="61.9258499966" lon="5.17516388322">
		<tag k="name" v="Nygårdsvatnet" />
		<tag k="natural" v="water" />
		<tag k="ssr:stedsnr" v="799252" />
	</node>
	<node id="-540834" lat="62.0098138919" lon="5.02523333105">
		<tag k="name" v="Movatna" />
		<tag k="natural" v="water" />
		<tag k="ssr:stedsnr" v="436609" />
	</node>
	<node id="-540833" lat="62.0140500031" lon="5.04367500817">
		<tag k="name" v="Kaldeklovelva" />
		<tag k="ssr:stedsnr" v="436610" />
		<tag k="waterway" v="stream" />
	</node>
	<node id="-540320" lat="61.9760777801" lon="5.38532500271">
		<tag k="name" v="Fiskevatnet" />
		<tag k="natural" v="water" />
		<tag k="ssr:stedsnr" v="374789" />
	</node>
	<node id="-540318" lat="61.986988888" lon="5.3953222244">
		<tag k="name" v="Kredevatnet" />
		<tag k="natural" v="water" />
		<tag k="ssr:stedsnr" v="374766" />
	</node>
	<node id="-540821" lat="61.9554472192" lon="5.42603332622">
		<tag k="name" v="Blankevatnet" />
		<tag k="natural" v="water" />
		<tag k="ssr:stedsnr" v="435820" />
	</node>
	<node id="-540308" lat="61.9341833357" lon="5.31357221683">
		<tag k="name" v="Kattavatnet" />
		<tag k="natural" v="water" />
		<tag k="ssr:stedsnr" v="373240" />
	</node>
	<node id="-540292" lat="61.9487944444" lon="5.40026111896">
		<tag k="name" v="Rimstadelva" />
		<tag k="ssr:stedsnr" v="337924" />
		<tag k="waterway" v="river" />
	</node>
	<node id="-541315" lat="61.9493055583" lon="5.49064166291">
		<tag k="name" v="Fossen" />
		<tag k="natural" v="waterfall" />
		<tag k="ssr:stedsnr" v="761827" />
	</node>
	<node id="-540290" lat="61.9524527803" lon="5.38624444308">
		<tag k="name" v="Megardselva" />
		<tag k="ssr:stedsnr" v="337898" />
		<tag k="waterway" v="river" />
	</node>
	<node id="-540281" lat="62.0070749991" lon="5.04093610644">
		<tag k="name" v="Heiavatnet" />
		<tag k="natural" v="water" />
		<tag k="ssr:stedsnr" v="337336" />
		<tag k="water" v="pond" />
	</node>
	<node id="-540279" lat="61.9042534539" lon="5.18224776641">
		<tag k="name" v="Angelshaugvatnet" />
		<tag k="natural" v="water" />
		<tag k="ssr:stedsnr" v="337280" />
		<tag k="water" v="lake" />
	</node>
	<node id="-540786" lat="61.9502750023" lon="5.50845833826">
		<tag k="name" v="Lefdalsvatnet" />
		<tag k="natural" v="water" />
		<tag k="ssr:stedsnr" v="253517" />
	</node>
	<node id="-540784" lat="61.9882333337" lon="5.10517777601">
		<tag k="name" v="Refvikvatnet" />
		<tag k="natural" v="water" />
		<tag k="ssr:stedsnr" v="252841" />
		<tag k="water" v="lake" />
	</node>
	<node id="-540783" lat="61.9917555516" lon="5.14510833101">
		<tag k="name" v="Røysavatnet" />
		<tag k="natural" v="water" />
		<tag k="ssr:stedsnr" v="252836" />
	</node>
	<node id="-540270" lat="61.9689222224" lon="5.48365834273">
		<tag k="name" v="Vassdalsstranda" />
		<tag k="natural" v="beach" />
		<tag k="ssr:stedsnr" v="336838" />
	</node>
	<node id="-540268" lat="61.9741333357" lon="5.47920000306">
		<tag k="name" v="Vassdalselva" />
		<tag k="ssr:stedsnr" v="336812" />
		<tag k="waterway" v="river" />
	</node>
	<node id="-540257" lat="61.9837318703" lon="5.09899981984">
		<tag k="name" v="Nørdalsvatnet" />
		<tag k="natural" v="water" />
		<tag k="ssr:stedsnr" v="336642" />
		<tag k="water" v="lake" />
	</node>
	<node id="-541278" lat="62.0198388934" lon="5.12990277753">
		<tag k="name" v="Forklevatnet" />
		<tag k="natural" v="water" />
		<tag k="ssr:stedsnr" v="739645" />
	</node>
	<node id="-540252" lat="61.9416305536" lon="5.20957221644">
		<tag k="name" v="Reineelva" />
		<tag k="ssr:stedsnr" v="336567" />
		<tag k="waterway" v="river" />
	</node>
	<node id="-541270" lat="61.9513805572" lon="5.03242500147">
		<tag k="name" v="Nykkevatnet" />
		<tag k="natural" v="water" />
		<tag k="ssr:stedsnr" v="738949" />
	</node>
	<node id="-540757" lat="61.9621638864" lon="5.40108332486">
		<tag k="name" v="Tverrelva" />
		<tag k="ssr:stedsnr" v="215910" />
		<tag k="waterway" v="river" />
	</node>
	<node id="-541266" lat="61.9568916658" lon="5.09850555269">
		<tag k="name" v="Tuftegrøvatnet" />
		<tag k="natural" v="water" />
		<tag k="ssr:stedsnr" v="738797" />
	</node>
	<node id="-541265" lat="61.972955553" lon="5.36123333204">
		<tag k="name" v="Tverrfossevatnet" />
		<tag k="natural" v="water" />
		<tag k="ssr:stedsnr" v="738791" />
	</node>
	<node id="-540238" lat="61.9200000028" lon="5.27716666276">
		<tag k="name" v="Fureneset" />
		<tag k="natural" v="cape" />
		<tag k="ssr:stedsnr" v="335624" />
	</node>
	<node id="-540235" lat="62.0309965263" lon="4.99675167938">
		<tag k="name" v="Småmyrvatnet" />
		<tag k="natural" v="water" />
		<tag k="ssr:stedsnr" v="93014" />
		<tag k="water" v="lake" />
	</node>
	<node id="-540745" lat="61.9229222263" lon="5.154291674">
		<tag k="alt_name" v="Deknevatnet" />
		<tag k="name" v="Deknepollvatnet" />
		<tag k="natural" v="water" />
		<tag k="ssr:stedsnr" v="215726" />
		<tag k="water" v="lake" />
	</node>
	<node id="-540230" lat="62.0005222261" lon="5.05498888836">
		<tag k="name" v="Heidavatnet" />
		<tag k="natural" v="water" />
		<tag k="ssr:stedsnr" v="314667" />
	</node>
	<node id="-540223" lat="61.9599611074" lon="5.42445555396">
		<tag k="name" v="Svartevatnet" />
		<tag k="natural" v="water" />
		<tag k="ssr:stedsnr" v="313822" />
	</node>
	<node id="-540219" lat="61.998244444" lon="5.0158833365">
		<tag k="name" v="Skjenevatnet" />
		<tag k="natural" v="water" />
		<tag k="ssr:stedsnr" v="313538" />
	</node>
	<node id="-541238" lat="61.9236250039" lon="5.29263333852">
		<tag k="name" v="Setrevika" />
		<tag k="natural" v="bay" />
		<tag k="ssr:stedsnr" v="701631" />
	</node>
	<node id="-541533" lat="62.020211109" lon="5.01993888646">
		<tag k="name" v="Vikaelva" />
		<tag k="ssr:stedsnr" v="944340" />
		<tag k="waterway" v="river" />
	</node>
	<node id="-541222" lat="61.9825694568" lon="5.48255603689">
		<tag k="name" v="Øvre Mevatnet" />
		<tag k="natural" v="water" />
		<tag k="ssr:stedsnr" v="700812" />
		<tag k="water" v="lake" />
	</node>
	<node id="-540709" lat="62.0141277818" lon="5.03457777031">
		<tag k="name" v="Hundsnesvatnet" />
		<tag k="natural" v="water" />
		<tag k="ssr:stedsnr" v="193630" />
	</node>
	<node id="-541215" lat="61.9890000006" lon="5.10734443663">
		<tag k="name" v="Grimeneset" />
		<tag k="natural" v="cape" />
		<tag k="ssr:stedsnr" v="700715" />
	</node>
	<node id="-540189" lat="62.016383335" lon="5.04774166142">
		<tag k="name" v="Elva" />
		<tag k="ssr:stedsnr" v="276382" />
		<tag k="waterway" v="river" />
	</node>
	<node id="-541212" lat="61.985761019" lon="5.09418002831">
		<tag k="name" v="Lomevatnet" />
		<tag k="natural" v="water" />
		<tag k="ssr:stedsnr" v="700664" />
		<tag k="water" v="lake" />
	</node>
	<node id="-541211" lat="61.9995888873" lon="5.09475277063">
		<tag k="name" v="Refvikelva" />
		<tag k="ssr:stedsnr" v="700662" />
		<tag k="waterway" v="river" />
	</node>
	<node id="-540186" lat="61.9403142954" lon="5.38343241539">
		<tag k="name" v="Holevatnet" />
		<tag k="natural" v="water" />
		<tag k="ssr:stedsnr" v="275977" />
		<tag k="water" v="lake" />
	</node>
	<node id="-541016" lat="61.9157750012" lon="5.29389444382">
		<tag k="name" v="Raudeggelva" />
		<tag k="ssr:stedsnr" v="578431" />
		<tag k="waterway" v="river" />
	</node>
	<node id="-540166" lat="61.9169555569" lon="5.25400000162">
		<tag k="name" v="Langevatnet" />
		<tag k="natural" v="water" />
		<tag k="ssr:stedsnr" v="275501" />
		<tag k="water" v="lake" />
	</node>
	<node id="-540164" lat="62.0102780593" lon="5.12006061318">
		<tag k="name" v="Skitnevatnet" />
		<tag k="natural" v="water" />
		<tag k="ssr:stedsnr" v="275470" />
		<tag k="water" v="lake" />
	</node>
	<node id="-541187" lat="61.9410305599" lon="5.15255554865">
		<tag k="name" v="Lemveita" />
		<tag k="ssr:stedsnr" v="700286" />
		<tag k="waterway" v="drain" />
	</node>
</osm>
