<?xml version="1.0" encoding="UTF-8"?>
<osm generator="osmapis" version="0.6">
	<node id="-540665" lat="61.9449888887" lon="5.48282499979">
		<tag k="fixme" v="consider natural=peak for the most distinct mountains in the district" />
		<tag k="name" v="Maurstadnakken" />
		<tag k="natural" v="hill" />
		<tag k="place" v="locality" />
		<tag k="ssr:stedsnr" v="870526" />
	</node>
	<node id="-540664" lat="61.9510222232" lon="5.4295999991">
		<tag k="name" v="Hestedalen" />
		<tag k="natural" v="valley" />
		<tag k="place" v="locality" />
		<tag k="ssr:stedsnr" v="870089" />
	</node>
	<node id="-540646" lat="61.9344555587" lon="5.24601943574">
		<tag k="name" v="Fagredalen" />
		<tag k="natural" v="valley" />
		<tag k="place" v="locality" />
		<tag k="ssr:stedsnr" v="859783" />
	</node>
	<node id="-540645" lat="61.9469611104" lon="5.32317222016">
		<tag k="fixme" v="consider natural=peak for the most distinct mountains in the district" />
		<tag k="name" v="Pollaklovene" />
		<tag k="natural" v="hill" />
		<tag k="place" v="locality" />
		<tag k="ssr:stedsnr" v="859776" />
	</node>
	<node id="-540642" lat="61.9959000021" lon="4.9948583405">
		<tag k="alt_name" v="Noppa" />
		<tag k="fixme" v="consider natural=peak for the most distinct mountains in the district" />
		<tag k="name" v="Nobba" />
		<tag k="natural" v="hill" />
		<tag k="place" v="locality" />
		<tag k="ssr:stedsnr" v="859513" />
	</node>
	<node id="-540638" lat="61.9233499966" lon="5.21121111707">
		<tag k="name" v="Smyskorane" />
		<tag k="natural" v="hill" />
		<tag k="place" v="locality" />
		<tag k="ssr:stedsnr" v="859208" />
	</node>
	<node id="-540637" lat="61.9161972258" lon="5.31177500393">
		<tag k="fixme" v="consider natural=peak for the most distinct mountains in the district" />
		<tag k="name" v="Veten" />
		<tag k="natural" v="hill" />
		<tag k="place" v="locality" />
		<tag k="ssr:stedsnr" v="859206" />
	</node>
	<node id="-540617" lat="61.981608336" lon="5.39184167514">
		<tag k="fixme" v="consider natural=peak for the most distinct mountains in the district" />
		<tag k="name" v="Bjørnaholrabben" />
		<tag k="natural" v="hill" />
		<tag k="place" v="locality" />
		<tag k="ssr:stedsnr" v="822994" />
	</node>
	<node id="-540616" lat="61.9346138908" lon="5.36984166247">
		<tag k="name" v="Langedalen" />
		<tag k="natural" v="valley" />
		<tag k="place" v="locality" />
		<tag k="ssr:stedsnr" v="822972" />
	</node>
	<node id="-540615" lat="61.9281055569" lon="5.36426389268">
		<tag k="fixme" v="consider natural=peak for the most distinct mountains in the district" />
		<tag k="name" v="Blåfjellet" />
		<tag k="natural" v="hill" />
		<tag k="place" v="locality" />
		<tag k="ssr:stedsnr" v="822968" />
	</node>
	<node id="-540612" lat="61.9438472213" lon="5.39926666476">
		<tag k="fixme" v="consider natural=peak for the most distinct mountains in the district" />
		<tag k="name" v="Kongenakken" />
		<tag k="natural" v="hill" />
		<tag k="place" v="locality" />
		<tag k="ssr:stedsnr" v="822939" />
	</node>
	<node id="-540608" lat="61.9760611143" lon="5.48564721342">
		<tag k="fixme" v="consider natural=peak for the most distinct mountains in the district" />
		<tag k="name" v="Skagjølsrabben" />
		<tag k="natural" v="hill" />
		<tag k="place" v="locality" />
		<tag k="ssr:stedsnr" v="822850" />
	</node>
	<node id="-540607" lat="61.9312305575" lon="5.46808611332">
		<tag k="name" v="Middagstua" />
		<tag k="natural" v="hill" />
		<tag k="place" v="locality" />
		<tag k="ssr:stedsnr" v="822834" />
	</node>
	<node id="-540606" lat="61.9346833321" lon="5.45737777947">
		<tag k="name" v="Vedaberget" />
		<tag k="natural" v="hill" />
		<tag k="place" v="locality" />
		<tag k="ssr:stedsnr" v="822820" />
	</node>
	<node id="-540605" lat="61.950997218" lon="5.48399167072">
		<tag k="name" v="Bjørkehola" />
		<tag k="natural" v="valley" />
		<tag k="place" v="locality" />
		<tag k="ssr:stedsnr" v="822803" />
	</node>
	<node id="-540603" lat="61.9724138921" lon="5.38888610964">
		<tag k="fixme" v="consider natural=peak for the most distinct mountains in the district" />
		<tag k="name" v="Fiskevassrinden" />
		<tag k="natural" v="hill" />
		<tag k="place" v="locality" />
		<tag k="ssr:stedsnr" v="822770" />
	</node>
	<node id="-540602" lat="61.9694694457" lon="5.40663334249">
		<tag k="name" v="Vadet" />
		<tag k="place" v="locality" />
		<tag k="ssr:stedsnr" v="822764" />
	</node>
	<node id="-540599" lat="62.0005083308" lon="5.10121943975">
		<tag k="name" v="Høgehornet" />
		<tag k="natural" v="hill" />
		<tag k="place" v="locality" />
		<tag k="ssr:stedsnr" v="822693" />
	</node>
	<node id="-540586" lat="61.9187972207" lon="5.29985555458">
		<tag k="fixme" v="consider natural=peak for the most distinct mountains in the district" />
		<tag k="name" v="Blåfjellet" />
		<tag k="natural" v="hill" />
		<tag k="place" v="locality" />
		<tag k="ssr:stedsnr" v="822526" />
	</node>
	<node id="-540584" lat="61.9153861069" lon="5.28965833909">
		<tag k="name" v="Storehaugen" />
		<tag k="natural" v="hill" />
		<tag k="place" v="locality" />
		<tag k="ssr:stedsnr" v="822517" />
	</node>
	<node id="-540582" lat="62.0198666657" lon="5.00597500131">
		<tag k="fixme" v="consider natural=peak for the most distinct mountains in the district" />
		<tag k="name" v="Blåfjellet" />
		<tag k="natural" v="hill" />
		<tag k="place" v="locality" />
		<tag k="ssr:stedsnr" v="822420" />
	</node>
	<node id="-540579" lat="62.0166305565" lon="5.03285833146">
		<tag k="name" v="Langedalen" />
		<tag k="natural" v="valley" />
		<tag k="place" v="locality" />
		<tag k="ssr:stedsnr" v="822362" />
	</node>
	<node id="-540567" lat="62.0044472251" lon="5.02272221269">
		<tag k="fixme" v="consider natural=peak for the most distinct mountains in the district" />
		<tag k="name" v="Måsegga" />
		<tag k="natural" v="hill" />
		<tag k="place" v="locality" />
		<tag k="ssr:stedsnr" v="800632" />
	</node>
	<node id="-540566" lat="61.9448777805" lon="5.07839999874">
		<tag k="fixme" v="consider natural=peak for the most distinct mountains in the district" />
		<tag k="loc_name" v="Tjæretoppane" />
		<tag k="name" v="Kjeretoppane" />
		<tag k="natural" v="hill" />
		<tag k="place" v="locality" />
		<tag k="ssr:stedsnr" v="799977" />
	</node>
	<node id="-540564" lat="61.9284638922" lon="5.06456389196">
		<tag k="alt_name" v="Bergnakken" />
		<tag k="name" v="Nakken" />
		<tag k="natural" v="hill" />
		<tag k="place" v="locality" />
		<tag k="ssr:stedsnr" v="799972" />
	</node>
	<node id="-540561" lat="61.9476888881" lon="5.42799166566">
		<tag k="name" v="Høgeberget" />
		<tag k="natural" v="hill" />
		<tag k="place" v="locality" />
		<tag k="ssr:stedsnr" v="799830" />
	</node>
	<node id="-540560" lat="61.9353583309" lon="5.27207778412">
		<tag k="fixme" v="consider natural=peak for the most distinct mountains in the district" />
		<tag k="name" v="Sankta Synneva-hornet" />
		<tag k="natural" v="hill" />
		<tag k="place" v="locality" />
		<tag k="ssr:stedsnr" v="799826" />
	</node>
	<node id="-540557" lat="61.9235472223" lon="5.13075555907">
		<tag k="fixme" v="consider natural=peak for the most distinct mountains in the district" />
		<tag k="name" v="Kletten" />
		<tag k="natural" v="hill" />
		<tag k="place" v="locality" />
		<tag k="ssr:stedsnr" v="799812" />
	</node>
	<node id="-540550" lat="61.9206444415" lon="5.26369166029">
		<tag k="alt_name" v="Vardehornet" />
		<tag k="fixme" v="consider natural=peak for the most distinct mountains in the district" />
		<tag k="name" v="Vardhornet" />
		<tag k="natural" v="hill" />
		<tag k="place" v="locality" />
		<tag k="ssr:stedsnr" v="799240" />
	</node>
	<node id="-540545" lat="61.9797277814" lon="5.49078055056">
		<tag k="fixme" v="multiple name tags, choose one and add the other to alt_name; consider natural=peak for the most distinct mountains in the district" />
		<tag k="name" v="Maraftahaugen;Navehornet" />
		<tag k="natural" v="hill" />
		<tag k="place" v="locality" />
		<tag k="ssr:stedsnr" v="798043" />
	</node>
	<node id="-540529" lat="61.9758638868" lon="5.39044722854">
		<tag k="name" v="Dyrstiberget" />
		<tag k="natural" v="hill" />
		<tag k="place" v="locality" />
		<tag k="ssr:stedsnr" v="761989" />
	</node>
	<node id="-540526" lat="61.962127774" lon="5.35626388599">
		<tag k="name" v="Djupedalen" />
		<tag k="natural" v="valley" />
		<tag k="place" v="locality" />
		<tag k="ssr:stedsnr" v="761908" />
	</node>
	<node id="-540525" lat="61.9501916699" lon="5.35258610762">
		<tag k="name" v="Dyrnakken" />
		<tag k="natural" v="hill" />
		<tag k="place" v="locality" />
		<tag k="ssr:stedsnr" v="761906" />
	</node>
	<node id="-540524" lat="61.9623888858" lon="5.38225556295">
		<tag k="name" v="Geistibakken" />
		<tag k="natural" v="slope" />
		<tag k="place" v="locality" />
		<tag k="ssr:stedsnr" v="761897" />
	</node>
	<node id="-540523" lat="61.9789083351" lon="5.48025000407">
		<tag k="name" v="Mevassbakkane" />
		<tag k="natural" v="slope" />
		<tag k="place" v="locality" />
		<tag k="ssr:stedsnr" v="761845" />
	</node>
	<node id="-540522" lat="61.9400638867" lon="5.48647778291">
		<tag k="name" v="Monslaupet" />
		<tag k="natural" v="hill" />
		<tag k="place" v="locality" />
		<tag k="ssr:stedsnr" v="761843" />
	</node>
	<node id="-540521" lat="61.9501611132" lon="5.49564445069">
		<tag k="name" v="Strandaberget" />
		<tag k="natural" v="hill" />
		<tag k="place" v="locality" />
		<tag k="ssr:stedsnr" v="761830" />
	</node>
	<node id="-540519" lat="61.9553416709" lon="5.44354444774">
		<tag k="fixme" v="consider natural=peak for the most distinct mountains in the district" />
		<tag k="name" v="Dukrinakken" />
		<tag k="natural" v="hill" />
		<tag k="place" v="locality" />
		<tag k="ssr:stedsnr" v="761795" />
	</node>
	<node id="-540518" lat="61.9697166627" lon="5.09440833932">
		<tag k="name" v="Lemmen" />
		<tag k="natural" v="hill" />
		<tag k="place" v="locality" />
		<tag k="ssr:stedsnr" v="761773" />
	</node>
	<node id="-540516" lat="62.0287888898" lon="5.126805565">
		<tag k="name" v="Storegytten" />
		<tag k="natural" v="hill" />
		<tag k="place" v="locality" />
		<tag k="ssr:stedsnr" v="761753" />
	</node>
	<node id="-540515" lat="61.9991722226" lon="5.12234443721">
		<tag k="name" v="Signalen" />
		<tag k="natural" v="slope" />
		<tag k="place" v="locality" />
		<tag k="ssr:stedsnr" v="761749" />
	</node>
	<node id="-540514" lat="61.9928444413" lon="5.10771666705">
		<tag k="name" v="Raudehammaren" />
		<tag k="natural" v="hill" />
		<tag k="place" v="locality" />
		<tag k="ssr:stedsnr" v="761747" />
	</node>
	<node id="-540513" lat="61.9896527823" lon="5.14711667072">
		<tag k="name" v="Storrøysa" />
		<tag k="natural" v="hill" />
		<tag k="place" v="locality" />
		<tag k="ssr:stedsnr" v="761736" />
	</node>
	<node id="-540512" lat="61.918719444" lon="5.15113334274">
		<tag k="name" v="Oksholen" />
		<tag k="natural" v="hill" />
		<tag k="place" v="locality" />
		<tag k="ssr:stedsnr" v="761725" />
	</node>
	<node id="-540511" lat="61.9985444443" lon="5.08501944339">
		<tag k="name" v="Rinden" />
		<tag k="place" v="locality" />
		<tag k="ssr:stedsnr" v="761706" />
	</node>
	<node id="-540508" lat="61.922372219" lon="5.29059722421">
		<tag k="fixme" v="consider natural=peak for the most distinct mountains in the district" />
		<tag k="name" v="Åsen" />
		<tag k="natural" v="hill" />
		<tag k="place" v="locality" />
		<tag k="ssr:stedsnr" v="761655" />
	</node>
	<node id="-540507" lat="62.0113916662" lon="5.11419999361">
		<tag k="fixme" v="consider natural=peak for the most distinct mountains in the district" />
		<tag k="name" v="Dormålshornet" />
		<tag k="natural" v="hill" />
		<tag k="place" v="locality" />
		<tag k="ssr:stedsnr" v="761567" />
	</node>
	<node id="-540506" lat="62.0137194434" lon="5.10471667578">
		<tag k="name" v="Rinden" />
		<tag k="natural" v="hill" />
		<tag k="place" v="locality" />
		<tag k="ssr:stedsnr" v="761566" />
	</node>
	<node id="-540505" lat="61.9594333348" lon="5.36204721961">
		<tag k="name" v="Dyrstien" />
		<tag k="natural" v="slope" />
		<tag k="place" v="locality" />
		<tag k="ssr:stedsnr" v="761547" />
	</node>
	<node id="-540504" lat="61.9453833296" lon="5.36900832952">
		<tag k="name" v="Botnebakkane" />
		<tag k="natural" v="slope" />
		<tag k="place" v="locality" />
		<tag k="ssr:stedsnr" v="761544" />
	</node>
	<node id="-540501" lat="61.9878944436" lon="5.02836945113">
		<tag k="name" v="Lynghaugen" />
		<tag k="natural" v="hill" />
		<tag k="place" v="locality" />
		<tag k="ssr:stedsnr" v="761454" />
	</node>
	<node id="-540500" lat="61.9910250003" lon="5.03772778501">
		<tag k="name" v="Raudehola" />
		<tag k="natural" v="valley" />
		<tag k="place" v="locality" />
		<tag k="ssr:stedsnr" v="761442" />
	</node>
	<node id="-540499" lat="61.9955055565" lon="5.03444721842">
		<tag k="name" v="Fagredalen" />
		<tag k="natural" v="valley" />
		<tag k="place" v="locality" />
		<tag k="ssr:stedsnr" v="761441" />
	</node>
	<node id="-540498" lat="62.0118638898" lon="4.98785833224">
		<tag k="name" v="Sletteskorane" />
		<tag k="natural" v="gorge" />
		<tag k="ssr:stedsnr" v="761425" />
	</node>
	<node id="-540494" lat="61.9019194479" lon="5.18725000267">
		<tag k="name" v="Angelshaug" />
		<tag k="natural" v="hill" />
		<tag k="place" v="locality" />
		<tag k="ssr:stedsnr" v="761351" />
	</node>
	<node id="-540489" lat="61.9229055587" lon="5.27656667135">
		<tag k="name" v="Raudeggelidene" />
		<tag k="natural" v="slope" />
		<tag k="place" v="locality" />
		<tag k="ssr:stedsnr" v="760579" />
	</node>
	<node id="-540478" lat="61.9466666685" lon="5.03702499202">
		<tag k="fixme" v="consider natural=peak for the most distinct mountains in the district" />
		<tag k="name" v="Nibbefjellet" />
		<tag k="natural" v="hill" />
		<tag k="place" v="locality" />
		<tag k="ssr:stedsnr" v="738973" />
	</node>
	<node id="-540465" lat="61.9217055514" lon="5.31503888023">
		<tag k="name" v="Vassnyken" />
		<tag k="natural" v="hill" />
		<tag k="place" v="locality" />
		<tag k="ssr:stedsnr" v="738239" />
	</node>
	<node id="-540464" lat="61.9261805577" lon="5.2360305527">
		<tag k="fixme" v="consider natural=peak for the most distinct mountains in the district" />
		<tag k="name" v="Kupefjellet" />
		<tag k="natural" v="hill" />
		<tag k="place" v="locality" />
		<tag k="ssr:stedsnr" v="738237" />
	</node>
	<node id="-540461" lat="61.9063416651" lon="5.16979167451">
		<tag k="name" v="Evjehøgda" />
		<tag k="natural" v="hill" />
		<tag k="place" v="locality" />
		<tag k="ssr:stedsnr" v="738225" />
	</node>
	<node id="-540459" lat="61.9157527796" lon="5.33237777373">
		<tag k="fixme" v="consider natural=peak for the most distinct mountains in the district" />
		<tag k="name" v="Krokenakken" />
		<tag k="natural" v="hill" />
		<tag k="place" v="locality" />
		<tag k="ssr:stedsnr" v="738221" />
	</node>
	<node id="-540445" lat="61.924938891" lon="5.32123889311">
		<tag k="name" v="Vassnykbakkane" />
		<tag k="natural" v="slope" />
		<tag k="place" v="locality" />
		<tag k="ssr:stedsnr" v="701924" />
	</node>
	<node id="-540444" lat="61.9614249992" lon="5.39384999072">
		<tag k="name" v="Leitet" />
		<tag k="place" v="locality" />
		<tag k="ssr:stedsnr" v="701893" />
	</node>
	<node id="-540442" lat="61.977736107" lon="5.05810833773">
		<tag k="name" v="Lammehagen" />
		<tag k="natural" v="hill" />
		<tag k="place" v="locality" />
		<tag k="ssr:stedsnr" v="701465" />
	</node>
	<node id="-540441" lat="61.9890111146" lon="5.06320833102">
		<tag k="name" v="Hagen" />
		<tag k="place" v="locality" />
		<tag k="ssr:stedsnr" v="701458" />
	</node>
	<node id="-540440" lat="62.0081277819" lon="5.06455277907">
		<tag k="name" v="Kvialeitet" />
		<tag k="place" v="locality" />
		<tag k="ssr:stedsnr" v="701428" />
	</node>
	<node id="-540439" lat="62.0138000038" lon="5.05787777825">
		<tag k="name" v="Haugen" />
		<tag k="natural" v="hill" />
		<tag k="place" v="locality" />
		<tag k="ssr:stedsnr" v="701385" />
	</node>
	<node id="-540438" lat="62.0140333304" lon="5.05206665948">
		<tag k="name" v="Nipa" />
		<tag k="natural" v="hill" />
		<tag k="place" v="locality" />
		<tag k="ssr:stedsnr" v="701384" />
	</node>
	<node id="-540437" lat="62.0126694413" lon="5.05414165873">
		<tag k="name" v="Rabben" />
		<tag k="natural" v="hill" />
		<tag k="place" v="locality" />
		<tag k="ssr:stedsnr" v="701382" />
	</node>
	<node id="-540435" lat="61.9802611147" lon="5.39248888228">
		<tag k="name" v="Storbjørnahola" />
		<tag k="natural" v="valley" />
		<tag k="place" v="locality" />
		<tag k="ssr:stedsnr" v="700984" />
	</node>
	<node id="-540433" lat="61.9375666706" lon="5.37587499933">
		<tag k="name" v="Urbotnen" />
		<tag k="natural" v="valley" />
		<tag k="place" v="locality" />
		<tag k="ssr:stedsnr" v="700959" />
	</node>
	<node id="-540432" lat="61.9571583349" lon="5.38203889097">
		<tag k="name" v="Bjørnaslokene" />
		<tag k="natural" v="slope" />
		<tag k="place" v="locality" />
		<tag k="ssr:stedsnr" v="700911" />
	</node>
	<node id="-540431" lat="61.9531361069" lon="5.36474444107">
		<tag k="name" v="Klubben" />
		<tag k="natural" v="hill" />
		<tag k="place" v="locality" />
		<tag k="ssr:stedsnr" v="700886" />
	</node>
	<node id="-540430" lat="61.9539999964" lon="5.35856945108">
		<tag k="name" v="Setreskaret" />
		<tag k="natural" v="valley" />
		<tag k="place" v="locality" />
		<tag k="ssr:stedsnr" v="700884" />
	</node>
	<node id="-540429" lat="61.9444833327" lon="5.34708055365">
		<tag k="name" v="Geitahornskaret" />
		<tag k="natural" v="valley" />
		<tag k="place" v="locality" />
		<tag k="ssr:stedsnr" v="700874" />
	</node>
	<node id="-540426" lat="61.9365583336" lon="5.47402499412">
		<tag k="name" v="Langerekkja" />
		<tag k="natural" v="hill" />
		<tag k="place" v="locality" />
		<tag k="ssr:stedsnr" v="700810" />
	</node>
	<node id="-540425" lat="61.9612277782" lon="5.47717499292">
		<tag k="name" v="Osehaugane" />
		<tag k="natural" v="hill" />
		<tag k="place" v="locality" />
		<tag k="ssr:stedsnr" v="700780" />
	</node>
	<node id="-540424" lat="61.9493055582" lon="5.4757999952">
		<tag k="name" v="Hjellhaugane" />
		<tag k="natural" v="hill" />
		<tag k="place" v="locality" />
		<tag k="ssr:stedsnr" v="700776" />
	</node>
	<node id="-540423" lat="61.9734944487" lon="5.39950278165">
		<tag k="name" v="Dauremålhaugen" />
		<tag k="natural" v="hill" />
		<tag k="place" v="locality" />
		<tag k="ssr:stedsnr" v="700756" />
	</node>
	<node id="-540422" lat="61.9684333315" lon="5.16414166427">
		<tag k="name" v="Torvhaugen" />
		<tag k="natural" v="hill" />
		<tag k="place" v="locality" />
		<tag k="ssr:stedsnr" v="700743" />
	</node>
	<node id="-540419" lat="61.9893805511" lon="5.14431110303">
		<tag k="name" v="Røysaleitet" />
		<tag k="place" v="locality" />
		<tag k="ssr:stedsnr" v="700698" />
	</node>
	<node id="-540418" lat="61.9930027795" lon="5.07562222975">
		<tag k="fixme" v="consider natural=peak for the most distinct mountains in the district" />
		<tag k="name" v="Landalsfjellet" />
		<tag k="natural" v="hill" />
		<tag k="place" v="locality" />
		<tag k="ssr:stedsnr" v="700668" />
	</node>
	<node id="-540415" lat="62.0038805571" lon="5.11241667089">
		<tag k="name" v="Riskinna" />
		<tag k="natural" v="hill" />
		<tag k="place" v="locality" />
		<tag k="ssr:stedsnr" v="700660" />
	</node>
	<node id="-540413" lat="61.9271972189" lon="5.08424443918">
		<tag k="name" v="Nakkehola" />
		<tag k="natural" v="valley" />
		<tag k="place" v="locality" />
		<tag k="ssr:stedsnr" v="700647" />
	</node>
	<node id="-540412" lat="61.9367222215" lon="5.10345833676">
		<tag k="name" v="Kongshaugen" />
		<tag k="natural" v="hill" />
		<tag k="place" v="locality" />
		<tag k="ssr:stedsnr" v="700645" />
	</node>
	<node id="-540411" lat="61.9250555528" lon="5.30690555957">
		<tag k="name" v="Vasslida" />
		<tag k="natural" v="slope" />
		<tag k="place" v="locality" />
		<tag k="ssr:stedsnr" v="700639" />
	</node>
	<node id="-540410" lat="61.914755552" lon="5.3280361158">
		<tag k="fixme" v="consider natural=peak for the most distinct mountains in the district" />
		<tag k="name" v="Hestefjellet" />
		<tag k="natural" v="hill" />
		<tag k="place" v="locality" />
		<tag k="ssr:stedsnr" v="700620" />
	</node>
	<node id="-540408" lat="61.9478666629" lon="5.22978056065">
		<tag k="name" v="Alskaret" />
		<tag k="natural" v="valley" />
		<tag k="place" v="locality" />
		<tag k="ssr:stedsnr" v="700603" />
	</node>
	<node id="-540407" lat="62.0119333338" lon="5.18531945108">
		<tag k="name" v="Artua" />
		<tag k="natural" v="hill" />
		<tag k="place" v="locality" />
		<tag k="ssr:stedsnr" v="700583" />
	</node>
	<node id="-540406" lat="62.0085583294" lon="5.09643888042">
		<tag k="name" v="Telvikberget" />
		<tag k="natural" v="hill" />
		<tag k="place" v="locality" />
		<tag k="ssr:stedsnr" v="700579" />
	</node>
	<node id="-540405" lat="62.0052249989" lon="5.09316110879">
		<tag k="name" v="Nordnaustekollen" />
		<tag k="natural" v="hill" />
		<tag k="place" v="locality" />
		<tag k="ssr:stedsnr" v="700578" />
	</node>
	<node id="-540404" lat="61.9161166702" lon="5.2694777786">
		<tag k="name" v="Djupedalen" />
		<tag k="natural" v="valley" />
		<tag k="place" v="locality" />
		<tag k="ssr:stedsnr" v="700575" />
	</node>
	<node id="-540403" lat="61.9159083321" lon="5.26112777186">
		<tag k="fixme" v="consider natural=peak for the most distinct mountains in the district" />
		<tag k="name" v="Langevassfjell" />
		<tag k="natural" v="hill" />
		<tag k="place" v="locality" />
		<tag k="ssr:stedsnr" v="700573" />
	</node>
	<node id="-540402" lat="62.021330553" lon="5.11450555095">
		<tag k="name" v="Aksla" />
		<tag k="natural" v="hill" />
		<tag k="place" v="locality" />
		<tag k="ssr:stedsnr" v="700560" />
	</node>
	<node id="-540401" lat="62.0164750035" lon="5.11711388504">
		<tag k="name" v="Hammarskaret" />
		<tag k="natural" v="valley" />
		<tag k="place" v="locality" />
		<tag k="ssr:stedsnr" v="700553" />
	</node>
	<node id="-540399" lat="62.0137777786" lon="5.1136944442">
		<tag k="fixme" v="consider natural=peak for the most distinct mountains in the district" />
		<tag k="name" v="Skjolden" />
		<tag k="natural" v="hill" />
		<tag k="place" v="locality" />
		<tag k="ssr:stedsnr" v="700531" />
	</node>
	<node id="-540398" lat="61.9765416649" lon="5.50433334137">
		<tag k="name" v="Lægdene" />
		<tag k="place" v="locality" />
		<tag k="ssr:stedsnr" v="700524" />
	</node>
	<node id="-540397" lat="61.9419472221" lon="5.37704722808">
		<tag k="name" v="Steinkleiva" />
		<tag k="natural" v="slope" />
		<tag k="place" v="locality" />
		<tag k="ssr:stedsnr" v="700515" />
	</node>
	<node id="-540395" lat="61.9105194445" lon="5.03097778333">
		<tag k="fixme" v="consider natural=peak for the most distinct mountains in the district" />
		<tag k="name" v="Nonshornet" />
		<tag k="natural" v="hill" />
		<tag k="place" v="locality" />
		<tag k="ssr:stedsnr" v="700477" />
	</node>
	<node id="-540394" lat="61.9677916655" lon="5.52820000924">
		<tag k="name" v="Resstallen" />
		<tag k="natural" v="hill" />
		<tag k="place" v="locality" />
		<tag k="ssr:stedsnr" v="700471" />
	</node>
	<node id="-540393" lat="61.9460805524" lon="5.11354165953">
		<tag k="name" v="Seljehammaren" />
		<tag k="natural" v="hill" />
		<tag k="place" v="locality" />
		<tag k="ssr:stedsnr" v="700305" />
	</node>
	<node id="-540391" lat="62.0303194401" lon="5.00948610654">
		<tag k="name" v="Hardtua" />
		<tag k="place" v="locality" />
		<tag k="ssr:stedsnr" v="700010" />
	</node>
	<node id="-540389" lat="61.9228361144" lon="5.22263888968">
		<tag k="name" v="Ulstadhaugen" />
		<tag k="natural" v="hill" />
		<tag k="place" v="locality" />
		<tag k="ssr:stedsnr" v="699535" />
	</node>
	<node id="-540378" lat="61.9533722221" lon="5.45776388915">
		<tag k="name" v="Halsen" />
		<tag k="natural" v="hill" />
		<tag k="place" v="locality" />
		<tag k="ssr:stedsnr" v="677814" />
	</node>
	<node id="-540361" lat="61.9494833295" lon="5.22119444578">
		<tag k="name" v="Holrammen" />
		<tag k="natural" v="slope" />
		<tag k="place" v="locality" />
		<tag k="ssr:stedsnr" v="663023" />
	</node>
	<node id="-540354" lat="61.9383416708" lon="5.34974166327">
		<tag k="name" v="Botnen" />
		<tag k="natural" v="valley" />
		<tag k="place" v="locality" />
		<tag k="ssr:stedsnr" v="640928" />
	</node>
	<node id="-540353" lat="61.9322138928" lon="5.32451110144">
		<tag k="name" v="Aksla" />
		<tag k="natural" v="ridge" />
		<tag k="place" v="locality" />
		<tag k="ssr:stedsnr" v="640920" />
	</node>
	<node id="-540352" lat="61.9288500042" lon="5.32223889323">
		<tag k="name" v="Ormelida" />
		<tag k="natural" v="slope" />
		<tag k="place" v="locality" />
		<tag k="ssr:stedsnr" v="640915" />
	</node>
	<node id="-540351" lat="61.9437277811" lon="5.43942500218">
		<tag k="fixme" v="consider natural=peak for the most distinct mountains in the district" />
		<tag k="name" v="Noranakken" />
		<tag k="natural" v="hill" />
		<tag k="ssr:stedsnr" v="640900" />
	</node>
	<node id="-540350" lat="61.9286277741" lon="5.28098333286">
		<tag k="name" v="Holebakkane" />
		<tag k="natural" v="slope" />
		<tag k="place" v="locality" />
		<tag k="ssr:stedsnr" v="640627" />
	</node>
	<node id="-540349" lat="61.9837944405" lon="5.06146944505">
		<tag k="name" v="Flotane" />
		<tag k="place" v="locality" />
		<tag k="ssr:stedsnr" v="640386" />
	</node>
	<node id="-540348" lat="61.9974777795" lon="5.01993611227">
		<tag k="name" v="Skjenevasshaugen" />
		<tag k="natural" v="hill" />
		<tag k="place" v="locality" />
		<tag k="ssr:stedsnr" v="640382" />
	</node>
	<node id="-540347" lat="62.0204194464" lon="4.98876666663">
		<tag k="name" v="Tormoddalen" />
		<tag k="natural" v="valley" />
		<tag k="place" v="locality" />
		<tag k="ssr:stedsnr" v="640354" />
	</node>
	<node id="-540346" lat="61.9156277757" lon="5.19730554669">
		<tag k="name" v="Rinden" />
		<tag k="natural" v="hill" />
		<tag k="place" v="locality" />
		<tag k="ssr:stedsnr" v="640322" />
	</node>
	<node id="-540345" lat="61.9131416691" lon="5.18940555408">
		<tag k="name" v="Nakken" />
		<tag k="natural" v="hill" />
		<tag k="place" v="locality" />
		<tag k="ssr:stedsnr" v="640320" />
	</node>
	<node id="-540343" lat="61.9161916635" lon="5.16178055834">
		<tag k="name" v="Losberg" />
		<tag k="natural" v="hill" />
		<tag k="place" v="locality" />
		<tag k="ssr:stedsnr" v="640295" />
	</node>
	<node id="-540342" lat="61.9351638918" lon="5.39088888385">
		<tag k="name" v="Fossebruna" />
		<tag k="place" v="locality" />
		<tag k="ssr:stedsnr" v="639989" />
	</node>
	<node id="-540340" lat="61.9247666639" lon="5.34310555535">
		<tag k="fixme" v="consider natural=peak for the most distinct mountains in the district" />
		<tag k="name" v="Raudalsåsen" />
		<tag k="natural" v="hill" />
		<tag k="place" v="locality" />
		<tag k="ssr:stedsnr" v="639936" />
	</node>
	<node id="-540339" lat="61.9586472189" lon="5.38450833812">
		<tag k="fixme" v="consider natural=peak for the most distinct mountains in the district" />
		<tag k="name" v="Tobbeturabben" />
		<tag k="natural" v="hill" />
		<tag k="place" v="locality" />
		<tag k="ssr:stedsnr" v="639893" />
	</node>
	<node id="-540335" lat="61.9666805585" lon="5.46115833025">
		<tag k="name" v="Blåsveda" />
		<tag k="natural" v="hill" />
		<tag k="place" v="locality" />
		<tag k="ssr:stedsnr" v="639837" />
	</node>
	<node id="-540334" lat="61.9466416708" lon="5.44326667379">
		<tag k="fixme" v="consider natural=peak for the most distinct mountains in the district" />
		<tag k="name" v="Sagenakken" />
		<tag k="natural" v="hill" />
		<tag k="place" v="locality" />
		<tag k="ssr:stedsnr" v="639779" />
	</node>
	<node id="-540332" lat="61.9650000037" lon="5.42004999025">
		<tag k="name" v="Hestdalen" />
		<tag k="natural" v="valley" />
		<tag k="place" v="locality" />
		<tag k="ssr:stedsnr" v="639761" />
	</node>
	<node id="-540331" lat="61.9644611121" lon="5.40454722016">
		<tag k="name" v="Roteskogen" />
		<tag k="natural" v="slope" />
		<tag k="place" v="locality" />
		<tag k="ssr:stedsnr" v="639752" />
	</node>
	<node id="-540329" lat="61.9679666671" lon="5.16859166636">
		<tag k="name" v="Hagevikdalen" />
		<tag k="natural" v="valley" />
		<tag k="place" v="locality" />
		<tag k="ssr:stedsnr" v="639743" />
	</node>
	<node id="-540327" lat="61.9942277811" lon="5.14988332931">
		<tag k="name" v="Røysadalen" />
		<tag k="natural" v="valley" />
		<tag k="place" v="locality" />
		<tag k="ssr:stedsnr" v="639714" />
	</node>
	<node id="-540326" lat="62.0006944402" lon="5.08660000259">
		<tag k="name" v="Kåmen" />
		<tag k="place" v="locality" />
		<tag k="ssr:stedsnr" v="639689" />
	</node>
	<node id="-540325" lat="62.0019499975" lon="5.09597222211">
		<tag k="name" v="Breiehylla" />
		<tag k="place" v="locality" />
		<tag k="ssr:stedsnr" v="639685" />
	</node>
	<node id="-540324" lat="61.941613888" lon="5.16001111795">
		<tag k="name" v="Bykse" />
		<tag k="natural" v="hill" />
		<tag k="place" v="locality" />
		<tag k="ssr:stedsnr" v="639668" />
	</node>
	<node id="-540321" lat="61.9364444446" lon="5.08544167218">
		<tag k="name" v="Syneskaret" />
		<tag k="natural" v="valley" />
		<tag k="place" v="locality" />
		<tag k="ssr:stedsnr" v="639659" />
	</node>
	<node id="-540320" lat="61.9382749993" lon="5.14573610506">
		<tag k="name" v="Kupehola" />
		<tag k="natural" v="valley" />
		<tag k="place" v="locality" />
		<tag k="ssr:stedsnr" v="639639" />
	</node>
	<node id="-540318" lat="61.9452666667" lon="5.22542221341">
		<tag k="name" v="Teigane" />
		<tag k="place" v="locality" />
		<tag k="ssr:stedsnr" v="639603" />
	</node>
	<node id="-540315" lat="62.0175583325" lon="5.12309443857">
		<tag k="name" v="Beksleskaret" />
		<tag k="natural" v="valley" />
		<tag k="place" v="locality" />
		<tag k="ssr:stedsnr" v="639539" />
	</node>
	<node id="-540314" lat="62.0200083317" lon="5.12689999836">
		<tag k="name" v="Skjenet" />
		<tag k="natural" v="hill" />
		<tag k="place" v="locality" />
		<tag k="ssr:stedsnr" v="639538" />
	</node>
	<node id="-540313" lat="61.9514472244" lon="5.37172499392">
		<tag k="name" v="Dyrskaret" />
		<tag k="natural" v="valley" />
		<tag k="place" v="locality" />
		<tag k="ssr:stedsnr" v="639523" />
	</node>
	<node id="-540312" lat="61.9142277753" lon="5.31347777189">
		<tag k="name" v="Alida" />
		<tag k="natural" v="slope" />
		<tag k="place" v="locality" />
		<tag k="ssr:stedsnr" v="639510" />
	</node>
	<node id="-540311" lat="61.9693333337" lon="5.53072778638">
		<tag k="name" v="Moserabbane" />
		<tag k="natural" v="hill" />
		<tag k="place" v="locality" />
		<tag k="ssr:stedsnr" v="639480" />
	</node>
	<node id="-540309" lat="61.9418470288" lon="5.10523194167">
		<tag k="name" v="Litlehorn" />
		<tag k="natural" v="hill" />
		<tag k="place" v="locality" />
		<tag k="ssr:stedsnr" v="639295" />
	</node>
	<node id="-540308" lat="61.9427833368" lon="5.12695276796">
		<tag k="alt_name" v="Goteberghammaren" />
		<tag k="name" v="Gottebergshammaren" />
		<tag k="natural" v="hill" />
		<tag k="place" v="locality" />
		<tag k="ssr:stedsnr" v="639288" />
	</node>
	<node id="-540307" lat="61.9200222241" lon="5.24374722245">
		<tag k="name" v="Langheia" />
		<tag k="natural" v="hill" />
		<tag k="place" v="locality" />
		<tag k="ssr:stedsnr" v="638561" />
	</node>
	<node id="-540303" lat="61.9751472208" lon="5.4926138879">
		<tag k="name" v="Nadelhornet" />
		<tag k="natural" v="hill" />
		<tag k="place" v="locality" />
		<tag k="ssr:stedsnr" v="632310" />
	</node>
	<node id="-540300" lat="62.0281472218" lon="5.12771666337">
		<tag k="name" v="Skongsneshelleren" />
		<tag k="place" v="locality" />
		<tag k="ssr:stedsnr" v="617685" />
	</node>
	<node id="-540297" lat="61.9433777735" lon="5.06298610642">
		<tag k="fixme" v="consider natural=peak for the most distinct mountains in the district" />
		<tag k="name" v="Kletten" />
		<tag k="natural" v="hill" />
		<tag k="place" v="locality" />
		<tag k="ssr:stedsnr" v="616974" />
	</node>
	<node id="-540291" lat="61.9582277767" lon="5.22156110241">
		<tag k="fixme" v="consider natural=peak for the most distinct mountains in the district" />
		<tag k="name" v="Gangeskaregga" />
		<tag k="natural" v="hill" />
		<tag k="place" v="locality" />
		<tag k="ssr:stedsnr" v="616798" />
	</node>
	<node id="-540290" lat="61.9537083311" lon="5.18766945078">
		<tag k="fixme" v="consider natural=peak for the most distinct mountains in the district" />
		<tag k="name" v="Skolmen" />
		<tag k="natural" v="hill" />
		<tag k="place" v="locality" />
		<tag k="ssr:stedsnr" v="616796" />
	</node>
	<node id="-540288" lat="61.9984166625" lon="5.05086388985">
		<tag k="fixme" v="consider natural=peak for the most distinct mountains in the district" />
		<tag k="name" v="Heida" />
		<tag k="natural" v="hill" />
		<tag k="place" v="locality" />
		<tag k="ssr:stedsnr" v="616528" />
	</node>
	<node id="-540287" lat="61.9299500032" lon="5.29971388334">
		<tag k="name" v="Kattavassegga" />
		<tag k="natural" v="hill" />
		<tag k="place" v="locality" />
		<tag k="ssr:stedsnr" v="616232" />
	</node>
	<node id="-540286" lat="61.9324444482" lon="5.19324165673">
		<tag k="fixme" v="consider natural=peak for the most distinct mountains in the district" />
		<tag k="name" v="Hornet" />
		<tag k="natural" v="hill" />
		<tag k="place" v="locality" />
		<tag k="ssr:stedsnr" v="616228" />
	</node>
	<node id="-540285" lat="61.9285694417" lon="5.20753055211">
		<tag k="name" v="Botnen" />
		<tag k="natural" v="valley" />
		<tag k="place" v="locality" />
		<tag k="ssr:stedsnr" v="616226" />
	</node>
	<node id="-540265" lat="61.923108337" lon="5.3290833282">
		<tag k="fixme" v="consider natural=peak for the most distinct mountains in the district" />
		<tag k="name" v="Kaldalsegga" />
		<tag k="natural" v="hill" />
		<tag k="place" v="locality" />
		<tag k="ssr:stedsnr" v="579943" />
	</node>
	<node id="-540263" lat="61.9702888929" lon="5.48649165691">
		<tag k="fixme" v="consider natural=peak for the most distinct mountains in the district" />
		<tag k="name" v="Vassdalshornet" />
		<tag k="natural" v="hill" />
		<tag k="place" v="locality" />
		<tag k="ssr:stedsnr" v="579853" />
	</node>
	<node id="-540262" lat="61.9340583347" lon="5.46502222308">
		<tag k="name" v="Maurstadberget" />
		<tag k="natural" v="hill" />
		<tag k="place" v="locality" />
		<tag k="ssr:stedsnr" v="579830" />
	</node>
	<node id="-540260" lat="61.970730557" lon="5.39015278446">
		<tag k="name" v="Gusinnihola" />
		<tag k="natural" v="valley" />
		<tag k="place" v="locality" />
		<tag k="ssr:stedsnr" v="579786" />
	</node>
	<node id="-540259" lat="61.9347833358" lon="5.14484443949">
		<tag k="fixme" v="consider natural=peak for the most distinct mountains in the district" />
		<tag k="name" v="Høgehausen" />
		<tag k="natural" v="hill" />
		<tag k="place" v="locality" />
		<tag k="ssr:stedsnr" v="579675" />
	</node>
	<node id="-540258" lat="61.9279583348" lon="5.29065556452">
		<tag k="name" v="Sekkemyrhaugen" />
		<tag k="natural" v="hill" />
		<tag k="place" v="locality" />
		<tag k="ssr:stedsnr" v="579669" />
	</node>
	<node id="-540256" lat="61.8988848962" lon="5.1068113422">
		<tag k="fixme" v="consider natural=peak for the most distinct mountains in the district" />
		<tag k="name" v="Storenakken" />
		<tag k="natural" v="hill" />
		<tag k="place" v="locality" />
		<tag k="ssr:stedsnr" v="579374" />
	</node>
	<node id="-540253" lat="62.0218166639" lon="5.01499166358">
		<tag k="name" v="Lyngrinden" />
		<tag k="natural" v="hill" />
		<tag k="place" v="locality" />
		<tag k="ssr:stedsnr" v="579351" />
	</node>
	<node id="-540250" lat="61.9385944477" lon="5.38602499077">
		<tag k="fixme" v="consider natural=peak for the most distinct mountains in the district" />
		<tag k="name" v="Årenova" />
		<tag k="natural" v="hill" />
		<tag k="place" v="locality" />
		<tag k="ssr:stedsnr" v="578969" />
	</node>
	<node id="-540249" lat="61.9347666649" lon="5.372030565">
		<tag k="name" v="Almegga" />
		<tag k="natural" v="hill" />
		<tag k="place" v="locality" />
		<tag k="ssr:stedsnr" v="578956" />
	</node>
	<node id="-540248" lat="61.9408666657" lon="5.37464999223">
		<tag k="name" v="Lidavadet" />
		<tag k="place" v="locality" />
		<tag k="ssr:stedsnr" v="578954" />
	</node>
	<node id="-540247" lat="61.9300888853" lon="5.37569166581">
		<tag k="name" v="Åsen" />
		<tag k="natural" v="hill" />
		<tag k="place" v="locality" />
		<tag k="ssr:stedsnr" v="578947" />
	</node>
	<node id="-540245" lat="61.926586113" lon="5.36942221597">
		<tag k="name" v="Nakkane" />
		<tag k="natural" v="hill" />
		<tag k="place" v="locality" />
		<tag k="ssr:stedsnr" v="578944" />
	</node>
	<node id="-540244" lat="61.948263888" lon="5.41996389147">
		<tag k="name" v="Løkedalen" />
		<tag k="natural" v="valley" />
		<tag k="place" v="locality" />
		<tag k="ssr:stedsnr" v="578899" />
	</node>
	<node id="-540242" lat="61.9533027745" lon="5.36119721853">
		<tag k="fixme" v="consider natural=peak for the most distinct mountains in the district" />
		<tag k="name" v="Geithusfjellet" />
		<tag k="natural" v="hill" />
		<tag k="place" v="locality" />
		<tag k="ssr:stedsnr" v="578862" />
	</node>
	<node id="-540241" lat="61.9419250031" lon="5.34453333569">
		<tag k="name" v="Øykedalen" />
		<tag k="natural" v="valley" />
		<tag k="place" v="locality" />
		<tag k="ssr:stedsnr" v="578851" />
	</node>
	<node id="-540239" lat="61.9666777799" lon="5.1588249959">
		<tag k="fixme" v="consider natural=peak for the most distinct mountains in the district" />
		<tag k="name" v="Stifjellet" />
		<tag k="natural" v="hill" />
		<tag k="place" v="locality" />
		<tag k="ssr:stedsnr" v="578702" />
	</node>
	<node id="-540238" lat="61.9665611088" lon="5.1901916704">
		<tag k="fixme" v="consider natural=peak for the most distinct mountains in the district" />
		<tag k="name" v="Blåfjellet" />
		<tag k="natural" v="hill" />
		<tag k="place" v="locality" />
		<tag k="ssr:stedsnr" v="578695" />
	</node>
	<node id="-540237" lat="62.0269861143" lon="5.12257222158">
		<tag k="fixme" v="consider natural=peak for the most distinct mountains in the district" />
		<tag k="name" v="Fura" />
		<tag k="natural" v="hill" />
		<tag k="place" v="locality" />
		<tag k="ssr:stedsnr" v="578690" />
	</node>
	<node id="-540236" lat="62.0017027752" lon="5.14156944629">
		<tag k="name" v="Bakkane" />
		<tag k="place" v="locality" />
		<tag k="ssr:stedsnr" v="578668" />
	</node>
	<node id="-540228" lat="61.9230333343" lon="5.23420555417">
		<tag k="name" v="Hornet" />
		<tag k="natural" v="hill" />
		<tag k="place" v="locality" />
		<tag k="ssr:stedsnr" v="578536" />
	</node>
	<node id="-540225" lat="62.0182333374" lon="5.11376944421">
		<tag k="name" v="Skarvehammaren" />
		<tag k="natural" v="hill" />
		<tag k="place" v="locality" />
		<tag k="ssr:stedsnr" v="578489" />
	</node>
	<node id="-540224" lat="62.0156333311" lon="5.13120278181">
		<tag k="name" v="Tysketuftene" />
		<tag k="place" v="locality" />
		<tag k="ssr:stedsnr" v="578460" />
	</node>
	<node id="-540223" lat="62.0109138898" lon="5.13371389677">
		<tag k="name" v="Kleiva" />
		<tag k="place" v="locality" />
		<tag k="ssr:stedsnr" v="578456" />
	</node>
	<node id="-540221" lat="61.91451667" lon="5.30354444908">
		<tag k="name" v="Elvane" />
		<tag k="natural" v="valley" />
		<tag k="place" v="locality" />
		<tag k="ssr:stedsnr" v="578434" />
	</node>
	<node id="-540218" lat="61.9650916693" lon="5.50787778436">
		<tag k="name" v="Seltuftehaugen" />
		<tag k="natural" v="hill" />
		<tag k="place" v="locality" />
		<tag k="ssr:stedsnr" v="578398" />
	</node>
	<node id="-540216" lat="62.0298111133" lon="5.00409443983">
		<tag k="name" v="Vasshaugen" />
		<tag k="natural" v="hill" />
		<tag k="place" v="locality" />
		<tag k="ssr:stedsnr" v="578007" />
	</node>
	<node id="-540212" lat="62.0174611128" lon="4.99933055202">
		<tag k="fixme" v="consider natural=peak for the most distinct mountains in the district" />
		<tag k="name" v="Mehuken" />
		<tag k="natural" v="hill" />
		<tag k="place" v="locality" />
		<tag k="ssr:stedsnr" v="557596" />
	</node>
	<node id="-540210" lat="61.9086972255" lon="5.05195554985">
		<tag k="alt_name" v="Blåfjell" />
		<tag k="fixme" v="consider natural=peak for the most distinct mountains in the district" />
		<tag k="name" v="Blåfjellet" />
		<tag k="natural" v="hill" />
		<tag k="place" v="locality" />
		<tag k="ssr:stedsnr" v="556979" />
	</node>
	<node id="-540209" lat="61.9531462655" lon="5.02305131041">
		<tag k="fixme" v="consider natural=peak for the most distinct mountains in the district" />
		<tag k="name" v="Hesten" />
		<tag k="natural" v="hill" />
		<tag k="place" v="locality" />
		<tag k="ssr:stedsnr" v="556940" />
	</node>
	<node id="-540205" lat="61.9967138872" lon="5.00763611083">
		<tag k="name" v="Torvhaugen" />
		<tag k="natural" v="hill" />
		<tag k="place" v="locality" />
		<tag k="ssr:stedsnr" v="555484" />
	</node>
	<node id="-540204" lat="61.929749996" lon="5.24400278592">
		<tag k="name" v="Storehornet" />
		<tag k="natural" v="hill" />
		<tag k="place" v="locality" />
		<tag k="ssr:stedsnr" v="555207" />
	</node>
	<node id="-540187" lat="61.92773056" lon="5.35365000854">
		<tag k="name" v="Årøyholene" />
		<tag k="natural" v="valley" />
		<tag k="place" v="locality" />
		<tag k="ssr:stedsnr" v="519939" />
	</node>
	<node id="-540186" lat="61.9594388869" lon="5.35193611226">
		<tag k="name" v="Svartedalen" />
		<tag k="natural" v="valley" />
		<tag k="place" v="locality" />
		<tag k="ssr:stedsnr" v="519890" />
	</node>
	<node id="-540185" lat="61.9608972206" lon="5.35002778469">
		<tag k="name" v="Kjendalen" />
		<tag k="natural" v="valley" />
		<tag k="place" v="locality" />
		<tag k="ssr:stedsnr" v="519889" />
	</node>
	<node id="-540182" lat="61.987202779" lon="5.03415278284">
		<tag k="name" v="Geilane" />
		<tag k="natural" v="hill" />
		<tag k="place" v="locality" />
		<tag k="ssr:stedsnr" v="519396" />
	</node>
	<node id="-540181" lat="62.0185138876" lon="5.01039722318">
		<tag k="name" v="Småhamrane" />
		<tag k="natural" v="hill" />
		<tag k="place" v="locality" />
		<tag k="ssr:stedsnr" v="519370" />
	</node>
	<node id="-540180" lat="62.033802777" lon="4.98603056411">
		<tag k="name" v="Klompen" />
		<tag k="natural" v="hill" />
		<tag k="place" v="locality" />
		<tag k="ssr:stedsnr" v="519367" />
	</node>
	<node id="-540179" lat="61.9686194444" lon="5.06864443699">
		<tag k="name" v="Kollegjølet" />
		<tag k="natural" v="valley" />
		<tag k="place" v="locality" />
		<tag k="ssr:stedsnr" v="519365" />
	</node>
	<node id="-540178" lat="62.0237166636" lon="4.98845555838">
		<tag k="name" v="Oksefallet" />
		<tag k="natural" v="hill" />
		<tag k="place" v="locality" />
		<tag k="ssr:stedsnr" v="519357" />
	</node>
	<node id="-540175" lat="62.0217194404" lon="5.0318694399">
		<tag k="name" v="Storefatet" />
		<tag k="natural" v="hill" />
		<tag k="place" v="locality" />
		<tag k="ssr:stedsnr" v="519327" />
	</node>
	<node id="-540173" lat="61.903588885" lon="5.19130833414">
		<tag k="fixme" v="consider natural=peak for the most distinct mountains in the district" />
		<tag k="name" v="Fjellet" />
		<tag k="natural" v="hill" />
		<tag k="place" v="locality" />
		<tag k="ssr:stedsnr" v="519289" />
	</node>
	<node id="-540172" lat="61.8882305576" lon="5.15807499258">
		<tag k="name" v="Øyrahaugen" />
		<tag k="natural" v="hill" />
		<tag k="place" v="locality" />
		<tag k="ssr:stedsnr" v="519276" />
	</node>
	<node id="-540170" lat="61.940469448" lon="5.4206388963">
		<tag k="name" v="Bjørnahola" />
		<tag k="natural" v="valley" />
		<tag k="place" v="locality" />
		<tag k="ssr:stedsnr" v="518991" />
	</node>
	<node id="-540168" lat="61.9716194402" lon="5.38192500275">
		<tag k="name" v="Langeskogen" />
		<tag k="natural" v="slope" />
		<tag k="place" v="locality" />
		<tag k="ssr:stedsnr" v="518979" />
	</node>
	<node id="-540167" lat="61.9218527807" lon="5.33724722885">
		<tag k="name" v="Krokedalen" />
		<tag k="natural" v="valley" />
		<tag k="place" v="locality" />
		<tag k="ssr:stedsnr" v="518914" />
	</node>
	<node id="-540166" lat="61.951386111" lon="5.41809443666">
		<tag k="name" v="Sauelemmane" />
		<tag k="place" v="locality" />
		<tag k="ssr:stedsnr" v="518910" />
	</node>
	<node id="-540165" lat="61.9537444473" lon="5.41196944905">
		<tag k="name" v="Hjellen" />
		<tag k="place" v="locality" />
		<tag k="ssr:stedsnr" v="518879" />
	</node>
	<node id="-540161" lat="61.9715527774" lon="5.4683888835">
		<tag k="name" v="Dyrhola" />
		<tag k="natural" v="valley" />
		<tag k="place" v="locality" />
		<tag k="ssr:stedsnr" v="518818" />
	</node>
	<node id="-540160" lat="61.9401138885" lon="5.4796305519">
		<tag k="name" v="Maurstaddalen" />
		<tag k="natural" v="valley" />
		<tag k="place" v="locality" />
		<tag k="ssr:stedsnr" v="518807" />
	</node>
	<node id="-540156" lat="61.9541944484" lon="5.44788610289">
		<tag k="fixme" v="consider natural=peak for the most distinct mountains in the district" />
		<tag k="name" v="Rognlinakken" />
		<tag k="natural" v="hill" />
		<tag k="place" v="locality" />
		<tag k="ssr:stedsnr" v="518766" />
	</node>
	<node id="-540155" lat="61.946897224" lon="5.44732499551">
		<tag k="name" v="Novene" />
		<tag k="natural" v="hill" />
		<tag k="place" v="locality" />
		<tag k="ssr:stedsnr" v="518759" />
	</node>
	<node id="-540154" lat="61.9677527778" lon="5.39125555936">
		<tag k="name" v="Svaberga" />
		<tag k="natural" v="hill" />
		<tag k="place" v="locality" />
		<tag k="ssr:stedsnr" v="518751" />
	</node>
	<node id="-540150" lat="61.9973888931" lon="5.13883333175">
		<tag k="name" v="Lynghaugen" />
		<tag k="natural" v="hill" />
		<tag k="place" v="locality" />
		<tag k="ssr:stedsnr" v="518678" />
	</node>
	<node id="-540147" lat="61.936522226" lon="5.14839445268">
		<tag k="name" v="Ulveskorane" />
		<tag k="natural" v="hill" />
		<tag k="place" v="locality" />
		<tag k="ssr:stedsnr" v="518661" />
	</node>
	<node id="-540146" lat="61.939322222" lon="5.16456388017">
		<tag k="name" v="Kvalsheia" />
		<tag k="natural" v="hill" />
		<tag k="place" v="locality" />
		<tag k="ssr:stedsnr" v="518656" />
	</node>
	<node id="-540144" lat="61.9336138858" lon="5.08684444109">
		<tag k="name" v="Hagersmarka" />
		<tag k="place" v="locality" />
		<tag k="ssr:stedsnr" v="518622" />
	</node>
	<node id="-540143" lat="61.9352888926" lon="5.13786111033">
		<tag k="name" v="Rabben" />
		<tag k="natural" v="hill" />
		<tag k="place" v="locality" />
		<tag k="ssr:stedsnr" v="518603" />
	</node>
	<node id="-540142" lat="61.9219694411" lon="5.2955805594">
		<tag k="name" v="Svehaugane" />
		<tag k="natural" v="hill" />
		<tag k="place" v="locality" />
		<tag k="ssr:stedsnr" v="518595" />
	</node>
	<node id="-540137" lat="61.9172027737" lon="5.20231943984">
		<tag k="fixme" v="consider natural=peak for the most distinct mountains in the district" />
		<tag k="name" v="Blåfjellet" />
		<tag k="natural" v="hill" />
		<tag k="place" v="locality" />
		<tag k="ssr:stedsnr" v="518540" />
	</node>
	<node id="-540133" lat="61.9579055601" lon="5.37650555716">
		<tag k="name" v="Øykeholene" />
		<tag k="natural" v="valley" />
		<tag k="place" v="locality" />
		<tag k="ssr:stedsnr" v="518490" />
	</node>
	<node id="-540129" lat="61.9329944442" lon="5.0363416652">
		<tag k="name" v="Vommahaugen" />
		<tag k="natural" v="hill" />
		<tag k="place" v="locality" />
		<tag k="ssr:stedsnr" v="518421" />
	</node>
	<node id="-540126" lat="61.9546416649" lon="5.09794166684">
		<tag k="name" v="Tuftegrø" />
		<tag k="natural" v="hill" />
		<tag k="place" v="locality" />
		<tag k="ssr:stedsnr" v="518243" />
	</node>
	<node id="-540125" lat="62.0280638869" lon="5.00855000399">
		<tag k="name" v="Storesvehaugen" />
		<tag k="natural" v="hill" />
		<tag k="place" v="locality" />
		<tag k="ssr:stedsnr" v="518001" />
	</node>
	<node id="-540124" lat="61.9222777761" lon="5.25631944398">
		<tag k="name" v="Haugeklubben" />
		<tag k="natural" v="hill" />
		<tag k="place" v="locality" />
		<tag k="ssr:stedsnr" v="517575" />
	</node>
	<node id="-540115" lat="62.0054277749" lon="4.99162500955">
		<tag k="name" v="Tjuvardalen" />
		<tag k="natural" v="valley" />
		<tag k="place" v="locality" />
		<tag k="ssr:stedsnr" v="496638" />
	</node>
	<node id="-540110" lat="61.9634750002" lon="5.06768333203">
		<tag k="name" v="Søroppedalen" />
		<tag k="natural" v="valley" />
		<tag k="place" v="locality" />
		<tag k="ssr:stedsnr" v="495951" />
	</node>
	<node id="-540109" lat="61.9938333348" lon="5.14931944495">
		<tag k="alt_name" v="Varden" />
		<tag k="name" v="Veten" />
		<tag k="natural" v="hill" />
		<tag k="place" v="locality" />
		<tag k="ssr:stedsnr" v="495882" />
	</node>
	<node id="-540107" lat="61.9458666691" lon="5.34589445076">
		<tag k="name" v="Blombergtua" />
		<tag k="natural" v="hill" />
		<tag k="place" v="locality" />
		<tag k="ssr:stedsnr" v="495831" />
	</node>
	<node id="-540106" lat="61.9436722191" lon="5.20661110426">
		<tag k="fixme" v="consider natural=peak for the most distinct mountains in the district" />
		<tag k="name" v="Reinenipa" />
		<tag k="natural" v="hill" />
		<tag k="place" v="locality" />
		<tag k="ssr:stedsnr" v="495829" />
	</node>
	<node id="-540105" lat="61.9372194479" lon="5.17482778578">
		<tag k="fixme" v="consider natural=peak for the most distinct mountains in the district" />
		<tag k="name" v="Hanekammen" />
		<tag k="natural" v="hill" />
		<tag k="place" v="locality" />
		<tag k="ssr:stedsnr" v="495822" />
	</node>
	<node id="-540104" lat="61.9088833371" lon="5.07760000518">
		<tag k="alt_name" v="Ramseviknakken" />
		<tag k="name" v="Nakken" />
		<tag k="natural" v="hill" />
		<tag k="place" v="locality" />
		<tag k="ssr:stedsnr" v="495811" />
	</node>
	<node id="-540102" lat="61.9194416636" lon="5.14136111707">
		<tag k="name" v="Høgehaugen" />
		<tag k="natural" v="hill" />
		<tag k="place" v="locality" />
		<tag k="ssr:stedsnr" v="495251" />
	</node>
	<node id="-540096" lat="61.9716083337" lon="5.47888610593">
		<tag k="name" v="Dalen" />
		<tag k="natural" v="valley" />
		<tag k="place" v="locality" />
		<tag k="ssr:stedsnr" v="495050" />
	</node>
	<node id="-540088" lat="62.0186416652" lon="4.99875554841">
		<tag k="fixme" v="consider natural=peak for the most distinct mountains in the district" />
		<tag k="name" v="Kråkeneshornet" />
		<tag k="natural" v="hill" />
		<tag k="ssr:stedsnr" v="481617" />
	</node>
	<node id="-540082" lat="61.9837583357" lon="5.3969333324">
		<tag k="name" v="Kravassberget" />
		<tag k="natural" v="hill" />
		<tag k="place" v="locality" />
		<tag k="ssr:stedsnr" v="458992" />
	</node>
	<node id="-540081" lat="61.9772055578" lon="5.40005556165">
		<tag k="name" v="Vadalen" />
		<tag k="natural" v="valley" />
		<tag k="place" v="locality" />
		<tag k="ssr:stedsnr" v="458991" />
	</node>
	<node id="-540080" lat="61.9410500038" lon="5.40487777079">
		<tag k="fixme" v="consider natural=peak for the most distinct mountains in the district" />
		<tag k="name" v="Høgenakken" />
		<tag k="natural" v="hill" />
		<tag k="place" v="locality" />
		<tag k="ssr:stedsnr" v="458978" />
	</node>
	<node id="-540079" lat="61.9604694474" lon="5.3561000029">
		<tag k="name" v="Skjervane" />
		<tag k="natural" v="slope" />
		<tag k="place" v="locality" />
		<tag k="ssr:stedsnr" v="458910" />
	</node>
	<node id="-540077" lat="61.9694694462" lon="5.4995444423">
		<tag k="name" v="Furenakken" />
		<tag k="natural" v="hill" />
		<tag k="place" v="locality" />
		<tag k="ssr:stedsnr" v="458867" />
	</node>
	<node id="-540076" lat="61.9732472257" lon="5.48977777866">
		<tag k="name" v="Dyrresene" />
		<tag k="natural" v="hill" />
		<tag k="place" v="locality" />
		<tag k="ssr:stedsnr" v="458863" />
	</node>
	<node id="-540075" lat="61.9284638898" lon="5.45936111687">
		<tag k="name" v="Kviteryggen" />
		<tag k="natural" v="ridge" />
		<tag k="place" v="locality" />
		<tag k="ssr:stedsnr" v="458832" />
	</node>
	<node id="-540073" lat="61.9713555574" lon="5.40136945301">
		<tag k="name" v="Langelida" />
		<tag k="natural" v="slope" />
		<tag k="place" v="locality" />
		<tag k="ssr:stedsnr" v="458774" />
	</node>
	<node id="-540070" lat="62.0130777741" lon="5.12216944847">
		<tag k="name" v="Kyrkjevadet" />
		<tag k="place" v="locality" />
		<tag k="ssr:stedsnr" v="458575" />
	</node>
	<node id="-540069" lat="61.9449805581" lon="5.37631111005">
		<tag k="fixme" v="consider natural=peak for the most distinct mountains in the district" />
		<tag k="name" v="Øygardsnakken" />
		<tag k="natural" v="hill" />
		<tag k="place" v="locality" />
		<tag k="ssr:stedsnr" v="458564" />
	</node>
	<node id="-540068" lat="61.9157944466" lon="5.3014083247">
		<tag k="name" v="Flotlidhammaren" />
		<tag k="natural" v="hill" />
		<tag k="place" v="locality" />
		<tag k="ssr:stedsnr" v="458543" />
	</node>
	<node id="-540067" lat="61.9500083362" lon="5.06622222996">
		<tag k="name" v="Litlehornet" />
		<tag k="natural" v="hill" />
		<tag k="place" v="locality" />
		<tag k="ssr:stedsnr" v="458478" />
	</node>
	<node id="-540064" lat="61.9862388931" lon="5.04495277777">
		<tag k="alt_name" v="Storebåtsholet" />
		<tag k="name" v="Storebåtgjølet" />
		<tag k="natural" v="valley" />
		<tag k="place" v="locality" />
		<tag k="ssr:stedsnr" v="458461" />
	</node>
	<node id="-540063" lat="62.0239888922" lon="5.00116945044">
		<tag k="name" v="Reset" />
		<tag k="natural" v="hill" />
		<tag k="place" v="locality" />
		<tag k="ssr:stedsnr" v="458419" />
	</node>
	<node id="-540061" lat="62.0048361111" lon="5.04452777169">
		<tag k="name" v="Heia" />
		<tag k="natural" v="hill" />
		<tag k="place" v="locality" />
		<tag k="ssr:stedsnr" v="458386" />
	</node>
	<node id="-540058" lat="61.9158472201" lon="5.27539444067">
		<tag k="name" v="Buateltet" />
		<tag k="place" v="locality" />
		<tag k="ssr:stedsnr" v="458002" />
	</node>
	<node id="-540055" lat="61.9313944488" lon="5.33606944223">
		<tag k="name" v="Blombakkane" />
		<tag k="natural" v="slope" />
		<tag k="place" v="locality" />
		<tag k="ssr:stedsnr" v="457931" />
	</node>
	<node id="-540054" lat="61.9198749961" lon="5.29264721649">
		<tag k="fixme" v="consider natural=peak for the most distinct mountains in the district" />
		<tag k="name" v="Timråsen" />
		<tag k="natural" v="hill" />
		<tag k="place" v="locality" />
		<tag k="ssr:stedsnr" v="457603" />
	</node>
	<node id="-540052" lat="61.931669441" lon="5.2296666752">
		<tag k="fixme" v="consider natural=peak for the most distinct mountains in the district" />
		<tag k="name" v="Timreåsen" />
		<tag k="natural" v="hill" />
		<tag k="place" v="locality" />
		<tag k="ssr:stedsnr" v="457550" />
	</node>
	<node id="-540050" lat="62.000161115" lon="4.99965832739">
		<tag k="alt_name" v="Einevarddalen" />
		<tag k="name" v="Einevardsdalen" />
		<tag k="natural" v="valley" />
		<tag k="place" v="locality" />
		<tag k="ssr:stedsnr" v="457417" />
	</node>
	<node id="-540046" lat="61.9412333344" lon="5.08097778416">
		<tag k="name" v="Kjerrane" />
		<tag k="natural" v="hill" />
		<tag k="place" v="locality" />
		<tag k="ssr:stedsnr" v="457217" />
	</node>
	<node id="-540032" lat="61.9935416662" lon="5.08681943813">
		<tag k="name" v="Refvikhornet" />
		<tag k="natural" v="hill" />
		<tag k="place" v="locality" />
		<tag k="ssr:stedsnr" v="435969" />
	</node>
	<node id="-540031" lat="61.964961114" lon="5.0892638801">
		<tag k="fixme" v="consider natural=peak for the most distinct mountains in the district" />
		<tag k="name" v="Skadebakken" />
		<tag k="natural" v="hill" />
		<tag k="place" v="locality" />
		<tag k="ssr:stedsnr" v="435961" />
	</node>
	<node id="-540027" lat="61.9991277775" lon="5.11827499237">
		<tag k="fixme" v="consider natural=peak for the most distinct mountains in the district" />
		<tag k="name" v="Ramnereiret" />
		<tag k="natural" v="hill" />
		<tag k="place" v="locality" />
		<tag k="ssr:stedsnr" v="435886" />
	</node>
	<node id="-540007" lat="61.9749444411" lon="5.11276945409">
		<tag k="fixme" v="consider natural=peak for the most distinct mountains in the district" />
		<tag k="name" v="Rysten" />
		<tag k="natural" v="hill" />
		<tag k="place" v="locality" />
		<tag k="ssr:stedsnr" v="263216" />
	</node>
	<node id="-540005" lat="62.0130500002" lon="5.19169722131">
		<tag k="name" v="Vardehaugen" />
		<tag k="natural" v="hill" />
		<tag k="place" v="locality" />
		<tag k="ssr:stedsnr" v="254622" />
	</node>
	<node id="-540002" lat="61.9344027745" lon="5.08966666074">
		<tag k="fixme" v="consider natural=peak for the most distinct mountains in the district" />
		<tag k="name" v="Småvardane" />
		<tag k="natural" v="hill" />
		<tag k="place" v="locality" />
		<tag k="ssr:stedsnr" v="253962" />
	</node>
	<node id="-540001" lat="61.9238888885" lon="5.02548611496">
		<tag k="alt_name" v="Hovdetua" />
		<tag k="name" v="Hovden" />
		<tag k="natural" v="hill" />
		<tag k="place" v="locality" />
		<tag k="ssr:stedsnr" v="253958" />
	</node>
	<node id="-540000" lat="61.9544861074" lon="5.03791945062">
		<tag k="fixme" v="consider natural=peak for the most distinct mountains in the district" />
		<tag k="name" v="Såtetua" />
		<tag k="natural" v="hill" />
		<tag k="place" v="locality" />
		<tag k="ssr:stedsnr" v="253939" />
	</node>
	<node id="-539989" lat="61.9917888922" lon="5.07395277029">
		<tag k="name" v="Traneberget" />
		<tag k="natural" v="hill" />
		<tag k="place" v="locality" />
		<tag k="ssr:stedsnr" v="252929" />
	</node>
	<node id="-539984" lat="61.9505833306" lon="5.37368888645">
		<tag k="alt_name" v="Dyret" />
		<tag k="name" v="Dyrkollen" />
		<tag k="natural" v="hill" />
		<tag k="place" v="locality" />
		<tag k="ssr:stedsnr" v="252773" />
	</node>
	<node id="-539981" lat="61.9704333324" lon="5.48418334289">
		<tag k="name" v="Vassdalshamrane" />
		<tag k="natural" v="hill" />
		<tag k="place" v="locality" />
		<tag k="ssr:stedsnr" v="252046" />
	</node>
	<node id="-539968" lat="61.9776527775" lon="5.38721110793">
		<tag k="name" v="Dyrstihola" />
		<tag k="natural" v="valley" />
		<tag k="place" v="locality" />
		<tag k="ssr:stedsnr" v="215997" />
	</node>
	<node id="-539966" lat="61.9309805542" lon="5.36744445103">
		<tag k="name" v="Nova" />
		<tag k="natural" v="hill" />
		<tag k="place" v="locality" />
		<tag k="ssr:stedsnr" v="215972" />
	</node>
	<node id="-539964" lat="61.9300611154" lon="5.3518388937">
		<tag k="name" v="Smålidene" />
		<tag k="natural" v="slope" />
		<tag k="place" v="locality" />
		<tag k="ssr:stedsnr" v="215960" />
	</node>
	<node id="-539962" lat="61.9554000042" lon="5.39111665708">
		<tag k="fixme" v="consider natural=peak for the most distinct mountains in the district" />
		<tag k="name" v="Hørnet" />
		<tag k="natural" v="hill" />
		<tag k="place" v="locality" />
		<tag k="ssr:stedsnr" v="215915" />
	</node>
	<node id="-539960" lat="61.9692083349" lon="5.49404999071">
		<tag k="name" v="Navelida" />
		<tag k="natural" v="slope" />
		<tag k="place" v="locality" />
		<tag k="ssr:stedsnr" v="215868" />
	</node>
	<node id="-539959" lat="61.9643777745" lon="5.46214721431">
		<tag k="name" v="Lidabakkane" />
		<tag k="natural" v="slope" />
		<tag k="place" v="locality" />
		<tag k="ssr:stedsnr" v="215862" />
	</node>
	<node id="-539958" lat="61.9599055578" lon="5.4933777776">
		<tag k="name" v="Navekvia" />
		<tag k="place" v="locality" />
		<tag k="ssr:stedsnr" v="215832" />
	</node>
	<node id="-539956" lat="61.9534638881" lon="5.4625444355">
		<tag k="name" v="Rognelida" />
		<tag k="natural" v="slope" />
		<tag k="place" v="locality" />
		<tag k="ssr:stedsnr" v="215818" />
	</node>
	<node id="-539955" lat="61.956772226" lon="5.47396944985">
		<tag k="name" v="Toklisloka" />
		<tag k="natural" v="hill" />
		<tag k="place" v="locality" />
		<tag k="ssr:stedsnr" v="215813" />
	</node>
	<node id="-539953" lat="61.9587138909" lon="5.44459444217">
		<tag k="fixme" v="consider natural=peak for the most distinct mountains in the district" />
		<tag k="name" v="Nysetrehornet" />
		<tag k="natural" v="hill" />
		<tag k="place" v="locality" />
		<tag k="ssr:stedsnr" v="215798" />
	</node>
	<node id="-539952" lat="61.9613999969" lon="5.44610554956">
		<tag k="name" v="Kringlebotnen" />
		<tag k="natural" v="valley" />
		<tag k="place" v="locality" />
		<tag k="ssr:stedsnr" v="215795" />
	</node>
	<node id="-539951" lat="61.9712055563" lon="5.16714722182">
		<tag k="name" v="Stonga" />
		<tag k="natural" v="hill" />
		<tag k="place" v="locality" />
		<tag k="ssr:stedsnr" v="215771" />
	</node>
	<node id="-539946" lat="61.9253416679" lon="5.29535277284">
		<tag k="name" v="Sædalen" />
		<tag k="natural" v="valley" />
		<tag k="place" v="locality" />
		<tag k="ssr:stedsnr" v="215660" />
	</node>
	<node id="-539943" lat="61.940222219" lon="5.2141388918">
		<tag k="name" v="Bratthammaren" />
		<tag k="natural" v="hill" />
		<tag k="place" v="locality" />
		<tag k="ssr:stedsnr" v="215627" />
	</node>
	<node id="-539941" lat="62.0220694405" lon="5.11928055419">
		<tag k="name" v="Kjelkasmyra" />
		<tag k="natural" v="hill" />
		<tag k="place" v="locality" />
		<tag k="ssr:stedsnr" v="215582" />
	</node>
	<node id="-539940" lat="62.0094694411" lon="5.13109166835">
		<tag k="name" v="Hovsethornet" />
		<tag k="natural" v="hill" />
		<tag k="place" v="locality" />
		<tag k="ssr:stedsnr" v="215566" />
	</node>
	<node id="-539939" lat="61.9757611155" lon="5.50965832882">
		<tag k="name" v="Rasteskifte" />
		<tag k="place" v="locality" />
		<tag k="ssr:stedsnr" v="215564" />
	</node>
	<node id="-539938" lat="61.9484166691" lon="5.37239999433">
		<tag k="name" v="Høgdelida" />
		<tag k="natural" v="slope" />
		<tag k="place" v="locality" />
		<tag k="ssr:stedsnr" v="215561" />
	</node>
	<node id="-539937" lat="61.9175555531" lon="5.30629722185">
		<tag k="name" v="Vetedalen" />
		<tag k="natural" v="valley" />
		<tag k="place" v="locality" />
		<tag k="ssr:stedsnr" v="215551" />
	</node>
	<node id="-539935" lat="61.9223583357" lon="5.02701111903">
		<tag k="name" v="Kyraskaret" />
		<tag k="natural" v="valley" />
		<tag k="place" v="locality" />
		<tag k="ssr:stedsnr" v="215485" />
	</node>
	<node id="-539932" lat="62.0226666635" lon="4.99750834191">
		<tag k="name" v="Kupene" />
		<tag k="natural" v="hill" />
		<tag k="place" v="locality" />
		<tag k="ssr:stedsnr" v="215429" />
	</node>
	<node id="-539931" lat="62.003619447" lon="5.00248334122">
		<tag k="fixme" v="consider natural=peak for the most distinct mountains in the district" />
		<tag k="name" v="Kvalheimshornet" />
		<tag k="natural" v="hill" />
		<tag k="place" v="locality" />
		<tag k="ssr:stedsnr" v="215416" />
	</node>
	<node id="-539930" lat="62.0192416664" lon="5.00151667482">
		<tag k="name" v="Dyrskora" />
		<tag k="natural" v="valley" />
		<tag k="place" v="locality" />
		<tag k="ssr:stedsnr" v="215413" />
	</node>
	<node id="-539928" lat="62.0216583322" lon="5.03709999775">
		<tag k="name" v="Kievikbrunene" />
		<tag k="natural" v="mountain_range" />
		<tag k="ssr:stedsnr" v="215374" />
	</node>
	<node id="-539925" lat="61.9401472244" lon="5.10413610942">
		<tag k="name" v="Hestehaugen" />
		<tag k="natural" v="hill" />
		<tag k="place" v="locality" />
		<tag k="ssr:stedsnr" v="215333" />
	</node>
	<node id="-539922" lat="61.9193250042" lon="5.2613527823">
		<tag k="name" v="Vassliberget" />
		<tag k="natural" v="hill" />
		<tag k="place" v="locality" />
		<tag k="ssr:stedsnr" v="214579" />
	</node>
	<node id="-539921" lat="61.9284638906" lon="5.24091388985">
		<tag k="name" v="Heia" />
		<tag k="natural" v="hill" />
		<tag k="place" v="locality" />
		<tag k="ssr:stedsnr" v="214575" />
	</node>
	<node id="-539919" lat="62.0266999984" lon="5.11844722781">
		<tag k="fixme" v="consider natural=peak for the most distinct mountains in the district" />
		<tag k="name" v="Bratteskjenet" />
		<tag k="natural" v="hill" />
		<tag k="place" v="locality" />
		<tag k="ssr:stedsnr" v="203305" />
	</node>
	<node id="-539916" lat="62.0247777791" lon="5.11697221883">
		<tag k="name" v="Bratteskin" />
		<tag k="natural" v="hill" />
		<tag k="place" v="locality" />
		<tag k="ssr:stedsnr" v="193656" />
	</node>
	<node id="-539912" lat="61.9017222242" lon="5.06535833361">
		<tag k="fixme" v="consider natural=peak for the most distinct mountains in the district" />
		<tag k="name" v="Krabbestigheida" />
		<tag k="natural" v="hill" />
		<tag k="place" v="locality" />
		<tag k="ssr:stedsnr" v="192999" />
	</node>
	<node id="-539911" lat="61.9121055599" lon="5.02666389412">
		<tag k="name" v="Flatheida" />
		<tag k="natural" v="hill" />
		<tag k="place" v="locality" />
		<tag k="ssr:stedsnr" v="192979" />
	</node>
	<node id="-539905" lat="61.981286107" lon="5.12404167246">
		<tag k="name" v="Vardefjellet" />
		<tag k="natural" v="hill" />
		<tag k="place" v="locality" />
		<tag k="ssr:stedsnr" v="192897" />
	</node>
	<node id="-539898" lat="61.967355555" lon="5.18200000265">
		<tag k="name" v="Einedalen" />
		<tag k="natural" v="valley" />
		<tag k="place" v="locality" />
		<tag k="ssr:stedsnr" v="192795" />
	</node>
	<node id="-539885" lat="61.9314833343" lon="5.35433055371">
		<tag k="name" v="Smålidhaugane" />
		<tag k="natural" v="hill" />
		<tag k="place" v="locality" />
		<tag k="ssr:stedsnr" v="155945" />
	</node>
	<node id="-539884" lat="61.940677779" lon="5.35193333633">
		<tag k="name" v="Kjendalslida" />
		<tag k="natural" v="slope" />
		<tag k="place" v="locality" />
		<tag k="ssr:stedsnr" v="155930" />
	</node>
	<node id="-539883" lat="61.951705553" lon="5.39041666179">
		<tag k="name" v="Hatledalen" />
		<tag k="natural" v="valley" />
		<tag k="place" v="locality" />
		<tag k="ssr:stedsnr" v="155894" />
	</node>
	<node id="-539882" lat="61.9534805597" lon="5.39772778274">
		<tag k="name" v="Skaret" />
		<tag k="natural" v="valley" />
		<tag k="place" v="locality" />
		<tag k="ssr:stedsnr" v="155891" />
	</node>
	<node id="-539881" lat="61.9563777752" lon="5.40429722797">
		<tag k="name" v="Ormehaugen" />
		<tag k="natural" v="hill" />
		<tag k="place" v="locality" />
		<tag k="ssr:stedsnr" v="155879" />
	</node>
	<node id="-539880" lat="61.9299194441" lon="5.2946472151">
		<tag k="name" v="Kuhaugen" />
		<tag k="natural" v="hill" />
		<tag k="place" v="locality" />
		<tag k="ssr:stedsnr" v="155578" />
	</node>
	<node id="-539877" lat="61.9786472214" lon="5.38305833981">
		<tag k="name" v="Korsbakken" />
		<tag k="natural" v="slope" />
		<tag k="place" v="locality" />
		<tag k="ssr:stedsnr" v="154981" />
	</node>
	<node id="-539875" lat="61.9689972217" lon="5.46646944461">
		<tag k="name" v="Furehovden" />
		<tag k="natural" v="hill" />
		<tag k="place" v="locality" />
		<tag k="ssr:stedsnr" v="154847" />
	</node>
	<node id="-539874" lat="61.947672219" lon="5.48233611918">
		<tag k="name" v="Hjellskaret" />
		<tag k="natural" v="valley" />
		<tag k="place" v="locality" />
		<tag k="ssr:stedsnr" v="154818" />
	</node>
	<node id="-539873" lat="61.9498722179" lon="5.44373332856">
		<tag k="name" v="Kvievassdalen" />
		<tag k="natural" v="valley" />
		<tag k="place" v="locality" />
		<tag k="ssr:stedsnr" v="154807" />
	</node>
	<node id="-539872" lat="61.9792527805" lon="5.16823889219">
		<tag k="alt_name" v="Hjertaneshornet" />
		<tag k="fixme" v="consider natural=peak for the most distinct mountains in the district" />
		<tag k="name" v="Hjartaneshornet" />
		<tag k="natural" v="hill" />
		<tag k="place" v="locality" />
		<tag k="ssr:stedsnr" v="154772" />
	</node>
	<node id="-539870" lat="61.9935638882" lon="5.13350833961">
		<tag k="name" v="Røysaskjenet" />
		<tag k="natural" v="hill" />
		<tag k="place" v="locality" />
		<tag k="ssr:stedsnr" v="154754" />
	</node>
	<node id="-539867" lat="61.940908334" lon="5.17159166429">
		<tag k="name" v="Søre Skjenet" />
		<tag k="place" v="locality" />
		<tag k="ssr:stedsnr" v="154720" />
	</node>
	<node id="-539865" lat="61.9293305548" lon="5.3083583243">
		<tag k="fixme" v="consider natural=peak for the most distinct mountains in the district" />
		<tag k="name" v="Ormenakken" />
		<tag k="natural" v="hill" />
		<tag k="place" v="locality" />
		<tag k="ssr:stedsnr" v="154697" />
	</node>
	<node id="-539864" lat="61.9387444444" lon="5.21077221964">
		<tag k="fixme" v="consider natural=peak for the most distinct mountains in the district" />
		<tag k="name" v="Skarfjellet" />
		<tag k="natural" v="hill" />
		<tag k="place" v="locality" />
		<tag k="ssr:stedsnr" v="154658" />
	</node>
	<node id="-539860" lat="61.9741583325" lon="5.50457221648">
		<tag k="name" v="Tjørnarustene" />
		<tag k="natural" v="hill" />
		<tag k="place" v="locality" />
		<tag k="ssr:stedsnr" v="154571" />
	</node>
	<node id="-539859" lat="61.948547222" lon="5.37851944725">
		<tag k="name" v="Heia" />
		<tag k="natural" v="hill" />
		<tag k="place" v="locality" />
		<tag k="ssr:stedsnr" v="154569" />
	</node>
	<node id="-539858" lat="61.915069442" lon="5.31839999641">
		<tag k="name" v="Tofteløkjelen" />
		<tag k="natural" v="hill" />
		<tag k="place" v="locality" />
		<tag k="ssr:stedsnr" v="154556" />
	</node>
	<node id="-539857" lat="61.9170194438" lon="5.30819999976">
		<tag k="name" v="Kjerneskaret" />
		<tag k="natural" v="valley" />
		<tag k="place" v="locality" />
		<tag k="ssr:stedsnr" v="154551" />
	</node>
	<node id="-539855" lat="61.9044611138" lon="5.06018333315">
		<tag k="name" v="Krabbestigskaret" />
		<tag k="natural" v="valley" />
		<tag k="place" v="locality" />
		<tag k="ssr:stedsnr" v="154531" />
	</node>
	<node id="-539854" lat="61.9703972246" lon="5.5212555605">
		<tag k="name" v="Reshaugane" />
		<tag k="natural" v="hill" />
		<tag k="place" v="locality" />
		<tag k="ssr:stedsnr" v="154519" />
	</node>
	<node id="-539852" lat="61.9757416702" lon="5.0570861164">
		<tag k="name" v="Kjeskora" />
		<tag k="natural" v="valley" />
		<tag k="place" v="locality" />
		<tag k="ssr:stedsnr" v="154473" />
	</node>
	<node id="-539849" lat="61.932272219" lon="5.10612500874">
		<tag k="fixme" v="consider natural=peak for the most distinct mountains in the district" />
		<tag k="name" v="Ellingskarshornet" />
		<tag k="natural" v="hill" />
		<tag k="place" v="locality" />
		<tag k="ssr:stedsnr" v="154705" />
	</node>
	<node id="-539847" lat="61.9823000012" lon="5.45463889249">
		<tag k="name" v="Kupehonnet" />
		<tag k="natural" v="hill" />
		<tag k="place" v="locality" />
		<tag k="ssr:stedsnr" v="147286" />
	</node>
	<node id="-539841" lat="62.0041472191" lon="5.062041667">
		<tag k="fixme" v="consider natural=peak for the most distinct mountains in the district" />
		<tag k="name" v="Kjerringa" />
		<tag k="natural" v="hill" />
		<tag k="place" v="locality" />
		<tag k="ssr:stedsnr" v="132638" />
	</node>
	<node id="-539835" lat="61.9886694407" lon="5.00425555558">
		<tag k="fixme" v="consider natural=peak for the most distinct mountains in the district" />
		<tag k="name" v="Nedrefjellet" />
		<tag k="natural" v="hill" />
		<tag k="place" v="locality" />
		<tag k="ssr:stedsnr" v="131965" />
	</node>
	<node id="-539834" lat="61.9758972215" lon="5.06259443642">
		<tag k="name" v="Stallbrekka" />
		<tag k="natural" v="hill" />
		<tag k="place" v="locality" />
		<tag k="ssr:stedsnr" v="131959" />
	</node>
	<node id="-539832" lat="61.9570361091" lon="5.4636083317">
		<tag k="name" v="Totlidegga" />
		<tag k="natural" v="hill" />
		<tag k="place" v="locality" />
		<tag k="ssr:stedsnr" v="131840" />
	</node>
	<node id="-539831" lat="61.954458332" lon="5.33202221451">
		<tag k="name" v="Langedalsegga" />
		<tag k="natural" v="hill" />
		<tag k="place" v="locality" />
		<tag k="ssr:stedsnr" v="131831" />
	</node>
	<node id="-539830" lat="61.9469305535" lon="5.23328334186">
		<tag k="fixme" v="consider natural=peak for the most distinct mountains in the district" />
		<tag k="name" v="Alskartinden" />
		<tag k="natural" v="hill" />
		<tag k="place" v="locality" />
		<tag k="ssr:stedsnr" v="131827" />
	</node>
	<node id="-539828" lat="61.9695166636" lon="5.08957778034">
		<tag k="name" v="Oppedalen" />
		<tag k="natural" v="valley" />
		<tag k="place" v="locality" />
		<tag k="ssr:stedsnr" v="131787" />
	</node>
	<node id="-539827" lat="61.9820444475" lon="5.41246944015">
		<tag k="fixme" v="consider natural=peak for the most distinct mountains in the district" />
		<tag k="name" v="Kongsvarden" />
		<tag k="natural" v="hill" />
		<tag k="place" v="locality" />
		<tag k="ssr:stedsnr" v="131778" />
	</node>
	<node id="-539826" lat="62.0001944457" lon="5.11756388334">
		<tag k="fixme" v="consider natural=peak for the most distinct mountains in the district" />
		<tag k="name" v="Børahornet" />
		<tag k="natural" v="hill" />
		<tag k="place" v="locality" />
		<tag k="ssr:stedsnr" v="131665" />
	</node>
	<node id="-539817" lat="61.9596722225" lon="5.43609166561">
		<tag k="fixme" v="consider natural=peak for the most distinct mountains in the district" />
		<tag k="name" v="Menakken" />
		<tag k="natural" v="hill" />
		<tag k="place" v="locality" />
		<tag k="ssr:stedsnr" v="94932" />
	</node>
	<node id="-539816" lat="61.9528444407" lon="5.39388889014">
		<tag k="fixme" v="consider natural=peak for the most distinct mountains in the district" />
		<tag k="name" v="Nakken" />
		<tag k="natural" v="hill" />
		<tag k="place" v="locality" />
		<tag k="ssr:stedsnr" v="94929" />
	</node>
	<node id="-539812" lat="61.9870527806" lon="5.04177223088">
		<tag k="name" v="Tinden" />
		<tag k="natural" v="hill" />
		<tag k="place" v="locality" />
		<tag k="ssr:stedsnr" v="94465" />
	</node>
	<node id="-539810" lat="61.9109333372" lon="5.14786944596">
		<tag k="name" v="Vindhammaren" />
		<tag k="natural" v="hill" />
		<tag k="place" v="locality" />
		<tag k="ssr:stedsnr" v="94351" />
	</node>
	<node id="-539806" lat="61.9376638905" lon="5.35731667419">
		<tag k="name" v="Brauta" />
		<tag k="natural" v="slope" />
		<tag k="place" v="locality" />
		<tag k="ssr:stedsnr" v="93964" />
	</node>
	<node id="-539805" lat="61.93616111" lon="5.40090832915">
		<tag k="name" v="Langedalen" />
		<tag k="natural" v="valley" />
		<tag k="place" v="locality" />
		<tag k="ssr:stedsnr" v="93959" />
	</node>
	<node id="-539803" lat="61.929047219" lon="5.3690277805">
		<tag k="name" v="Strupen" />
		<tag k="natural" v="hill" />
		<tag k="place" v="locality" />
		<tag k="ssr:stedsnr" v="93930" />
	</node>
	<node id="-539802" lat="61.9378750028" lon="5.33799444506">
		<tag k="name" v="Dyrhaugen" />
		<tag k="natural" v="hill" />
		<tag k="place" v="locality" />
		<tag k="ssr:stedsnr" v="93882" />
	</node>
	<node id="-539801" lat="61.9510749983" lon="5.41238611832">
		<tag k="name" v="Sendebakkane" />
		<tag k="natural" v="slope" />
		<tag k="place" v="locality" />
		<tag k="ssr:stedsnr" v="93880" />
	</node>
	<node id="-539800" lat="61.9453361114" lon="5.42151110818">
		<tag k="name" v="Storskaret" />
		<tag k="natural" v="valley" />
		<tag k="place" v="locality" />
		<tag k="ssr:stedsnr" v="93876" />
	</node>
	<node id="-539799" lat="61.9436527796" lon="5.41211111431">
		<tag k="fixme" v="consider natural=peak for the most distinct mountains in the district" />
		<tag k="name" v="Gjesdalsegga" />
		<tag k="natural" v="hill" />
		<tag k="place" v="locality" />
		<tag k="ssr:stedsnr" v="93874" />
	</node>
	<node id="-539798" lat="61.9687138869" lon="5.49002223091">
		<tag k="name" v="Orrehaugen" />
		<tag k="natural" v="hill" />
		<tag k="place" v="locality" />
		<tag k="ssr:stedsnr" v="93785" />
	</node>
	<node id="-539796" lat="61.9318999956" lon="5.46710000147">
		<tag k="name" v="Dauremålskaret" />
		<tag k="natural" v="valley" />
		<tag k="place" v="locality" />
		<tag k="ssr:stedsnr" v="93750" />
	</node>
	<node id="-539795" lat="61.9311472234" lon="5.44844999095">
		<tag k="name" v="Ørnehaugen" />
		<tag k="natural" v="hill" />
		<tag k="place" v="locality" />
		<tag k="ssr:stedsnr" v="93740" />
	</node>
	<node id="-539793" lat="61.9550777782" lon="5.4538277686">
		<tag k="name" v="Hornsessen" />
		<tag k="natural" v="hill" />
		<tag k="place" v="locality" />
		<tag k="ssr:stedsnr" v="93711" />
	</node>
	<node id="-539792" lat="61.9474333356" lon="5.35036945026">
		<tag k="name" v="Holedalen" />
		<tag k="natural" v="valley" />
		<tag k="place" v="locality" />
		<tag k="ssr:stedsnr" v="93832" />
	</node>
	<node id="-539791" lat="61.9687277807" lon="5.41082777635">
		<tag k="name" v="Bjørnahola" />
		<tag k="natural" v="valley" />
		<tag k="place" v="locality" />
		<tag k="ssr:stedsnr" v="93685" />
	</node>
	<node id="-539789" lat="61.9978805551" lon="5.12538333632">
		<tag k="fixme" v="consider natural=peak for the most distinct mountains in the district" />
		<tag k="name" v="Langerinden" />
		<tag k="natural" v="hill" />
		<tag k="place" v="locality" />
		<tag k="ssr:stedsnr" v="93644" />
	</node>
	<node id="-539788" lat="61.990663887" lon="5.13163610963">
		<tag k="name" v="Ørna" />
		<tag k="natural" v="hill" />
		<tag k="place" v="locality" />
		<tag k="ssr:stedsnr" v="93629" />
	</node>
	<node id="-539783" lat="61.925463892" lon="5.14060832708">
		<tag k="name" v="Kulen" />
		<tag k="natural" v="hill" />
		<tag k="place" v="locality" />
		<tag k="ssr:stedsnr" v="93557" />
	</node>
	<node id="-539779" lat="61.9019694427" lon="5.19985555309">
		<tag k="name" v="Nestoppen" />
		<tag k="natural" v="hill" />
		<tag k="place" v="locality" />
		<tag k="ssr:stedsnr" v="93469" />
	</node>
	<node id="-539776" lat="62.0060694401" lon="5.12964165937">
		<tag k="name" v="Laurdalen" />
		<tag k="natural" v="valley" />
		<tag k="place" v="locality" />
		<tag k="ssr:stedsnr" v="93446" />
	</node>
	<node id="-539774" lat="61.9445166644" lon="5.36275000636">
		<tag k="name" v="Setrekviene" />
		<tag k="place" v="locality" />
		<tag k="ssr:stedsnr" v="93423" />
	</node>
	<node id="-539772" lat="61.9644222252" lon="5.53526943902">
		<tag k="fixme" v="consider natural=peak for the most distinct mountains in the district" />
		<tag k="name" v="Høgelidegga" />
		<tag k="natural" v="hill" />
		<tag k="place" v="locality" />
		<tag k="ssr:stedsnr" v="93390" />
	</node>
	<node id="-539771" lat="61.964122225" lon="5.52082222182">
		<tag k="name" v="Brattebrauta" />
		<tag k="natural" v="slope" />
		<tag k="place" v="locality" />
		<tag k="ssr:stedsnr" v="93383" />
	</node>
	<node id="-539770" lat="61.96723889" lon="5.50285277535">
		<tag k="name" v="Storekvia" />
		<tag k="natural" v="hill" />
		<tag k="place" v="locality" />
		<tag k="ssr:stedsnr" v="93379" />
	</node>
	<node id="-539764" lat="61.9771999967" lon="5.44554722005">
		<tag k="name" v="Vardane" />
		<tag k="natural" v="slope" />
		<tag k="place" v="locality" />
		<tag k="ssr:stedsnr" v="86291" />
	</node>
	<node id="-539760" lat="61.9484861111" lon="5.09185000786">
		<tag k="fixme" v="consider natural=peak for the most distinct mountains in the district" />
		<tag k="name" v="Veten" />
		<tag k="natural" v="hill" />
		<tag k="place" v="locality" />
		<tag k="ssr:stedsnr" v="71983" />
	</node>
	<node id="-539759" lat="61.9399777781" lon="5.06763888888">
		<tag k="fixme" v="consider natural=peak for the most distinct mountains in the district" />
		<tag k="name" v="Stabakken" />
		<tag k="natural" v="hill" />
		<tag k="place" v="locality" />
		<tag k="ssr:stedsnr" v="71980" />
	</node>
	<node id="-539756" lat="61.9969944406" lon="5.06648056362">
		<tag k="name" v="Skaret" />
		<tag k="natural" v="valley" />
		<tag k="place" v="locality" />
		<tag k="ssr:stedsnr" v="71584" />
	</node>
	<node id="-539753" lat="61.9822249971" lon="5.4678583427">
		<tag k="fixme" v="consider natural=peak for the most distinct mountains in the district" />
		<tag k="name" v="Kyrnosa" />
		<tag k="natural" v="hill" />
		<tag k="place" v="locality" />
		<tag k="ssr:stedsnr" v="71049" />
	</node>
	<node id="-539752" lat="61.9398166706" lon="5.34189445317">
		<tag k="alt_name" v="Stordalen" />
		<tag k="name" v="Storedalen" />
		<tag k="natural" v="valley" />
		<tag k="place" v="locality" />
		<tag k="ssr:stedsnr" v="70797" />
	</node>
	<node id="-539749" lat="61.9614916692" lon="5.4203833343">
		<tag k="name" v="Hestedalsegga" />
		<tag k="natural" v="hill" />
		<tag k="place" v="locality" />
		<tag k="ssr:stedsnr" v="70775" />
	</node>
	<node id="-539746" lat="61.9206305578" lon="5.16008888771">
		<tag k="name" v="Raudhaugen" />
		<tag k="natural" v="hill" />
		<tag k="place" v="locality" />
		<tag k="ssr:stedsnr" v="70227" />
	</node>
	<node id="-539733" lat="61.9344555534" lon="5.40054999663">
		<tag k="name" v="Bryggehaugane" />
		<tag k="natural" v="hill" />
		<tag k="place" v="locality" />
		<tag k="ssr:stedsnr" v="33968" />
	</node>
	<node id="-539732" lat="61.935661111" lon="5.36873887979">
		<tag k="name" v="Langedalsrabben" />
		<tag k="natural" v="hill" />
		<tag k="place" v="locality" />
		<tag k="ssr:stedsnr" v="33965" />
	</node>
	<node id="-539731" lat="61.9259555533" lon="5.37872223145">
		<tag k="name" v="Lidaberget" />
		<tag k="natural" v="hill" />
		<tag k="place" v="locality" />
		<tag k="ssr:stedsnr" v="33957" />
	</node>
	<node id="-539729" lat="61.9336861075" lon="5.34926111347">
		<tag k="name" v="Bukvia" />
		<tag k="place" v="locality" />
		<tag k="ssr:stedsnr" v="33950" />
	</node>
	<node id="-539727" lat="61.9504527747" lon="5.40858056071">
		<tag k="fixme" v="consider natural=peak for the most distinct mountains in the district" />
		<tag k="name" v="Reiterabben" />
		<tag k="natural" v="hill" />
		<tag k="place" v="locality" />
		<tag k="ssr:stedsnr" v="33916" />
	</node>
	<node id="-539726" lat="61.9491555534" lon="5.42369166974">
		<tag k="name" v="Løkeskaret" />
		<tag k="natural" v="valley" />
		<tag k="place" v="locality" />
		<tag k="ssr:stedsnr" v="33910" />
	</node>
	<node id="-539725" lat="61.9538666667" lon="5.41546111841">
		<tag k="name" v="Løypinga" />
		<tag k="natural" v="slope" />
		<tag k="place" v="locality" />
		<tag k="ssr:stedsnr" v="33891" />
	</node>
	<node id="-539724" lat="61.9727500023" lon="5.49907222799">
		<tag k="name" v="Monskvihammaren" />
		<tag k="natural" v="hill" />
		<tag k="place" v="locality" />
		<tag k="ssr:stedsnr" v="33857" />
	</node>
	<node id="-539723" lat="61.9755277784" lon="5.4725972245">
		<tag k="name" v="Blåhammarhaugane" />
		<tag k="natural" v="hill" />
		<tag k="place" v="locality" />
		<tag k="ssr:stedsnr" v="33843" />
	</node>
	<node id="-539721" lat="61.9635972262" lon="5.4408166636">
		<tag k="fixme" v="consider natural=peak for the most distinct mountains in the district" />
		<tag k="name" v="Ørnafjellet" />
		<tag k="natural" v="hill" />
		<tag k="place" v="locality" />
		<tag k="ssr:stedsnr" v="33778" />
	</node>
	<node id="-539719" lat="61.9657694444" lon="5.3882694524">
		<tag k="name" v="Hjellbakkane" />
		<tag k="natural" v="slope" />
		<tag k="place" v="locality" />
		<tag k="ssr:stedsnr" v="33774" />
	</node>
	<node id="-539716" lat="61.9814888899" lon="5.18886389812">
		<tag k="name" v="Jerningshaugen" />
		<tag k="natural" v="hill" />
		<tag k="place" v="locality" />
		<tag k="ssr:stedsnr" v="33749" />
	</node>
	<node id="-539715" lat="61.9375916705" lon="5.15215554614">
		<tag k="fixme" v="consider natural=peak for the most distinct mountains in the district" />
		<tag k="name" v="Blåfjellet" />
		<tag k="natural" v="hill" />
		<tag k="place" v="locality" />
		<tag k="ssr:stedsnr" v="33721" />
	</node>
	<node id="-539709" lat="61.9130055535" lon="5.23299166474">
		<tag k="name" v="Ospehaugen" />
		<tag k="natural" v="hill" />
		<tag k="place" v="locality" />
		<tag k="ssr:stedsnr" v="33601" />
	</node>
	<node id="-539708" lat="61.9181388856" lon="5.22819166277">
		<tag k="name" v="Kringlehaugane" />
		<tag k="natural" v="hill" />
		<tag k="place" v="locality" />
		<tag k="ssr:stedsnr" v="33599" />
	</node>
	<node id="-539707" lat="62.0258666645" lon="5.12175555375">
		<tag k="name" v="Vikahornet" />
		<tag k="natural" v="hill" />
		<tag k="place" v="locality" />
		<tag k="ssr:stedsnr" v="33597" />
	</node>
	<node id="-539706" lat="62.0189611069" lon="5.11964444426">
		<tag k="name" v="Høgenobba" />
		<tag k="natural" v="hill" />
		<tag k="place" v="locality" />
		<tag k="ssr:stedsnr" v="33595" />
	</node>
	<node id="-539705" lat="62.0069555525" lon="5.1144583324">
		<tag k="name" v="Storehaugen" />
		<tag k="natural" v="hill" />
		<tag k="place" v="locality" />
		<tag k="ssr:stedsnr" v="33582" />
	</node>
	<node id="-539703" lat="61.9517444484" lon="5.37644165759">
		<tag k="name" v="Dyrsloka" />
		<tag k="natural" v="slope" />
		<tag k="place" v="locality" />
		<tag k="ssr:stedsnr" v="33565" />
	</node>
	<node id="-539701" lat="61.9187999995" lon="5.28300832891">
		<tag k="name" v="Vasshamrane" />
		<tag k="natural" v="hill" />
		<tag k="place" v="locality" />
		<tag k="ssr:stedsnr" v="33540" />
	</node>
	<node id="-539699" lat="61.9685277782" lon="5.51130833364">
		<tag k="fixme" v="consider natural=peak for the most distinct mountains in the district" />
		<tag k="name" v="Hjellnakken" />
		<tag k="natural" v="hill" />
		<tag k="place" v="locality" />
		<tag k="ssr:stedsnr" v="33501" />
	</node>
	<node id="-539697" lat="61.9646333351" lon="5.5111527833">
		<tag k="name" v="Goslokene" />
		<tag k="natural" v="slope" />
		<tag k="place" v="locality" />
		<tag k="ssr:stedsnr" v="33497" />
	</node>
	<node id="-539696" lat="61.973002777" lon="5.50977221645">
		<tag k="name" v="Labrusnakken" />
		<tag k="natural" v="hill" />
		<tag k="place" v="locality" />
		<tag k="ssr:stedsnr" v="33495" />
	</node>
	<node id="-539695" lat="62.0023277775" lon="5.06319443918">
		<tag k="name" v="Nautefallet" />
		<tag k="natural" v="hill" />
		<tag k="place" v="locality" />
		<tag k="ssr:stedsnr" v="33437" />
	</node>
	<node id="-539694" lat="62.0036194426" lon="4.98898333723">
		<tag k="name" v="Solane" />
		<tag k="natural" v="slope" />
		<tag k="place" v="locality" />
		<tag k="ssr:stedsnr" v="33415" />
	</node>
	<node id="-539693" lat="62.0131888905" lon="5.02106388975">
		<tag k="name" v="Klovsteinhaugen" />
		<tag k="natural" v="hill" />
		<tag k="place" v="locality" />
		<tag k="ssr:stedsnr" v="33380" />
	</node>
	<node id="-539689" lat="61.9539999969" lon="5.12086388962">
		<tag k="name" v="Gottebergsdalen" />
		<tag k="natural" v="valley" />
		<tag k="place" v="locality" />
		<tag k="ssr:stedsnr" v="33312" />
	</node>
	<node id="-539687" lat="62.0326555537" lon="4.99164445406">
		<tag k="name" v="Hardtua" />
		<tag k="natural" v="hill" />
		<tag k="place" v="locality" />
		<tag k="ssr:stedsnr" v="33019" />
	</node>
	<node id="-539685" lat="61.9143805573" lon="5.27821944764">
		<tag k="name" v="Skaret" />
		<tag k="natural" v="valley" />
		<tag k="place" v="locality" />
		<tag k="ssr:stedsnr" v="33006" />
	</node>
	<node id="-539684" lat="61.9991194406" lon="5.00864165836">
		<tag k="name" v="Hesteskaret" />
		<tag k="natural" v="valley" />
		<tag k="place" v="locality" />
		<tag k="ssr:stedsnr" v="32355" />
	</node>
	<node id="-539681" lat="62.018411108" lon="5.02239721957">
		<tag k="name" v="Elvekrokane" />
		<tag k="natural" v="valley" />
		<tag k="place" v="locality" />
		<tag k="ssr:stedsnr" v="11633" />
	</node>
	<node id="-539679" lat="61.9133027736" lon="5.06091388447">
		<tag k="name" v="Stegane" />
		<tag k="natural" v="slope" />
		<tag k="place" v="locality" />
		<tag k="ssr:stedsnr" v="10980" />
	</node>
	<node id="-539676" lat="61.9549777785" lon="5.06604999985">
		<tag k="fixme" v="consider natural=peak for the most distinct mountains in the district" />
		<tag k="name" v="Storehornet" />
		<tag k="natural" v="hill" />
		<tag k="place" v="locality" />
		<tag k="ssr:stedsnr" v="10969" />
	</node>
	<node id="-539675" lat="61.9741972228" lon="5.08213888784">
		<tag k="fixme" v="consider natural=peak for the most distinct mountains in the district" />
		<tag k="name" v="Blåfjellet" />
		<tag k="natural" v="hill" />
		<tag k="place" v="locality" />
		<tag k="ssr:stedsnr" v="10950" />
	</node>
	<node id="-539673" lat="61.9704527742" lon="5.44058332682">
		<tag k="name" v="Kalvedalen" />
		<tag k="natural" v="valley" />
		<tag k="place" v="locality" />
		<tag k="ssr:stedsnr" v="10796" />
	</node>
	<node id="-539671" lat="61.938141666" lon="5.48310277906">
		<tag k="name" v="Maurstadkleiva" />
		<tag k="natural" v="valley" />
		<tag k="place" v="locality" />
		<tag k="ssr:stedsnr" v="10479" />
	</node>
	<node id="-539670" lat="61.9356944438" lon="5.31764166647">
		<tag k="name" v="Bleikemerra" />
		<tag k="natural" v="hill" />
		<tag k="place" v="locality" />
		<tag k="ssr:stedsnr" v="10247" />
	</node>
	<node id="-539668" lat="61.9285722244" lon="5.29832499457">
		<tag k="name" v="Raudeggedalen" />
		<tag k="natural" v="valley" />
		<tag k="place" v="locality" />
		<tag k="ssr:stedsnr" v="10244" />
	</node>
	<node id="-539667" lat="61.9138694476" lon="5.27374444542">
		<tag k="fixme" v="consider natural=peak for the most distinct mountains in the district" />
		<tag k="name" v="Nakken" />
		<tag k="natural" v="hill" />
		<tag k="place" v="locality" />
		<tag k="ssr:stedsnr" v="10224" />
	</node>
	<node id="-539659" lat="61.9345777786" lon="5.34659722032">
		<tag k="fixme" v="consider natural=peak for the most distinct mountains in the district" />
		<tag k="name" v="Rotekliprabben" />
		<tag k="natural" v="hill" />
		<tag k="place" v="locality" />
		<tag k="ssr:stedsnr" v="883972" />
	</node>
	<node id="-539658" lat="61.9270388902" lon="5.34559445167">
		<tag k="name" v="Årøyrabben" />
		<tag k="natural" v="hill" />
		<tag k="place" v="locality" />
		<tag k="ssr:stedsnr" v="883963" />
	</node>
	<node id="-539657" lat="61.9552166676" lon="5.43684445061">
		<tag k="name" v="Grønliholtane" />
		<tag k="natural" v="hill" />
		<tag k="place" v="locality" />
		<tag k="ssr:stedsnr" v="883945" />
	</node>
	<node id="-539656" lat="61.9524694451" lon="5.38288056007">
		<tag k="name" v="Rendebakkane" />
		<tag k="natural" v="slope" />
		<tag k="place" v="locality" />
		<tag k="ssr:stedsnr" v="883943" />
	</node>
	<node id="-539655" lat="61.9577027804" lon="5.4120555479">
		<tag k="name" v="Tueskogen" />
		<tag k="natural" v="plateau" />
		<tag k="ssr:stedsnr" v="883929" />
	</node>
	<node id="-539652" lat="61.9736833369" lon="5.05708611511">
		<tag k="name" v="Nobba" />
		<tag k="natural" v="hill" />
		<tag k="place" v="locality" />
		<tag k="ssr:stedsnr" v="883506" />
	</node>
	<node id="-539651" lat="61.9935277794" lon="5.06979722273">
		<tag k="name" v="Bogehornet" />
		<tag k="natural" v="hill" />
		<tag k="place" v="locality" />
		<tag k="ssr:stedsnr" v="883495" />
	</node>
	<node id="-539649" lat="62.0100361135" lon="5.04112777944">
		<tag k="name" v="Snøklimpen" />
		<tag k="natural" v="hill" />
		<tag k="place" v="locality" />
		<tag k="ssr:stedsnr" v="883427" />
	</node>
	<node id="-539646" lat="61.9091666701" lon="5.19248056189">
		<tag k="name" v="Kammane" />
		<tag k="natural" v="hill" />
		<tag k="place" v="locality" />
		<tag k="ssr:stedsnr" v="883390" />
	</node>
	<node id="-539642" lat="61.982491664" lon="5.38790555241">
		<tag k="name" v="Kravasslida" />
		<tag k="natural" v="slope" />
		<tag k="place" v="locality" />
		<tag k="ssr:stedsnr" v="882983" />
	</node>
	<node id="-539639" lat="61.9488888845" lon="5.40518055881">
		<tag k="fixme" v="consider natural=peak for the most distinct mountains in the district" />
		<tag k="name" v="Storerabben" />
		<tag k="natural" v="hill" />
		<tag k="place" v="locality" />
		<tag k="ssr:stedsnr" v="882898" />
	</node>
	<node id="-539638" lat="61.9429777775" lon="5.41703610497">
		<tag k="name" v="Knuteslåttane" />
		<tag k="natural" v="slope" />
		<tag k="place" v="locality" />
		<tag k="ssr:stedsnr" v="882888" />
	</node>
	<node id="-539637" lat="61.9575805587" lon="5.3870805597">
		<tag k="fixme" v="consider natural=peak for the most distinct mountains in the district" />
		<tag k="name" v="Tobbetua" />
		<tag k="natural" v="hill" />
		<tag k="place" v="locality" />
		<tag k="ssr:stedsnr" v="882841" />
	</node>
	<node id="-539636" lat="61.9433333313" lon="5.17765833717">
		<tag k="name" v="Nordre Skjenet" />
		<tag k="place" v="locality" />
		<tag k="ssr:stedsnr" v="882831" />
	</node>
	<node id="-539635" lat="61.9376611135" lon="5.47270555366">
		<tag k="name" v="Hestehylla" />
		<tag k="place" v="locality" />
		<tag k="ssr:stedsnr" v="882748" />
	</node>
	<node id="-539634" lat="61.9301194428" lon="5.46181943649">
		<tag k="fixme" v="consider natural=peak for the most distinct mountains in the district" />
		<tag k="name" v="Åsnesnakken" />
		<tag k="natural" v="hill" />
		<tag k="place" v="locality" />
		<tag k="ssr:stedsnr" v="882744" />
	</node>
	<node id="-539630" lat="61.9654472215" lon="5.39404166312">
		<tag k="name" v="Brendelihaugane" />
		<tag k="natural" v="hill" />
		<tag k="place" v="locality" />
		<tag k="ssr:stedsnr" v="882672" />
	</node>
	<node id="-539629" lat="61.9632861076" lon="5.38210832476">
		<tag k="name" v="Setreberget" />
		<tag k="natural" v="hill" />
		<tag k="place" v="locality" />
		<tag k="ssr:stedsnr" v="882668" />
	</node>
	<node id="-539628" lat="61.9777249995" lon="5.08322500258">
		<tag k="name" v="Bjørnahaugen" />
		<tag k="natural" v="hill" />
		<tag k="place" v="locality" />
		<tag k="ssr:stedsnr" v="882646" />
	</node>
	<node id="-539626" lat="61.995269446" lon="5.12754444809">
		<tag k="name" v="Dorteskaret" />
		<tag k="natural" v="valley" />
		<tag k="place" v="locality" />
		<tag k="ssr:stedsnr" v="882624" />
	</node>
	<node id="-539625" lat="61.9315166695" lon="5.15916667376">
		<tag k="name" v="Breiskaret" />
		<tag k="natural" v="valley" />
		<tag k="place" v="locality" />
		<tag k="ssr:stedsnr" v="882595" />
	</node>
	<node id="-539624" lat="61.9232027756" lon="5.1899277746">
		<tag k="name" v="Steinulvhaugen" />
		<tag k="natural" v="hill" />
		<tag k="place" v="locality" />
		<tag k="ssr:stedsnr" v="882593" />
	</node>
	<node id="-539622" lat="61.9416583313" lon="5.16441110891">
		<tag k="name" v="Gardhola" />
		<tag k="natural" v="valley" />
		<tag k="place" v="locality" />
		<tag k="ssr:stedsnr" v="882572" />
	</node>
	<node id="-539621" lat="61.9412416673" lon="5.19280278194">
		<tag k="name" v="Skolmadalen" />
		<tag k="natural" v="valley" />
		<tag k="place" v="locality" />
		<tag k="ssr:stedsnr" v="882569" />
	</node>
	<node id="-539619" lat="61.9112388846" lon="5.20934166356">
		<tag k="name" v="Heiakulen" />
		<tag k="natural" v="hill" />
		<tag k="place" v="locality" />
		<tag k="ssr:stedsnr" v="882493" />
	</node>
	<node id="-539615" lat="62.0177083366" lon="5.11656666175">
		<tag k="fixme" v="consider natural=peak for the most distinct mountains in the district" />
		<tag k="name" v="Husefjellet" />
		<tag k="natural" v="hill" />
		<tag k="place" v="locality" />
		<tag k="ssr:stedsnr" v="882468" />
	</node>
	<node id="-539614" lat="61.9171527768" lon="5.29994722819">
		<tag k="name" v="Novene" />
		<tag k="natural" v="hill" />
		<tag k="place" v="locality" />
		<tag k="ssr:stedsnr" v="882413" />
	</node>
	<node id="-539613" lat="62.0031027818" lon="4.99365277863">
		<tag k="name" v="Solane" />
		<tag k="place" v="locality" />
		<tag k="ssr:stedsnr" v="882384" />
	</node>
	<node id="-539601" lat="61.9407472183" lon="5.41352777624">
		<tag k="name" v="Hessevikberget" />
		<tag k="natural" v="hill" />
		<tag k="place" v="locality" />
		<tag k="ssr:stedsnr" v="397994" />
	</node>
	<node id="-539600" lat="61.9364999988" lon="5.34108610573">
		<tag k="name" v="Dyrhaugløkane" />
		<tag k="place" v="locality" />
		<tag k="ssr:stedsnr" v="397962" />
	</node>
	<node id="-539599" lat="61.9301694461" lon="5.36562223139">
		<tag k="name" v="Grobakken" />
		<tag k="natural" v="slope" />
		<tag k="place" v="locality" />
		<tag k="ssr:stedsnr" v="397958" />
	</node>
	<node id="-539597" lat="61.9301250021" lon="5.33644444894">
		<tag k="name" v="Såta" />
		<tag k="natural" v="hill" />
		<tag k="place" v="locality" />
		<tag k="ssr:stedsnr" v="397945" />
	</node>
	<node id="-539595" lat="61.9432611095" lon="5.42734443618">
		<tag k="name" v="Noraberget" />
		<tag k="natural" v="hill" />
		<tag k="place" v="locality" />
		<tag k="ssr:stedsnr" v="397924" />
	</node>
	<node id="-539593" lat="61.9505305532" lon="5.35858610482">
		<tag k="name" v="Langemyrrabben" />
		<tag k="natural" v="hill" />
		<tag k="place" v="locality" />
		<tag k="ssr:stedsnr" v="397901" />
	</node>
	<node id="-539591" lat="61.9767972194" lon="5.50000555939">
		<tag k="name" v="Beksleholene" />
		<tag k="natural" v="valley" />
		<tag k="place" v="locality" />
		<tag k="ssr:stedsnr" v="397866" />
	</node>
	<node id="-539590" lat="61.9664694403" lon="5.49014166489">
		<tag k="name" v="Bjørnahola" />
		<tag k="natural" v="valley" />
		<tag k="place" v="locality" />
		<tag k="ssr:stedsnr" v="397863" />
	</node>
	<node id="-539589" lat="61.9658166634" lon="5.46660000297">
		<tag k="name" v="Noradalen" />
		<tag k="natural" v="valley" />
		<tag k="place" v="locality" />
		<tag k="ssr:stedsnr" v="397853" />
	</node>
	<node id="-539588" lat="61.958441665" lon="5.49809999123">
		<tag k="name" v="Naveholene" />
		<tag k="natural" v="valley" />
		<tag k="place" v="locality" />
		<tag k="ssr:stedsnr" v="397814" />
	</node>
	<node id="-539586" lat="61.9432083357" lon="5.48856667096">
		<tag k="name" v="Soliskaret" />
		<tag k="natural" v="valley" />
		<tag k="place" v="locality" />
		<tag k="ssr:stedsnr" v="397799" />
	</node>
	<node id="-539585" lat="61.9503611108" lon="5.46627777402">
		<tag k="name" v="Haugaskaret" />
		<tag k="natural" v="valley" />
		<tag k="place" v="locality" />
		<tag k="ssr:stedsnr" v="397797" />
	</node>
	<node id="-539584" lat="61.9602166664" lon="5.45873612067">
		<tag k="name" v="Dyrskaret" />
		<tag k="natural" v="valley" />
		<tag k="place" v="locality" />
		<tag k="ssr:stedsnr" v="397793" />
	</node>
	<node id="-539582" lat="61.96855556" lon="5.39706944344">
		<tag k="name" v="Fjellsteinlida" />
		<tag k="natural" v="slope" />
		<tag k="place" v="locality" />
		<tag k="ssr:stedsnr" v="397758" />
	</node>
	<node id="-539581" lat="61.9673583307" lon="5.40436389224">
		<tag k="name" v="Geitahammaren" />
		<tag k="natural" v="hill" />
		<tag k="place" v="locality" />
		<tag k="ssr:stedsnr" v="397757" />
	</node>
	<node id="-539580" lat="61.9815000015" lon="5.10430277421">
		<tag k="fixme" v="consider natural=peak for the most distinct mountains in the district" />
		<tag k="name" v="Furestinakken" />
		<tag k="natural" v="hill" />
		<tag k="place" v="locality" />
		<tag k="ssr:stedsnr" v="397755" />
	</node>
	<node id="-539578" lat="61.9960361132" lon="5.10739722787">
		<tag k="fixme" v="consider natural=peak for the most distinct mountains in the district" />
		<tag k="name" v="Ramnereiret" />
		<tag k="natural" v="hill" />
		<tag k="place" v="locality" />
		<tag k="ssr:stedsnr" v="397727" />
	</node>
	<node id="-539577" lat="62.0002111139" lon="5.14892499694">
		<tag k="fixme" v="consider natural=peak for the most distinct mountains in the district" />
		<tag k="name" v="Halsanakken" />
		<tag k="natural" v="hill" />
		<tag k="place" v="locality" />
		<tag k="ssr:stedsnr" v="397706" />
	</node>
	<node id="-539576" lat="61.9333555516" lon="5.15543333648">
		<tag k="name" v="Kvalsberget" />
		<tag k="natural" v="hill" />
		<tag k="place" v="locality" />
		<tag k="ssr:stedsnr" v="397693" />
	</node>
	<node id="-539575" lat="61.9352944424" lon="5.15625277472">
		<tag k="name" v="Kvalen" />
		<tag k="natural" v="hill" />
		<tag k="place" v="locality" />
		<tag k="ssr:stedsnr" v="397685" />
	</node>
	<node id="-539572" lat="61.9371222196" lon="5.14430278735">
		<tag k="name" v="Verpehammaren" />
		<tag k="natural" v="hill" />
		<tag k="place" v="locality" />
		<tag k="ssr:stedsnr" v="397643" />
	</node>
	<node id="-539569" lat="62.0149500003" lon="5.20084443867">
		<tag k="name" v="Jonshaugen" />
		<tag k="natural" v="hill" />
		<tag k="place" v="locality" />
		<tag k="ssr:stedsnr" v="397626" />
	</node>
	<node id="-539568" lat="61.9311361125" lon="5.31082499262">
		<tag k="name" v="Kloveheia" />
		<tag k="natural" v="hill" />
		<tag k="place" v="locality" />
		<tag k="ssr:stedsnr" v="397618" />
	</node>
	<node id="-539566" lat="61.9427916711" lon="5.37005555198">
		<tag k="name" v="Setrebruna" />
		<tag k="place" v="locality" />
		<tag k="ssr:stedsnr" v="397531" />
	</node>
	<node id="-539564" lat="61.9720138909" lon="5.51845555039">
		<tag k="name" v="Reshaugen" />
		<tag k="natural" v="hill" />
		<tag k="place" v="locality" />
		<tag k="ssr:stedsnr" v="397483" />
	</node>
	<node id="-539563" lat="62.0180611149" lon="4.99512778077">
		<tag k="name" v="Middagsnipa" />
		<tag k="natural" v="hill" />
		<tag k="place" v="locality" />
		<tag k="ssr:stedsnr" v="397402" />
	</node>
	<node id="-539560" lat="62.0155361124" lon="5.02797221565">
		<tag k="name" v="Høgrysta" />
		<tag k="natural" v="hill" />
		<tag k="place" v="locality" />
		<tag k="ssr:stedsnr" v="397352" />
	</node>
	<node id="-539559" lat="61.8994027772" lon="5.18402499641">
		<tag k="name" v="Lepenova" />
		<tag k="natural" v="hill" />
		<tag k="place" v="locality" />
		<tag k="ssr:stedsnr" v="397320" />
	</node>
	<node id="-539558" lat="61.9002166691" lon="5.17688055805">
		<tag k="fixme" v="consider natural=peak for the most distinct mountains in the district" />
		<tag k="name" v="Lyngfjellet" />
		<tag k="natural" v="hill" />
		<tag k="place" v="locality" />
		<tag k="ssr:stedsnr" v="397317" />
	</node>
	<node id="-539557" lat="61.9054694403" lon="5.18012499393">
		<tag k="name" v="Evjeskaret" />
		<tag k="natural" v="valley" />
		<tag k="place" v="locality" />
		<tag k="ssr:stedsnr" v="397318" />
	</node>
	<node id="-539553" lat="61.9226805598" lon="5.21116667353">
		<tag k="fixme" v="consider natural=peak for the most distinct mountains in the district" />
		<tag k="name" v="Høgesalen" />
		<tag k="natural" v="hill" />
		<tag k="place" v="locality" />
		<tag k="ssr:stedsnr" v="396542" />
	</node>
	<node id="-539550" lat="61.978694448" lon="5.10029166546">
		<tag k="fixme" v="consider natural=peak for the most distinct mountains in the district" />
		<tag k="name" v="Melnyken" />
		<tag k="natural" v="hill" />
		<tag k="place" v="locality" />
		<tag k="ssr:stedsnr" v="384204" />
	</node>
	<node id="-539540" lat="61.9150472211" lon="5.02122222871">
		<tag k="fixme" v="consider natural=peak for the most distinct mountains in the district" />
		<tag k="name" v="Rønelden" />
		<tag k="natural" v="hill" />
		<tag k="place" v="locality" />
		<tag k="ssr:stedsnr" v="374986" />
	</node>
	<node id="-539538" lat="61.9458692714" lon="5.02216643592">
		<tag k="fixme" v="consider natural=peak for the most distinct mountains in the district" />
		<tag k="name" v="Hestetinden" />
		<tag k="natural" v="hill" />
		<tag k="place" v="locality" />
		<tag k="ssr:stedsnr" v="374977" />
	</node>
	<node id="-539535" lat="61.9498729688" lon="5.11291594459">
		<tag k="fixme" v="consider natural=peak for the most distinct mountains in the district" />
		<tag k="name" v="Brurahornet" />
		<tag k="natural" v="hill" />
		<tag k="place" v="locality" />
		<tag k="ssr:stedsnr" v="374793" />
	</node>
	<node id="-539533" lat="61.9774888874" lon="5.17205277439">
		<tag k="fixme" v="consider natural=peak for the most distinct mountains in the district" />
		<tag k="name" v="Litlehornet" />
		<tag k="natural" v="hill" />
		<tag k="place" v="locality" />
		<tag k="ssr:stedsnr" v="374773" />
	</node>
	<node id="-539528" lat="61.9106277816" lon="5.20184722804">
		<tag k="name" v="Kammane" />
		<tag k="natural" v="hill" />
		<tag k="place" v="locality" />
		<tag k="ssr:stedsnr" v="374246" />
	</node>
	<node id="-539527" lat="61.9005528272" lon="5.09917204895">
		<tag k="fixme" v="consider natural=peak for the most distinct mountains in the district" />
		<tag k="name" v="Hornkollen" />
		<tag k="natural" v="hill" />
		<tag k="place" v="locality" />
		<tag k="ssr:stedsnr" v="374238" />
	</node>
	<node id="-539523" lat="61.9637499974" lon="5.37073056112">
		<tag k="fixme" v="consider natural=peak for the most distinct mountains in the district" />
		<tag k="name" v="Steinknallane" />
		<tag k="natural" v="hill" />
		<tag k="place" v="locality" />
		<tag k="ssr:stedsnr" v="373782" />
	</node>
	<node id="-539521" lat="61.9370777783" lon="5.3625111179">
		<tag k="fixme" v="consider natural=peak for the most distinct mountains in the district" />
		<tag k="name" v="Holten" />
		<tag k="natural" v="hill" />
		<tag k="place" v="locality" />
		<tag k="ssr:stedsnr" v="373221" />
	</node>
	<node id="-539505" lat="61.9517166669" lon="5.43683888836">
		<tag k="name" v="Huvebotnen" />
		<tag k="natural" v="valley" />
		<tag k="place" v="locality" />
		<tag k="ssr:stedsnr" v="337905" />
	</node>
	<node id="-539503" lat="61.9602722234" lon="5.40397500535">
		<tag k="name" v="Høgeberget" />
		<tag k="natural" v="hill" />
		<tag k="place" v="locality" />
		<tag k="ssr:stedsnr" v="337889" />
	</node>
	<node id="-539501" lat="61.9876749974" lon="5.01927499242">
		<tag k="name" v="Skorane" />
		<tag k="natural" v="hill" />
		<tag k="place" v="locality" />
		<tag k="ssr:stedsnr" v="337388" />
	</node>
	<node id="-539499" lat="62.0058083333" lon="5.06001388126">
		<tag k="name" v="Taureklubben" />
		<tag k="natural" v="hill" />
		<tag k="place" v="locality" />
		<tag k="ssr:stedsnr" v="337365" />
	</node>
	<node id="-539498" lat="61.9751861077" lon="5.07330556388">
		<tag k="name" v="Lyseskaret" />
		<tag k="natural" v="valley" />
		<tag k="place" v="locality" />
		<tag k="ssr:stedsnr" v="337352" />
	</node>
	<node id="-539497" lat="62.0156027767" lon="4.98690278482">
		<tag k="name" v="Hestebakkane" />
		<tag k="natural" v="slope" />
		<tag k="place" v="locality" />
		<tag k="ssr:stedsnr" v="337348" />
	</node>
	<node id="-539492" lat="61.8879166692" lon="5.14564721374">
		<tag k="name" v="Nakken" />
		<tag k="natural" v="hill" />
		<tag k="place" v="locality" />
		<tag k="ssr:stedsnr" v="337271" />
	</node>
	<node id="-539489" lat="61.9260583325" lon="5.33423610649">
		<tag k="name" v="Ospelihjellen" />
		<tag k="place" v="locality" />
		<tag k="ssr:stedsnr" v="336927" />
	</node>
	<node id="-539488" lat="61.946683334" lon="5.41537777098">
		<tag k="fixme" v="consider natural=peak for the most distinct mountains in the district" />
		<tag k="name" v="Fureholten" />
		<tag k="natural" v="hill" />
		<tag k="place" v="locality" />
		<tag k="ssr:stedsnr" v="336923" />
	</node>
	<node id="-539487" lat="61.9614166631" lon="5.38501667476">
		<tag k="name" v="Langhamrane" />
		<tag k="natural" v="ridge" />
		<tag k="place" v="locality" />
		<tag k="ssr:stedsnr" v="336868" />
	</node>
	<node id="-539483" lat="61.9777555567" lon="5.47390554615">
		<tag k="name" v="Skorsteinsloka" />
		<tag k="natural" v="slope" />
		<tag k="place" v="locality" />
		<tag k="ssr:stedsnr" v="336814" />
	</node>
	<node id="-539481" lat="61.9528777785" lon="5.48776388535">
		<tag k="fixme" v="consider natural=peak for the most distinct mountains in the district" />
		<tag k="name" v="Bjørkeholnakken" />
		<tag k="natural" v="hill" />
		<tag k="place" v="locality" />
		<tag k="ssr:stedsnr" v="336771" />
	</node>
	<node id="-539480" lat="61.9659111105" lon="5.41837778337">
		<tag k="name" v="Rotefjellsbakkane" />
		<tag k="natural" v="slope" />
		<tag k="place" v="locality" />
		<tag k="ssr:stedsnr" v="336742" />
	</node>
	<node id="-539474" lat="61.9991194409" lon="5.13707221893">
		<tag k="name" v="Rindehaugen" />
		<tag k="natural" v="hill" />
		<tag k="place" v="locality" />
		<tag k="ssr:stedsnr" v="336677" />
	</node>
	<node id="-539473" lat="61.9258055587" lon="5.15360277405">
		<tag k="name" v="Øykjeveltene" />
		<tag k="natural" v="slope" />
		<tag k="place" v="locality" />
		<tag k="ssr:stedsnr" v="336659" />
	</node>
	<node id="-539472" lat="61.9936055593" lon="5.08143055452">
		<tag k="name" v="Nonsskaret" />
		<tag k="natural" v="valley" />
		<tag k="place" v="locality" />
		<tag k="ssr:stedsnr" v="336645" />
	</node>
	<node id="-539470" lat="61.9273555581" lon="5.10778333101">
		<tag k="name" v="Grindabakken" />
		<tag k="natural" v="slope" />
		<tag k="place" v="locality" />
		<tag k="ssr:stedsnr" v="336615" />
	</node>
	<node id="-539469" lat="61.9361611126" lon="5.1412500027">
		<tag k="fixme" v="consider natural=peak for the most distinct mountains in the district" />
		<tag k="name" v="Åkammen" />
		<tag k="natural" v="hill" />
		<tag k="place" v="locality" />
		<tag k="ssr:stedsnr" v="336601" />
	</node>
	<node id="-539468" lat="61.9287055589" lon="5.21615833012">
		<tag k="name" v="Kyrkja" />
		<tag k="natural" v="hill" />
		<tag k="place" v="locality" />
		<tag k="ssr:stedsnr" v="336576" />
	</node>
	<node id="-539467" lat="61.9247944411" lon="5.21845000866">
		<tag k="name" v="Endebolane" />
		<tag k="natural" v="hill" />
		<tag k="place" v="locality" />
		<tag k="ssr:stedsnr" v="336574" />
	</node>
	<node id="-539465" lat="61.9134694485" lon="5.24344722254">
		<tag k="fixme" v="consider natural=peak for the most distinct mountains in the district" />
		<tag k="name" v="Kupenakken" />
		<tag k="natural" v="hill" />
		<tag k="place" v="locality" />
		<tag k="ssr:stedsnr" v="336525" />
	</node>
	<node id="-539464" lat="61.9149305557" lon="5.22097222182">
		<tag k="name" v="Svorahammaren" />
		<tag k="natural" v="hill" />
		<tag k="place" v="locality" />
		<tag k="ssr:stedsnr" v="336522" />
	</node>
	<node id="-539463" lat="62.0091000026" lon="5.11200832813">
		<tag k="name" v="Skarråsa" />
		<tag k="natural" v="valley" />
		<tag k="place" v="locality" />
		<tag k="ssr:stedsnr" v="336504" />
	</node>
	<node id="-539462" lat="62.0111805564" lon="5.09859721575">
		<tag k="fixme" v="consider natural=peak for the most distinct mountains in the district" />
		<tag k="name" v="Hornet" />
		<tag k="natural" v="hill" />
		<tag k="place" v="locality" />
		<tag k="ssr:stedsnr" v="336499" />
	</node>
	<node id="-539460" lat="61.9661305594" lon="5.53350833514">
		<tag k="name" v="Blåsvedene" />
		<tag k="natural" v="hill" />
		<tag k="place" v="locality" />
		<tag k="ssr:stedsnr" v="336434" />
	</node>
	<node id="-539459" lat="61.9306055549" lon="5.06101388004">
		<tag k="alt_name" v="Stangelia" />
		<tag k="name" v="Strangelia" />
		<tag k="natural" v="slope" />
		<tag k="place" v="locality" />
		<tag k="ssr:stedsnr" v="336410" />
	</node>
	<node id="-539457" lat="61.9451305553" lon="5.12469721331">
		<tag k="name" v="Nakkane" />
		<tag k="natural" v="hill" />
		<tag k="place" v="locality" />
		<tag k="ssr:stedsnr" v="336283" />
	</node>
	<node id="-539455" lat="61.9566289397" lon="5.14279467925">
		<tag k="name" v="Skåra" />
		<tag k="natural" v="valley" />
		<tag k="place" v="locality" />
		<tag k="ssr:stedsnr" v="336277" />
	</node>
	<node id="-539453" lat="61.9158722196" lon="5.28170278499">
		<tag k="name" v="Lemmane" />
		<tag k="natural" v="hill" />
		<tag k="place" v="locality" />
		<tag k="ssr:stedsnr" v="336004" />
	</node>
	<node id="-539450" lat="61.9774138872" lon="5.49152499201">
		<tag k="name" v="Buda" />
		<tag k="natural" v="hill" />
		<tag k="place" v="locality" />
		<tag k="ssr:stedsnr" v="329288" />
	</node>
	<node id="-539438" lat="61.9404555542" lon="5.32153333963">
		<tag k="fixme" v="consider natural=peak for the most distinct mountains in the district" />
		<tag k="name" v="Salen" />
		<tag k="natural" v="hill" />
		<tag k="place" v="locality" />
		<tag k="ssr:stedsnr" v="313831" />
	</node>
	<node id="-539435" lat="61.9753749982" lon="5.45574444959">
		<tag k="fixme" v="consider natural=peak for the most distinct mountains in the district" />
		<tag k="name" v="Tolvvassegga" />
		<tag k="natural" v="hill" />
		<tag k="place" v="locality" />
		<tag k="ssr:stedsnr" v="313802" />
	</node>
	<node id="-539434" lat="61.9717388882" lon="5.12487222245">
		<tag k="name" v="Kapellhornet" />
		<tag k="natural" v="hill" />
		<tag k="place" v="locality" />
		<tag k="ssr:stedsnr" v="313771" />
	</node>
	<node id="-539430" lat="61.9089250026" lon="5.16066110511">
		<tag k="name" v="Vindhammaren" />
		<tag k="natural" v="hill" />
		<tag k="place" v="locality" />
		<tag k="ssr:stedsnr" v="313215" />
	</node>
	<node id="-539428" lat="61.9531249999" lon="5.47903055127">
		<tag k="name" v="Saghaugane" />
		<tag k="natural" v="hill" />
		<tag k="place" v="locality" />
		<tag k="ssr:stedsnr" v="313003" />
	</node>
	<node id="-539412" lat="61.9364444444" lon="5.3296083332">
		<tag k="name" v="Sletteheia" />
		<tag k="natural" v="hill" />
		<tag k="place" v="locality" />
		<tag k="ssr:stedsnr" v="276957" />
	</node>
	<node id="-539410" lat="61.965713889" lon="5.50034443999">
		<tag k="name" v="Storekvibakken" />
		<tag k="natural" v="slope" />
		<tag k="place" v="locality" />
		<tag k="ssr:stedsnr" v="276882" />
	</node>
	<node id="-539409" lat="61.9777833374" lon="5.49080834056">
		<tag k="name" v="Budadalane" />
		<tag k="natural" v="valley" />
		<tag k="place" v="locality" />
		<tag k="ssr:stedsnr" v="276874" />
	</node>
	<node id="-539408" lat="61.974574999" lon="5.48302776917">
		<tag k="name" v="Djupedalen" />
		<tag k="natural" v="valley" />
		<tag k="place" v="locality" />
		<tag k="ssr:stedsnr" v="276860" />
	</node>
	<node id="-539407" lat="61.9998805554" lon="5.02655278649">
		<tag k="name" v="Korkeleitet" />
		<tag k="place" v="locality" />
		<tag k="ssr:stedsnr" v="276456" />
	</node>
	<node id="-539405" lat="62.0086750039" lon="5.04025277067">
		<tag k="name" v="Myrstaddalen" />
		<tag k="natural" v="valley" />
		<tag k="place" v="locality" />
		<tag k="ssr:stedsnr" v="276397" />
	</node>
	<node id="-539401" lat="61.9366111119" lon="5.38620555277">
		<tag k="name" v="Trentene" />
		<tag k="natural" v="hill" />
		<tag k="place" v="locality" />
		<tag k="ssr:stedsnr" v="275988" />
	</node>
	<node id="-539399" lat="61.9295111126" lon="5.33190556135">
		<tag k="name" v="Aliholten" />
		<tag k="natural" v="hill" />
		<tag k="place" v="locality" />
		<tag k="ssr:stedsnr" v="275921" />
	</node>
	<node id="-539398" lat="61.9539638868" lon="5.45921110967">
		<tag k="name" v="Nova" />
		<tag k="natural" v="hill" />
		<tag k="place" v="locality" />
		<tag k="ssr:stedsnr" v="275760" />
	</node>
	<node id="-539397" lat="62.0030861075" lon="5.12136666949">
		<tag k="name" v="Kupane" />
		<tag k="natural" v="hill" />
		<tag k="place" v="locality" />
		<tag k="ssr:stedsnr" v="275690" />
	</node>
	<node id="-539396" lat="61.9873027751" lon="5.12361666113">
		<tag k="name" v="Skarleitet" />
		<tag k="place" v="locality" />
		<tag k="ssr:stedsnr" v="275689" />
	</node>
	<node id="-539395" lat="61.9969333298" lon="5.11885554653">
		<tag k="name" v="Nibbehaugen" />
		<tag k="natural" v="hill" />
		<tag k="place" v="locality" />
		<tag k="ssr:stedsnr" v="275687" />
	</node>
	<node id="-539394" lat="61.9909250045" lon="5.10923333199">
		<tag k="name" v="Brurastolen" />
		<tag k="natural" v="hill" />
		<tag k="place" v="locality" />
		<tag k="ssr:stedsnr" v="275681" />
	</node>
	<node id="-539393" lat="61.9847861086" lon="5.13405556189">
		<tag k="name" v="Skaret" />
		<tag k="natural" v="valley" />
		<tag k="place" v="locality" />
		<tag k="ssr:stedsnr" v="275678" />
	</node>
	<node id="-539392" lat="61.9992111146" lon="5.13103055254">
		<tag k="fixme" v="consider natural=peak for the most distinct mountains in the district" />
		<tag k="name" v="Myrahornet" />
		<tag k="natural" v="hill" />
		<tag k="place" v="locality" />
		<tag k="ssr:stedsnr" v="275675" />
	</node>
	<node id="-539389" lat="62.0020611131" lon="5.07683611327">
		<tag k="name" v="Naustbakkane" />
		<tag k="natural" v="slope" />
		<tag k="place" v="locality" />
		<tag k="ssr:stedsnr" v="275646" />
	</node>
	<node id="-539388" lat="61.9243111123" lon="5.19695555677">
		<tag k="name" v="Stølshaugen" />
		<tag k="natural" v="hill" />
		<tag k="place" v="locality" />
		<tag k="ssr:stedsnr" v="275644" />
	</node>
	<node id="-539386" lat="61.920708335" lon="5.299936118">
		<tag k="name" v="Sørlida" />
		<tag k="natural" v="slope" />
		<tag k="place" v="locality" />
		<tag k="ssr:stedsnr" v="275599" />
	</node>
	<node id="-539385" lat="61.9314083376" lon="5.21157222597">
		<tag k="name" v="Dyrestien" />
		<tag k="natural" v="slope" />
		<tag k="place" v="locality" />
		<tag k="ssr:stedsnr" v="275565" />
	</node>
	<node id="-539383" lat="62.0139472201" lon="5.19404721696">
		<tag k="name" v="Langhaugen" />
		<tag k="natural" v="hill" />
		<tag k="place" v="locality" />
		<tag k="ssr:stedsnr" v="275525" />
	</node>
	<node id="-539382" lat="62.0069472233" lon="5.13707499356">
		<tag k="name" v="Kjerringdal" />
		<tag k="natural" v="valley" />
		<tag k="place" v="locality" />
		<tag k="ssr:stedsnr" v="275513" />
	</node>
	<node id="-539381" lat="61.9165166657" lon="5.23909444119">
		<tag k="fixme" v="consider natural=peak for the most distinct mountains in the district" />
		<tag k="name" v="Ramnefjellet" />
		<tag k="natural" v="hill" />
		<tag k="place" v="locality" />
		<tag k="ssr:stedsnr" v="275505" />
	</node>
	<node id="-539379" lat="62.0224277741" lon="5.11280000445">
		<tag k="name" v="Stigen" />
		<tag k="natural" v="hill" />
		<tag k="place" v="locality" />
		<tag k="ssr:stedsnr" v="275494" />
	</node>
	<node id="-539377" lat="62.0226555529" lon="5.12780832728">
		<tag k="name" v="Ørnehola" />
		<tag k="natural" v="valley" />
		<tag k="place" v="locality" />
		<tag k="ssr:stedsnr" v="275462" />
	</node>
	<node id="-539376" lat="62.0177805562" lon="5.1333999935">
		<tag k="name" v="Ospehaugen" />
		<tag k="natural" v="hill" />
		<tag k="place" v="locality" />
		<tag k="ssr:stedsnr" v="275459" />
	</node>
	<node id="-539375" lat="61.9053027741" lon="5.0503027754">
		<tag k="name" v="Vassdalegga" />
		<tag k="natural" v="hill" />
		<tag k="place" v="locality" />
		<tag k="ssr:stedsnr" v="275431" />
	</node>
	<node id="-539373" lat="61.9653194461" lon="5.52160834166">
		<tag k="name" v="Bulegene" />
		<tag k="place" v="locality" />
		<tag k="ssr:stedsnr" v="275415" />
	</node>
	<node id="-539372" lat="61.9485472213" lon="5.04184999332">
		<tag k="name" v="Storenosa" />
		<tag k="natural" v="hill" />
		<tag k="place" v="locality" />
		<tag k="ssr:stedsnr" v="275381" />
	</node>
	<node id="-539370" lat="61.9468722216" lon="5.07853610978">
		<tag k="name" v="Skarflata" />
		<tag k="place" v="locality" />
		<tag k="ssr:stedsnr" v="275218" />
	</node>
	<node id="-540761" lat="61.9912888845" lon="5.01431110281">
		<tag k="fixme" v="consider natural=peak for the most distinct mountains in the district" />
		<tag k="name" v="Kvalheimsnubben" />
		<tag k="natural" v="hill" />
		<tag k="place" v="locality" />
		<tag k="ssr:stedsnr" v="967451" />
	</node>
	<node id="-540760" lat="62.013644443" lon="5.11351667167">
		<tag k="name" v="Hammaren" />
		<tag k="natural" v="hill" />
		<tag k="place" v="locality" />
		<tag k="ssr:stedsnr" v="966957" />
	</node>
	<node id="-540749" lat="61.9288694481" lon="5.33869445111">
		<tag k="name" v="Alida" />
		<tag k="natural" v="slope" />
		<tag k="place" v="locality" />
		<tag k="ssr:stedsnr" v="944945" />
	</node>
	<node id="-540747" lat="61.9506944468" lon="5.43553333903">
		<tag k="name" v="Hestdalsgota" />
		<tag k="natural" v="slope" />
		<tag k="place" v="locality" />
		<tag k="ssr:stedsnr" v="944904" />
	</node>
	<node id="-540746" lat="61.9518333332" lon="5.38786666126">
		<tag k="fixme" v="consider natural=peak for the most distinct mountains in the district" />
		<tag k="name" v="Rota" />
		<tag k="natural" v="hill" />
		<tag k="place" v="locality" />
		<tag k="ssr:stedsnr" v="944892" />
	</node>
	<node id="-540742" lat="62.000227782" lon="5.01571944011">
		<tag k="name" v="Fleskehaugen" />
		<tag k="natural" v="hill" />
		<tag k="place" v="locality" />
		<tag k="ssr:stedsnr" v="944416" />
	</node>
	<node id="-540741" lat="62.0227611118" lon="5.00927499236">
		<tag k="name" v="Storehaugen" />
		<tag k="natural" v="hill" />
		<tag k="place" v="locality" />
		<tag k="ssr:stedsnr" v="944408" />
	</node>
	<node id="-540740" lat="62.0167638864" lon="4.99116666513">
		<tag k="name" v="Skredene" />
		<tag k="natural" v="gorge" />
		<tag k="ssr:stedsnr" v="944379" />
	</node>
	<node id="-540739" lat="62.0187583329" lon="4.98604721849">
		<tag k="name" v="Raudehamrane" />
		<tag k="natural" v="hill" />
		<tag k="place" v="locality" />
		<tag k="ssr:stedsnr" v="944374" />
	</node>
	<node id="-540732" lat="61.9396916633" lon="5.39970834013">
		<tag k="name" v="Nakken" />
		<tag k="natural" v="hill" />
		<tag k="place" v="locality" />
		<tag k="ssr:stedsnr" v="943962" />
	</node>
	<node id="-540730" lat="61.9214416681" lon="5.32638888209">
		<tag k="name" v="Kalvedalen" />
		<tag k="natural" v="valley" />
		<tag k="place" v="locality" />
		<tag k="ssr:stedsnr" v="943926" />
	</node>
	<node id="-540729" lat="61.9327444465" lon="5.33217777607">
		<tag k="name" v="Setrelidene" />
		<tag k="natural" v="slope" />
		<tag k="place" v="locality" />
		<tag k="ssr:stedsnr" v="943924" />
	</node>
	<node id="-540728" lat="61.9487555542" lon="5.34834444453">
		<tag k="name" v="Røylida" />
		<tag k="natural" v="slope" />
		<tag k="place" v="locality" />
		<tag k="ssr:stedsnr" v="943872" />
	</node>
	<node id="-540726" lat="61.9615888862" lon="5.46918334032">
		<tag k="name" v="Gadden" />
		<tag k="natural" v="hill" />
		<tag k="place" v="locality" />
		<tag k="ssr:stedsnr" v="943758" />
	</node>
	<node id="-540725" lat="61.9699027761" lon="5.39584721677">
		<tag k="name" v="Fagedalen" />
		<tag k="natural" v="valley" />
		<tag k="place" v="locality" />
		<tag k="ssr:stedsnr" v="943731" />
	</node>
	<node id="-540722" lat="61.9383472183" lon="5.16050554775">
		<tag k="name" v="Bjørnarysta" />
		<tag k="natural" v="hill" />
		<tag k="place" v="locality" />
		<tag k="ssr:stedsnr" v="943667" />
	</node>
	<node id="-540721" lat="62.0033833349" lon="5.09881388678">
		<tag k="name" v="Kyvehornet" />
		<tag k="natural" v="hill" />
		<tag k="place" v="locality" />
		<tag k="ssr:stedsnr" v="943655" />
	</node>
	<node id="-540720" lat="62.0012805531" lon="5.11012778485">
		<tag k="name" v="Fossane" />
		<tag k="place" v="locality" />
		<tag k="ssr:stedsnr" v="943646" />
	</node>
	<node id="-540719" lat="61.9438027767" lon="5.16915278531">
		<tag k="name" v="Storekaren" />
		<tag k="natural" v="hill" />
		<tag k="place" v="locality" />
		<tag k="ssr:stedsnr" v="943638" />
	</node>
	<node id="-540718" lat="61.9602305593" lon="5.19392500084">
		<tag k="name" v="Labba" />
		<tag k="natural" v="hill" />
		<tag k="place" v="locality" />
		<tag k="ssr:stedsnr" v="943636" />
	</node>
	<node id="-540717" lat="61.9155138852" lon="5.3356111068">
		<tag k="name" v="Krokeberget" />
		<tag k="natural" v="hill" />
		<tag k="place" v="locality" />
		<tag k="ssr:stedsnr" v="943593" />
	</node>
	<node id="-540715" lat="62.0250805518" lon="5.11368611263">
		<tag k="name" v="Halsen" />
		<tag k="natural" v="valley" />
		<tag k="place" v="locality" />
		<tag k="ssr:stedsnr" v="943537" />
	</node>
	<node id="-540712" lat="61.9741999959" lon="5.51895554827">
		<tag k="name" v="Noradekkene" />
		<tag k="place" v="locality" />
		<tag k="ssr:stedsnr" v="943458" />
	</node>
	<node id="-540710" lat="61.9723166703" lon="5.51363333494">
		<tag k="name" v="Bjørnahyllene" />
		<tag k="natural" v="hill" />
		<tag k="place" v="locality" />
		<tag k="ssr:stedsnr" v="943453" />
	</node>
	<node id="-540706" lat="62.029238892" lon="4.99579443784">
		<tag k="fixme" v="consider natural=peak for the most distinct mountains in the district" />
		<tag k="name" v="Lyngfjellet" />
		<tag k="natural" v="hill" />
		<tag k="place" v="locality" />
		<tag k="ssr:stedsnr" v="943018" />
	</node>
	<node id="-540703" lat="61.9756999984" lon="5.50043334194">
		<tag k="name" v="Resstallen" />
		<tag k="natural" v="hill" />
		<tag k="place" v="locality" />
		<tag k="ssr:stedsnr" v="943820" />
	</node>
	<node id="-540699" lat="61.975663885" lon="5.06727777025">
		<tag k="fixme" v="consider natural=peak for the most distinct mountains in the district" />
		<tag k="name" v="Nakkane" />
		<tag k="natural" v="hill" />
		<tag k="place" v="locality" />
		<tag k="ssr:stedsnr" v="931009" />
	</node>
	<node id="-540697" lat="62.0197861094" lon="5.03653888561">
		<tag k="name" v="Vardenibba" />
		<tag k="natural" v="hill" />
		<tag k="place" v="locality" />
		<tag k="ssr:stedsnr" v="921696" />
	</node>
	<node id="-540689" lat="61.903388885" lon="5.04833334159">
		<tag k="alt_name" v="Raudalsegga" />
		<tag k="fixme" v="consider natural=peak for the most distinct mountains in the district" />
		<tag k="name" v="Rauddalsegga" />
		<tag k="natural" v="hill" />
		<tag k="place" v="locality" />
		<tag k="ssr:stedsnr" v="920980" />
	</node>
	<node id="-540686" lat="61.950252782" lon="5.35741110726">
		<tag k="name" v="Holedalen" />
		<tag k="natural" v="valley" />
		<tag k="place" v="locality" />
		<tag k="ssr:stedsnr" v="920804" />
	</node>
	<node id="-540682" lat="61.9516194432" lon="5.16871110667">
		<tag k="name" v="Røyseheida" />
		<tag k="natural" v="hill" />
		<tag k="place" v="locality" />
		<tag k="ssr:stedsnr" v="920786" />
	</node>
	<node id="-540678" lat="61.9283972264" lon="5.22475555215">
		<tag k="name" v="Middagshaugen" />
		<tag k="natural" v="hill" />
		<tag k="place" v="locality" />
		<tag k="ssr:stedsnr" v="920234" />
	</node>
</osm>
