<?xml version="1.0" encoding="UTF-8"?>
<osm generator="osmapis" version="0.6">
	<node id="-62688" lat="60.2545500005" lon="11.6824611188">
		<tag k="name" v="Sør-Odal kommune" />
		<tag k="ssr:date" v="2016-05-10" />
		<tag k="ssr:gruppe" v="administrativeIndelinger" />
		<tag k="ssr:hovedgruppe" v="offentligAdministrasjon" />
		<tag k="ssr:stedsnr" v="268272" />
		<tag k="ssr:type" v="kommune" />
	</node>
	<node id="-62139" lat="60.3211268293" lon="11.7289987227">
		<tag k="name" v="Sagalandet" />
		<tag k="ssr:date" v="2019-05-30" />
		<tag k="ssr:gruppe" v="veg" />
		<tag k="ssr:hovedgruppe" v="infrastruktur" />
		<tag k="ssr:stedsnr" v="1003386" />
		<tag k="ssr:type" v="adressenavn" />
	</node>
	<node id="-62138" lat="60.2452537192" lon="11.5923162737">
		<tag k="name" v="Husåsvegen" />
		<tag k="ssr:date" v="2019-05-30" />
		<tag k="ssr:gruppe" v="veg" />
		<tag k="ssr:hovedgruppe" v="infrastruktur" />
		<tag k="ssr:stedsnr" v="1002638" />
		<tag k="ssr:type" v="adressenavn" />
	</node>
	<node id="-62137" lat="60.2161051597" lon="11.8472617621">
		<tag k="name" v="Hærnesstubben" />
		<tag k="ssr:date" v="2019-05-30" />
		<tag k="ssr:gruppe" v="veg" />
		<tag k="ssr:hovedgruppe" v="infrastruktur" />
		<tag k="ssr:stedsnr" v="1002613" />
		<tag k="ssr:type" v="adressenavn" />
	</node>
	<node id="-62136" lat="60.2477566492" lon="11.6855332732">
		<tag k="name" v="Bringebærlia" />
		<tag k="ssr:date" v="2019-05-30" />
		<tag k="ssr:gruppe" v="veg" />
		<tag k="ssr:hovedgruppe" v="infrastruktur" />
		<tag k="ssr:stedsnr" v="1002548" />
		<tag k="ssr:type" v="adressenavn" />
	</node>
	<node id="-62135" lat="60.2473306311" lon="11.685724109">
		<tag k="name" v="Blåbærbakken" />
		<tag k="ssr:date" v="2019-05-30" />
		<tag k="ssr:gruppe" v="veg" />
		<tag k="ssr:hovedgruppe" v="infrastruktur" />
		<tag k="ssr:stedsnr" v="1002546" />
		<tag k="ssr:type" v="adressenavn" />
	</node>
	<node id="-62134" lat="60.2388875194" lon="11.894489934">
		<tag k="name" v="Edsbergvegen" />
		<tag k="ssr:date" v="2019-05-30" />
		<tag k="ssr:gruppe" v="veg" />
		<tag k="ssr:hovedgruppe" v="infrastruktur" />
		<tag k="ssr:stedsnr" v="1002366" />
		<tag k="ssr:type" v="adressenavn" />
	</node>
	<node id="-62133" lat="60.2626881589" lon="11.5988849597">
		<tag k="name" v="Dysttjernvegen" />
		<tag k="ssr:date" v="2019-05-30" />
		<tag k="ssr:gruppe" v="veg" />
		<tag k="ssr:hovedgruppe" v="infrastruktur" />
		<tag k="ssr:stedsnr" v="1002618" />
		<tag k="ssr:type" v="adressenavn" />
	</node>
	<node id="-62132" lat="60.2279601393" lon="11.9032081696">
		<tag k="name" v="Krokenvegen" />
		<tag k="ssr:date" v="2019-05-30" />
		<tag k="ssr:gruppe" v="veg" />
		<tag k="ssr:hovedgruppe" v="infrastruktur" />
		<tag k="ssr:stedsnr" v="1002376" />
		<tag k="ssr:type" v="adressenavn" />
	</node>
	<node id="-63859" lat="60.5908609473" lon="9.63819281559">
		<tag k="fixme" v="multiple name tags, choose one and add the other to alt_name" />
		<tag k="name" v="Austlandet;Østlandet" />
		<tag k="ssr:date" v="2018-01-09" />
		<tag k="ssr:gruppe" v="administrativeIndelinger" />
		<tag k="ssr:hovedgruppe" v="offentligAdministrasjon" />
		<tag k="ssr:stedsnr" v="974775" />
		<tag k="ssr:type" v="annenAdministrativInndeling" />
	</node>
	<node id="-62131" lat="60.2311929035" lon="11.9012360442">
		<tag k="name" v="Nedre Edsbergveg" />
		<tag k="ssr:date" v="2019-05-30" />
		<tag k="ssr:gruppe" v="veg" />
		<tag k="ssr:hovedgruppe" v="infrastruktur" />
		<tag k="ssr:stedsnr" v="1002372" />
		<tag k="ssr:type" v="adressenavn" />
	</node>
</osm>
