<?xml version="1.0" encoding="UTF-8"?>
<osm generator="osmapis" version="0.6">
	<node id="-734368" lat="68.5849655765" lon="16.6377724803">
		<tag k="name" v="Steinveien" />
		<tag k="ssr:date" v="2019-05-30" />
		<tag k="ssr:gruppe" v="veg" />
		<tag k="ssr:hovedgruppe" v="infrastruktur" />
		<tag k="ssr:stedsnr" v="1009660" />
		<tag k="ssr:type" v="adressenavn" />
	</node>
	<node id="-734367" lat="68.6797338329" lon="16.8932445303">
		<tag k="name" v="Renså" />
		<tag k="ssr:date" v="2019-05-30" />
		<tag k="ssr:gruppe" v="veg" />
		<tag k="ssr:hovedgruppe" v="infrastruktur" />
		<tag k="ssr:stedsnr" v="1009627" />
		<tag k="ssr:type" v="adressenavn" />
	</node>
	<node id="-734366" lat="68.6879307772" lon="16.9237578548">
		<tag k="name" v="Rensådalen" />
		<tag k="ssr:date" v="2019-05-30" />
		<tag k="ssr:gruppe" v="veg" />
		<tag k="ssr:hovedgruppe" v="infrastruktur" />
		<tag k="ssr:stedsnr" v="1009611" />
		<tag k="ssr:type" v="adressenavn" />
	</node>
	<node id="-734365" lat="68.5834918424" lon="16.5740736445">
		<tag k="name" v="Stigninga" />
		<tag k="ssr:date" v="2019-05-30" />
		<tag k="ssr:gruppe" v="veg" />
		<tag k="ssr:hovedgruppe" v="infrastruktur" />
		<tag k="ssr:stedsnr" v="1009575" />
		<tag k="ssr:type" v="adressenavn" />
	</node>
	<node id="-734364" lat="68.5917392735" lon="16.5727232989">
		<tag k="name" v="Lilleskånland" />
		<tag k="ssr:date" v="2019-05-30" />
		<tag k="ssr:gruppe" v="veg" />
		<tag k="ssr:hovedgruppe" v="infrastruktur" />
		<tag k="ssr:stedsnr" v="1009561" />
		<tag k="ssr:type" v="adressenavn" />
	</node>
	<node id="-734363" lat="68.5895450504" lon="16.5699484307">
		<tag k="name" v="Haretråkket" />
		<tag k="ssr:date" v="2019-05-30" />
		<tag k="ssr:gruppe" v="veg" />
		<tag k="ssr:hovedgruppe" v="infrastruktur" />
		<tag k="ssr:stedsnr" v="1009559" />
		<tag k="ssr:type" v="adressenavn" />
	</node>
	<node id="-734362" lat="68.5172370525" lon="16.7241492075">
		<tag k="name" v="Svartvannveien" />
		<tag k="ssr:date" v="2019-05-30" />
		<tag k="ssr:gruppe" v="veg" />
		<tag k="ssr:hovedgruppe" v="infrastruktur" />
		<tag k="ssr:stedsnr" v="1009545" />
		<tag k="ssr:type" v="adressenavn" />
	</node>
	<node id="-734905" lat="68.5836194408" lon="16.5730388885">
		<tag k="loc_name:se" v="Skániid suohkan;Skánik" />
		<tag k="name" v="Skånland kommune" />
		<tag k="name:no" v="Skånland kommune" />
		<tag k="ssr:date" v="2018-08-27" />
		<tag k="ssr:gruppe" v="administrativeIndelinger" />
		<tag k="ssr:hovedgruppe" v="offentligAdministrasjon" />
		<tag k="ssr:stedsnr" v="632050" />
		<tag k="ssr:type" v="kommune" />
	</node>
	<node id="-734360" lat="68.56937061" lon="16.6195142291">
		<tag k="name" v="Bøveien" />
		<tag k="ssr:date" v="2019-05-30" />
		<tag k="ssr:gruppe" v="veg" />
		<tag k="ssr:hovedgruppe" v="infrastruktur" />
		<tag k="ssr:stedsnr" v="1009534" />
		<tag k="ssr:type" v="adressenavn" />
	</node>
	<node id="-734361" lat="68.5710638941" lon="16.6470181829">
		<tag k="name" v="Trøsen" />
		<tag k="ssr:date" v="2019-05-30" />
		<tag k="ssr:gruppe" v="veg" />
		<tag k="ssr:hovedgruppe" v="infrastruktur" />
		<tag k="ssr:stedsnr" v="1009536" />
		<tag k="ssr:type" v="adressenavn" />
	</node>
	<node id="-735023" lat="68.6315166704" lon="16.5897805668">
		<tag k="name" v="Langkvitneset" />
		<tag k="ssr:date" v="2016-05-11" />
		<tag k="ssr:gruppe" v="navigasjon" />
		<tag k="ssr:hovedgruppe" v="infrastruktur" />
		<tag k="ssr:stedsnr" v="748032" />
		<tag k="ssr:type" v="fyrlykt" />
	</node>
	<node id="-735307" lat="68.4849327361" lon="16.2297866207">
		<tag k="fixme" v="multiple name tags, choose one and add the other to alt_name" />
		<tag k="name" v="Nord-Noreg;Nord-Norge" />
		<tag k="ssr:date" v="2017-05-18" />
		<tag k="ssr:gruppe" v="administrativeIndelinger" />
		<tag k="ssr:hovedgruppe" v="offentligAdministrasjon" />
		<tag k="ssr:stedsnr" v="976106" />
		<tag k="ssr:type" v="annenAdministrativInndeling" />
	</node>
	<node id="-735260" lat="68.6748388854" lon="17.0987416624">
		<tag k="name" v="Grovfjorden" />
		<tag k="ssr:date" v="2016-05-11" />
		<tag k="ssr:gruppe" v="navigasjon" />
		<tag k="ssr:hovedgruppe" v="infrastruktur" />
		<tag k="ssr:stedsnr" v="930994" />
		<tag k="ssr:type" v="fyrlykt" />
	</node>
	<node id="-734369" lat="68.5791574891" lon="16.644216564">
		<tag k="name" v="Elvehøy" />
		<tag k="ssr:date" v="2019-05-30" />
		<tag k="ssr:gruppe" v="veg" />
		<tag k="ssr:hovedgruppe" v="infrastruktur" />
		<tag k="ssr:stedsnr" v="1009663" />
		<tag k="ssr:type" v="adressenavn" />
	</node>
</osm>
