<?xml version="1.0" encoding="UTF-8"?>
<osm generator="osmapis" version="0.6">
	<node id="-468973" lat="60.2407138876" lon="5.74459443804">
		<tag k="alt_name" v="Fusa" />
		<tag k="name" v="Fusa kommune" />
		<tag k="ssr:date" v="2019-02-26" />
		<tag k="ssr:gruppe" v="administrativeIndelinger" />
		<tag k="ssr:hovedgruppe" v="offentligAdministrasjon" />
		<tag k="ssr:stedsnr" v="570909" />
		<tag k="ssr:type" v="kommune" />
	</node>
	<node id="-469446" lat="60.0392137997" lon="5.70959030944">
		<tag k="alt_name" v="Lokksund, søre" />
		<tag k="name" v="Søra Lukksundet lykt" />
		<tag k="ssr:date" v="2016-08-26" />
		<tag k="ssr:gruppe" v="navigasjon" />
		<tag k="ssr:hovedgruppe" v="infrastruktur" />
		<tag k="ssr:stedsnr" v="764858" />
		<tag k="ssr:type" v="fyrlykt" />
	</node>
	<node id="-469877" lat="60.8816104596" lon="6.30047518531">
		<tag k="name" v="Vestlandet" />
		<tag k="ssr:date" v="2019-01-06" />
		<tag k="ssr:gruppe" v="administrativeIndelinger" />
		<tag k="ssr:hovedgruppe" v="offentligAdministrasjon" />
		<tag k="ssr:stedsnr" v="974777" />
		<tag k="ssr:type" v="annenAdministrativInndeling" />
	</node>
	<node id="-467577" lat="60.1483596902" lon="5.62847333752">
		<tag k="name" v="Furekamben" />
		<tag k="ssr:date" v="2019-05-30" />
		<tag k="ssr:gruppe" v="veg" />
		<tag k="ssr:hovedgruppe" v="infrastruktur" />
		<tag k="ssr:stedsnr" v="1038635" />
		<tag k="ssr:type" v="adressenavn" />
	</node>
	<node id="-467633" lat="60.2060666691" lon="5.59168610749">
		<tag k="name" v="Venjaneset lykt" />
		<tag k="ssr:date" v="2016-05-10" />
		<tag k="ssr:gruppe" v="navigasjon" />
		<tag k="ssr:hovedgruppe" v="infrastruktur" />
		<tag k="ssr:stedsnr" v="328242" />
		<tag k="ssr:type" v="fyrlykt" />
	</node>
</osm>
