<?xml version="1.0" encoding="UTF-8"?>
<<<<<<< HEAD
<osm version="0.6" generator="osmapis">
	<node lat="59.80630278036132" lon="10.68743333922753" id="-11045">
		<tag k="fixme" v="consider boundary=protected_area and relevant protect_class if not nature reserve" />
		<tag k="leisure" v="nature_reserve" />
		<tag k="name" v="Ekebo/Eikheim naturminne" />
		<tag k="old_name" v="Ekebo/Ekheim naturreservat" />
		<tag k="ssr:stedsnr" v="464051" />
	</node>
	<node lat="59.78440000317254" lon="10.599705561395258" id="-11170">
=======
<osm generator="osmapis" version="0.6">
	<node id="-247424" lat="59.844436111" lon="10.6386749967">
		<tag k="fixme" v="consider boundary=protected_area and relevant protect_class if not nature reserve" />
		<tag k="leisure" v="nature_reserve" />
		<tag k="name" v="Ildjernet naturreservat" />
		<tag k="ssr:stedsnr" v="585621" />
	</node>
	<node id="-247550" lat="59.8155003741" lon="10.6927520053">
		<tag k="fixme" v="consider boundary=protected_area and relevant protect_class if not nature reserve" />
		<tag k="leisure" v="nature_reserve" />
		<tag k="name" v="Sørbyskogen naturreservat" />
		<tag k="ssr:stedsnr" v="1074755" />
	</node>
	<node id="-247032" lat="59.8063027804" lon="10.6874333392">
>>>>>>> e1d4bc35ff8a6074a6f2e91616a996b547c36f15
		<tag k="fixme" v="consider boundary=protected_area and relevant protect_class if not nature reserve" />
		<tag k="leisure" v="nature_reserve" />
		<tag k="name" v="Ekebo/Ekheim naturresevat" />
		<tag k="ssr:stedsnr" v="464051" />
	</node>
<<<<<<< HEAD
	<node lat="59.85266627683342" lon="10.727047723227265" id="-11183">
=======
	<node id="-247507" lat="59.8187226001" lon="10.6033928156">
		<tag k="fixme" v="consider boundary=protected_area and relevant protect_class if not nature reserve" />
		<tag k="leisure" v="nature_reserve" />
		<tag k="name" v="Knerten naturreservat" />
		<tag k="ssr:stedsnr" v="828782" />
	</node>
	<node id="-247538" lat="59.8567056009" lon="10.722073795">
>>>>>>> e1d4bc35ff8a6074a6f2e91616a996b547c36f15
		<tag k="fixme" v="consider boundary=protected_area and relevant protect_class if not nature reserve" />
		<tag k="leisure" v="nature_reserve" />
		<tag k="name" v="Nordre Skjælholmen naturreservat" />
		<tag k="ssr:stedsnr" v="951480" />
	</node>
<<<<<<< HEAD
	<node lat="59.86268333488861" lon="10.716380561261467" id="-11187">
=======
	<node id="-247187" lat="59.8626833349" lon="10.7163805613">
>>>>>>> e1d4bc35ff8a6074a6f2e91616a996b547c36f15
		<tag k="fixme" v="consider boundary=protected_area and relevant protect_class if not nature reserve" />
		<tag k="leisure" v="nature_reserve" />
		<tag k="name" v="Husbergøya naturreservat" />
		<tag k="ssr:stedsnr" v="891497" />
	</node>
<<<<<<< HEAD
	<node lat="59.85670560093245" lon="10.722073794970722" id="-11265">
		<tag k="fixme" v="consider boundary=protected_area and relevant protect_class if not nature reserve" />
		<tag k="leisure" v="nature_reserve" />
		<tag k="name" v="Nordre Skjælholmen naturreservat" />
		<tag k="ssr:stedsnr" v="951480" />
	</node>
	<node lat="59.81711567022849" lon="10.596375441248146" id="-11363">
		<tag k="fixme" v="consider boundary=protected_area and relevant protect_class if not nature reserve" />
		<tag k="leisure" v="nature_reserve" />
		<tag k="name" v="Fyrsteilene naturreservat" />
		<tag k="ssr:stedsnr" v="221748" />
	</node>
	<node lat="59.77668611429099" lon="10.70182499441229" id="-11423">
		<tag k="fixme" v="consider boundary=protected_area and relevant protect_class if not nature reserve" />
		<tag k="leisure" v="nature_reserve" />
		<tag k="name" v="Blylagsdammen naturreservat" />
		<tag k="ssr:stedsnr" v="405422" />
	</node>
	<node lat="59.84443611103995" lon="10.638674996693721" id="-11463">
=======
	<node id="-247468" lat="59.7844000032" lon="10.5997055614">
		<tag k="fixme" v="consider boundary=protected_area and relevant protect_class if not nature reserve" />
		<tag k="leisure" v="nature_reserve" />
		<tag k="name" v="Kvistemyrdammen naturreservat" />
		<tag k="ssr:stedsnr" v="647429" />
	</node>
	<node id="-246930" lat="59.8171156702" lon="10.5963754412">
>>>>>>> e1d4bc35ff8a6074a6f2e91616a996b547c36f15
		<tag k="fixme" v="consider boundary=protected_area and relevant protect_class if not nature reserve" />
		<tag k="leisure" v="nature_reserve" />
		<tag k="name" v="Fyrsteilene naturreservat" />
		<tag k="ssr:stedsnr" v="221748" />
	</node>
<<<<<<< HEAD
	<node lat="59.81872260013585" lon="10.603392815582872" id="-11528">
		<tag k="fixme" v="consider boundary=protected_area and relevant protect_class if not nature reserve" />
		<tag k="leisure" v="nature_reserve" />
		<tag k="name" v="Knerten naturreservat" />
		<tag k="ssr:stedsnr" v="828782" />
	</node>
	<node lat="59.845772220009174" lon="10.691375007848352" id="-11537">
		<tag k="fixme" v="consider boundary=protected_area and relevant protect_class if not nature reserve" />
		<tag k="leisure" v="nature_reserve" />
		<tag k="name" v="Hellvik gamle brygge naturreservat" />
		<tag k="ssr:stedsnr" v="830489" />
	</node>
	<node lat="59.815500374050465" lon="10.692752005349114" id="-11578">
		<tag k="fixme" v="consider boundary=protected_area and relevant protect_class if not nature reserve" />
		<tag k="leisure" v="nature_reserve" />
		<tag k="name" v="Sørbyskogen naturreservat" />
		<tag k="ssr:stedsnr" v="1074755" />
=======
	<node id="-247082" lat="59.7766861143" lon="10.7018249944">
		<tag k="fixme" v="consider boundary=protected_area and relevant protect_class if not nature reserve" />
		<tag k="leisure" v="nature_reserve" />
		<tag k="name" v="Blylagsdammen naturreservat" />
		<tag k="ssr:stedsnr" v="405422" />
	</node>
	<node id="-247143" lat="59.8526662768" lon="10.7270477232">
		<tag k="fixme" v="consider boundary=protected_area and relevant protect_class if not nature reserve" />
		<tag k="leisure" v="nature_reserve" />
		<tag k="name" v="Søndre Skjælholmen naturreservat" />
		<tag k="ssr:stedsnr" v="708486" />
	</node>
	<node id="-247522" lat="59.84577222" lon="10.6913750078">
		<tag k="fixme" v="consider boundary=protected_area and relevant protect_class if not nature reserve" />
		<tag k="leisure" v="nature_reserve" />
		<tag k="name" v="Hellvik gamle brygge naturreservat" />
		<tag k="ssr:stedsnr" v="830489" />
>>>>>>> e1d4bc35ff8a6074a6f2e91616a996b547c36f15
	</node>
</osm>
