<?xml version="1.0" encoding="UTF-8"?>
<<<<<<< HEAD
<osm version="0.6" generator="osmapis">
	<node lat="59.773152781792575" lon="10.62175000640061" id="-10984">
		<tag k="name" v="Bjønndalen" />
=======
<osm generator="osmapis" version="0.6">
	<node id="-247033" lat="59.7378250037" lon="10.5957166733">
		<tag k="name" v="Skogheim" />
		<tag k="place" v="locality" />
		<tag k="ssr:stedsnr" v="464341" />
	</node>
	<node id="-247414" lat="59.8467722189" lon="10.6713472186">
		<tag k="alt_name" v="Skoklefall" />
		<tag k="amenity" v="place_of_worship" />
		<tag k="denomination" v="lutheran" />
		<tag k="name" v="Skoklefall kirke" />
		<tag k="religion" v="christian" />
		<tag k="ssr:stedsnr" v="550771" />
	</node>
	<node id="-247483" lat="59.8642027771" lon="10.6651833349">
		<tag k="name" v="Hattløkka" />
		<tag k="place" v="locality" />
		<tag k="ssr:stedsnr" v="769479" />
	</node>
	<node id="-247520" lat="59.8384833353" lon="10.6951472257">
		<tag k="name" v="Bonden" />
>>>>>>> e1d4bc35ff8a6074a6f2e91616a996b547c36f15
		<tag k="place" v="locality" />
		<tag k="ssr:stedsnr" v="100423" />
	</node>
<<<<<<< HEAD
	<node lat="59.7767638847505" lon="10.593069444135443" id="-11029">
=======
	<node id="-247006" lat="59.7767638848" lon="10.5930694441">
>>>>>>> e1d4bc35ff8a6074a6f2e91616a996b547c36f15
		<tag k="name" v="Helleberget" />
		<tag k="place" v="locality" />
		<tag k="ssr:stedsnr" v="282510" />
	</node>
<<<<<<< HEAD
	<node lat="59.737825003683156" lon="10.59571667331576" id="-11046">
		<tag k="name" v="Skogheim" />
=======
	<node id="-247509" lat="59.8261416669" lon="10.6854583382">
		<tag k="name" v="Luserudbråten" />
>>>>>>> e1d4bc35ff8a6074a6f2e91616a996b547c36f15
		<tag k="place" v="locality" />
		<tag k="ssr:stedsnr" v="464341" />
	</node>
<<<<<<< HEAD
	<node lat="59.86865833337234" lon="10.659513885964394" id="-11050">
		<tag k="name" v="Kalveløkka" />
=======
	<node id="-247111" lat="59.8707444454" lon="10.6570444468">
		<tag k="name" v="Signalen" />
>>>>>>> e1d4bc35ff8a6074a6f2e91616a996b547c36f15
		<tag k="place" v="locality" />
		<tag k="ssr:stedsnr" v="465430" />
	</node>
<<<<<<< HEAD
	<node lat="59.82403055699329" lon="10.632855556872968" id="-11054">
		<tag k="name" v="Huldrebakken" />
=======
	<node id="-247137" lat="59.8283277772" lon="10.6963250066">
		<tag k="name" v="Saltboden" />
		<tag k="place" v="locality" />
		<tag k="ssr:stedsnr" v="707861" />
	</node>
	<node id="-246978" lat="59.7731527818" lon="10.6217500064">
		<tag k="name" v="Bjønndalen" />
>>>>>>> e1d4bc35ff8a6074a6f2e91616a996b547c36f15
		<tag k="place" v="locality" />
		<tag k="ssr:stedsnr" v="464848" />
	</node>
<<<<<<< HEAD
	<node lat="59.817699996264764" lon="10.618830551961974" id="-11075">
		<tag k="name" v="Kula" />
=======
	<node id="-247179" lat="59.7954416644" lon="10.632188885">
		<tag k="name" v="Dammyra" />
		<tag k="place" v="locality" />
		<tag k="ssr:stedsnr" v="888141" />
	</node>
	<node id="-247355" lat="59.7979111074" lon="10.6234694432">
		<tag k="alt_name" v="Persilengen østre" />
		<tag k="name" v="Østre Persilengen" />
>>>>>>> e1d4bc35ff8a6074a6f2e91616a996b547c36f15
		<tag k="place" v="locality" />
		<tag k="ssr:stedsnr" v="482638" />
	</node>
<<<<<<< HEAD
	<node lat="59.746663892638345" lon="10.610394438155412" id="-11099">
=======
	<node id="-247098" lat="59.7466638926" lon="10.6103944382">
>>>>>>> e1d4bc35ff8a6074a6f2e91616a996b547c36f15
		<tag k="alt_name" v="Gjøfjell" />
		<tag k="amenity" v="place_of_worship" />
		<tag k="denomination" v="lutheran" />
		<tag k="name" v="Gjøfjell kirke" />
		<tag k="religion" v="christian" />
		<tag k="ssr:stedsnr" v="670941" />
	</node>
<<<<<<< HEAD
	<node lat="59.798347218870276" lon="10.618750000839317" id="-11110">
		<tag k="name" v="Persilengen" />
=======
	<node id="-247225" lat="59.8209777783" lon="10.6700722219">
		<tag k="name" v="Hareposten" />
		<tag k="place" v="locality" />
		<tag k="ssr:stedsnr" v="949832" />
	</node>
	<node id="-247223" lat="59.7854333365" lon="10.5972777693">
		<tag k="name" v="Sørstrand" />
>>>>>>> e1d4bc35ff8a6074a6f2e91616a996b547c36f15
		<tag k="place" v="locality" />
		<tag k="ssr:stedsnr" v="463159" />
	</node>
<<<<<<< HEAD
	<node lat="59.77802499805739" lon="10.605383334108353" id="-11112">
=======
	<node id="-247093" lat="59.7780249981" lon="10.6053833341">
>>>>>>> e1d4bc35ff8a6074a6f2e91616a996b547c36f15
		<tag k="amenity" v="community_centre" />
		<tag k="name" v="Sandvang" />
		<tag k="ssr:stedsnr" v="464259" />
	</node>
<<<<<<< HEAD
	<node lat="59.862022217905704" lon="10.656397217033405" id="-11116">
		<tag k="name" v="Kleiva" />
=======
	<node id="-247091" lat="59.7983472189" lon="10.6187500008">
		<tag k="name" v="Persilengen" />
>>>>>>> e1d4bc35ff8a6074a6f2e91616a996b547c36f15
		<tag k="place" v="locality" />
		<tag k="ssr:stedsnr" v="465429" />
	</node>
<<<<<<< HEAD
	<node lat="59.87074444544009" lon="10.657044446839823" id="-11119">
		<tag k="name" v="Signalen" />
=======
	<node id="-247080" lat="59.8270027764" lon="10.6973638859">
		<tag k="name" v="Strandparken" />
>>>>>>> e1d4bc35ff8a6074a6f2e91616a996b547c36f15
		<tag k="place" v="locality" />
		<tag k="ssr:stedsnr" v="482470" />
	</node>
	<node lat="59.732699998516146" lon="10.59388889737796" id="-11166">
		<tag k="name" v="Vasaga" />
		<tag k="place" v="locality" />
		<tag k="ssr:stedsnr" v="645372" />
	</node>
	<node lat="59.82832777718797" lon="10.696325006553565" id="-11193">
		<tag k="name" v="Saltboden" />
		<tag k="place" v="locality" />
		<tag k="ssr:stedsnr" v="707861" />
	</node>
	<node lat="59.83848333527411" lon="10.695147225670775" id="-11236">
		<tag k="name" v="Bonden" />
		<tag k="place" v="locality" />
		<tag k="ssr:stedsnr" v="830475" />
	</node>
<<<<<<< HEAD
	<node lat="59.820977778335966" lon="10.670072221917922" id="-11259">
		<tag k="name" v="Hareposten" />
		<tag k="place" v="locality" />
		<tag k="ssr:stedsnr" v="949832" />
	</node>
	<node lat="59.805163892641964" lon="10.693669439026687" id="-11346">
=======
	<node id="-247335" lat="59.8051638926" lon="10.693669439">
>>>>>>> e1d4bc35ff8a6074a6f2e91616a996b547c36f15
		<tag k="alt_name" v="Nesodden" />
		<tag k="amenity" v="place_of_worship" />
		<tag k="denomination" v="lutheran" />
		<tag k="name" v="Nesodden kirke" />
		<tag k="religion" v="christian" />
		<tag k="ssr:stedsnr" v="187651" />
	</node>
<<<<<<< HEAD
	<node lat="59.79791110744476" lon="10.6234694432287" id="-11393">
		<tag k="alt_name" v="Persilengen østre" />
		<tag k="name" v="Østre Persilengen" />
=======
	<node id="-247459" lat="59.7326999985" lon="10.5938888974">
		<tag k="name" v="Vasaga" />
>>>>>>> e1d4bc35ff8a6074a6f2e91616a996b547c36f15
		<tag k="place" v="locality" />
		<tag k="ssr:stedsnr" v="342164" />
	</node>
<<<<<<< HEAD
	<node lat="59.82700277643161" lon="10.697363885855815" id="-11420">
		<tag k="name" v="Strandparken" />
		<tag k="place" v="locality" />
		<tag k="ssr:stedsnr" v="403868" />
	</node>
	<node lat="59.84677221894543" lon="10.671347218647579" id="-11455">
		<tag k="alt_name" v="Skoklefall" />
		<tag k="amenity" v="place_of_worship" />
		<tag k="denomination" v="lutheran" />
		<tag k="name" v="Skoklefall kirke" />
		<tag k="religion" v="christian" />
		<tag k="ssr:stedsnr" v="550771" />
	</node>
	<node lat="59.86420277705343" lon="10.665183334897431" id="-11515">
		<tag k="name" v="Hattløkka" />
=======
	<node id="-247051" lat="59.8176999963" lon="10.618830552">
		<tag k="name" v="Kula" />
		<tag k="place" v="locality" />
		<tag k="ssr:stedsnr" v="482638" />
	</node>
	<node id="-247045" lat="59.8686583334" lon="10.659513886">
		<tag k="name" v="Kalveløkka" />
>>>>>>> e1d4bc35ff8a6074a6f2e91616a996b547c36f15
		<tag k="place" v="locality" />
		<tag k="ssr:stedsnr" v="769479" />
	</node>
<<<<<<< HEAD
	<node lat="59.82614166690656" lon="10.685458338192783" id="-11532">
		<tag k="name" v="Luserudbråten" />
=======
	<node id="-247044" lat="59.8620222179" lon="10.656397217">
		<tag k="name" v="Kleiva" />
>>>>>>> e1d4bc35ff8a6074a6f2e91616a996b547c36f15
		<tag k="place" v="locality" />
		<tag k="ssr:stedsnr" v="828842" />
	</node>
<<<<<<< HEAD
	<node lat="59.79544166438218" lon="10.632188885006432" id="-11557">
		<tag k="name" v="Dammyra" />
=======
	<node id="-247041" lat="59.824030557" lon="10.6328555569">
		<tag k="name" v="Huldrebakken" />
>>>>>>> e1d4bc35ff8a6074a6f2e91616a996b547c36f15
		<tag k="place" v="locality" />
		<tag k="ssr:stedsnr" v="888141" />
	</node>
<<<<<<< HEAD
	<node lat="59.78543333647297" lon="10.597277769266332" id="-11565">
		<tag k="name" v="Sørstrand" />
		<tag k="place" v="locality" />
		<tag k="ssr:stedsnr" v="949444" />
	</node>
=======
>>>>>>> e1d4bc35ff8a6074a6f2e91616a996b547c36f15
</osm>
