<?xml version="1.0" encoding="UTF-8"?>
<osm version="0.6" generator="osmapis">
	<node lat="59.79149999778273" lon="10.649277784254203" id="-15329">
		<tag k="name" v="Lønnås" />
		<tag k="place" v="farm" />
		<tag k="ssr:stedsnr" v="4662" />
	</node>
	<node lat="59.77844360039446" lon="10.66112613207327" id="-15331">
		<tag k="name" v="Sandåsen" />
		<tag k="place" v="farm" />
		<tag k="ssr:stedsnr" v="4680" />
	</node>
	<node lat="59.806222220042926" lon="10.680563887652" id="-15337">
		<tag k="name" v="Holt" />
		<tag k="place" v="farm" />
		<tag k="ssr:stedsnr" v="39104" />
	</node>
	<node lat="59.80394999929822" lon="10.626916674896659" id="-15338">
		<tag k="name" v="Bekkevoll" />
		<tag k="place" v="farm" />
		<tag k="ssr:stedsnr" v="39120" />
	</node>
	<node lat="59.818961113848815" lon="10.651869452700621" id="-15343">
		<tag k="name" v="Langemyr" />
		<tag k="place" v="isolated_dwelling" />
		<tag k="ssr:stedsnr" v="39766" />
	</node>
	<node lat="59.78095833223955" lon="10.690838893875414" id="-15344">
		<tag k="alt_name" v="Krange søndre" />
		<tag k="name" v="Søndre Krange" />
		<tag k="place" v="farm" />
		<tag k="ssr:stedsnr" v="40409" />
	</node>
	<node lat="59.77725750256784" lon="10.690678664122137" id="-15354">
		<tag k="fixme" v="consider place=hamlet" />
		<tag k="name" v="Hasle" />
		<tag k="place" v="farm" />
		<tag k="ssr:stedsnr" v="65612" />
	</node>
	<node lat="59.861397223786085" lon="10.671794453147204" id="-15357">
		<tag k="fixme" v="consider place=suburb, village or hamlet" />
		<tag k="name" v="Oksval" />
		<tag k="place" v="quarter" />
		<tag k="ssr:stedsnr" v="65804" />
	</node>
	<node lat="59.7566916655442" lon="10.639766669497446" id="-15360">
		<tag k="name" v="Teigen" />
		<tag k="place" v="locality" />
		<tag k="ssr:stedsnr" v="247587" />
	</node>
	<node lat="59.78908888551337" lon="10.599655554626908" id="-15361">
		<tag k="name" v="Dalbo" />
		<tag k="place" v="isolated_dwelling" />
		<tag k="ssr:stedsnr" v="247637" />
	</node>
	<node lat="59.82733086992081" lon="10.679851497376617" id="-15362">
		<tag k="fixme" v="consider place=hamlet" />
		<tag k="name" v="Flateby" />
		<tag k="place" v="farm" />
		<tag k="ssr:stedsnr" v="247708" />
	</node>
	<node lat="59.79900000298134" lon="10.690344450175893" id="-15364">
		<tag k="name" v="Rudsborg" />
		<tag k="place" v="farm" />
		<tag k="ssr:stedsnr" v="99115" />
	</node>
	<node lat="59.866452781085336" lon="10.655580550095685" id="-15368">
		<tag k="name" v="Gråbeinberget" />
		<tag k="place" v="isolated_dwelling" />
		<tag k="ssr:stedsnr" v="102525" />
	</node>
	<node lat="59.741766664430365" lon="10.624744444135937" id="-15372">
		<tag k="name" v="Ødegaarden" />
		<tag k="place" v="farm" />
		<tag k="ssr:stedsnr" v="124965" />
	</node>
	<node lat="59.841559149168816" lon="10.673748221181587" id="-15373">
		<tag k="fixme" v="consider place=hamlet" />
		<tag k="name" v="Skoklefall" />
		<tag k="place" v="farm" />
		<tag k="ssr:stedsnr" v="126745" />
	</node>
	<node lat="59.78604444387768" lon="10.598766662141081" id="-15374">
		<tag k="name" v="Nordstrand" />
		<tag k="place" v="hamlet" />
		<tag k="ssr:stedsnr" v="126654" />
	</node>
	<node lat="59.84216111007541" lon="10.674488885063807" id="-15378">
		<tag k="alt_name" v="Skoklefall østre" />
		<tag k="name" v="Østre Skoklefall" />
		<tag k="place" v="farm" />
		<tag k="ssr:stedsnr" v="162515" />
	</node>
	<node lat="59.788780554977244" lon="10.610675007114937" id="-15381">
		<tag k="alt_name" v="Beksrud" />
		<tag k="name" v="Bekksrud" />
		<tag k="place" v="farm" />
		<tag k="ssr:stedsnr" v="186690" />
	</node>
	<node lat="59.850733329052495" lon="10.677686105081946" id="-15382">
		<tag k="fixme" v="consider place=hamlet" />
		<tag k="name" v="Ursvik" />
		<tag k="place" v="village" />
		<tag k="ssr:stedsnr" v="186806" />
	</node>
	<node lat="59.743222226128424" lon="10.60681110245827" id="-15387">
		<tag k="name" v="Nygård" />
		<tag k="place" v="farm" />
		<tag k="ssr:stedsnr" v="207132" />
	</node>
	<node lat="59.80889166381145" lon="10.664099994113569" id="-15388">
		<tag k="name" v="Smedsrud" />
		<tag k="place" v="locality" />
		<tag k="ssr:stedsnr" v="221027" />
	</node>
	<node lat="59.79196666820811" lon="10.686886114298165" id="-15389">
		<tag k="name" v="Jaersbråtan" />
		<tag k="place" v="farm" />
		<tag k="ssr:stedsnr" v="221105" />
	</node>
	<node lat="59.82239722511212" lon="10.62615833915676" id="-15391">
		<tag k="name" v="Tømmerbakke" />
		<tag k="place" v="isolated_dwelling" />
		<tag k="ssr:stedsnr" v="221792" />
	</node>
	<node lat="59.811672221414256" lon="10.687008341705106" id="-15392">
		<tag k="name" v="Kontra" />
		<tag k="place" v="farm" />
		<tag k="ssr:stedsnr" v="221809" />
	</node>
	<node lat="59.77540278075764" lon="10.696844453233894" id="-15393">
		<tag k="name" v="Brenningen" />
		<tag k="place" v="locality" />
		<tag k="ssr:stedsnr" v="223426" />
	</node>
	<node lat="59.77555000063072" lon="10.689566670337351" id="-15394">
		<tag k="name" v="Søndre Hasle" />
		<tag k="place" v="farm" />
		<tag k="ssr:stedsnr" v="223430" />
	</node>
	<node lat="59.84196666482152" lon="10.693163891293398" id="-15395">
		<tag k="name" v="Strandheim" />
		<tag k="place" v="isolated_dwelling" />
		<tag k="ssr:stedsnr" v="450387" />
	</node>
	<node lat="59.863973173693964" lon="10.668899527283411" id="-15398">
		<tag k="name" v="Amalienborg" />
		<tag k="place" v="isolated_dwelling" />
		<tag k="ssr:stedsnr" v="238402" />
	</node>
	<node lat="59.750492521165015" lon="10.60822201324769" id="-15399">
		<tag k="fixme" v="consider place=hamlet" />
		<tag k="name" v="Gjøfjell" />
		<tag k="place" v="farm" />
		<tag k="ssr:stedsnr" v="247571" />
	</node>
	<node lat="59.77053611652073" lon="10.668847942243676" id="-15400">
		<tag k="fixme" v="consider place=hamlet" />
		<tag k="name" v="Hokholt" />
		<tag k="place" v="farm" />
		<tag k="ssr:stedsnr" v="247604" />
	</node>
	<node lat="59.76156944617796" lon="10.625194450841247" id="-15401">
		<tag k="name" v="Ravnsborg" />
		<tag k="place" v="farm" />
		<tag k="ssr:stedsnr" v="247614" />
	</node>
	<node lat="59.79083333091507" lon="10.608974997049973" id="-15406">
		<tag k="name" v="Løkkeberg" />
		<tag k="place" v="isolated_dwelling" />
		<tag k="ssr:stedsnr" v="282173" />
	</node>
	<node lat="59.74569166524069" lon="10.610613893928623" id="-15407">
		<tag k="name" v="Kirkeli" />
		<tag k="place" v="farm" />
		<tag k="ssr:stedsnr" v="282313" />
	</node>
	<node lat="59.812532091483824" lon="10.637386088521612" id="-15412">
		<tag k="name" v="Bleksli" />
		<tag k="place" v="locality" />
		<tag k="ssr:stedsnr" v="282809" />
	</node>
	<node lat="59.76959444015225" lon="10.588936117554718" id="-15413">
		<tag k="name" v="Rogneskjær" />
		<tag k="place" v="isolated_dwelling" />
		<tag k="ssr:stedsnr" v="282577" />
	</node>
	<node lat="59.766955559496886" lon="10.655619438544962" id="-15414">
		<tag k="name" v="Fundingrud" />
		<tag k="place" v="farm" />
		<tag k="ssr:stedsnr" v="282579" />
	</node>
	<node lat="59.860002776498746" lon="10.666330555583906" id="-15416">
		<tag k="name" v="Toppen" />
		<tag k="place" v="quarter" />
		<tag k="ssr:stedsnr" v="284483" />
	</node>
	<node lat="59.84196944166681" lon="10.671158331897049" id="-15419">
		<tag k="alt_name" v="Skoklefall vestre" />
		<tag k="name" v="Vestre Skoklefall" />
		<tag k="place" v="farm" />
		<tag k="ssr:stedsnr" v="284514" />
	</node>
	<node lat="59.80497222512192" lon="10.68545833507561" id="-15420">
		<tag k="name" v="Kirkebøen" />
		<tag k="place" v="isolated_dwelling" />
		<tag k="ssr:stedsnr" v="463083" />
	</node>
	<node lat="59.78478610670222" lon="10.69436389245517" id="-15421">
		<tag k="alt_name" v="Grøstad nordre" />
		<tag k="name" v="Nordre Grøstad" />
		<tag k="place" v="farm" />
		<tag k="ssr:stedsnr" v="463199" />
	</node>
	<node lat="59.727861113726384" lon="10.612247219568669" id="-15428">
		<tag k="name" v="Agnor" />
		<tag k="place" v="locality" />
		<tag k="ssr:stedsnr" v="464482" />
	</node>
	<node lat="59.77618888941104" lon="10.59603333419765" id="-15429">
		<tag k="name" v="Hella" />
		<tag k="place" v="farm" />
		<tag k="ssr:stedsnr" v="464532" />
	</node>
	<node lat="59.80439444800296" lon="10.608988892952462" id="-15439">
		<tag k="name" v="Ommen" />
		<tag k="old_name" v="Ovnen" />
		<tag k="place" v="isolated_dwelling" />
		<tag k="ssr:stedsnr" v="307718" />
	</node>
	<node lat="59.777466669646934" lon="10.693619448285972" id="-15440">
		<tag k="name" v="Haslehaugen" />
		<tag k="place" v="farm" />
		<tag k="ssr:stedsnr" v="465386" />
	</node>
	<node lat="59.8079388864104" lon="10.683166658168808" id="-15442">
		<tag k="building" v="commercial" />
		<tag k="name" v="Sandmo" />
		<tag k="ssr:stedsnr" v="342047" />
	</node>
	<node lat="59.80879721795485" lon="10.628491667993835" id="-15444">
		<tag k="name" v="Berget" />
		<tag k="place" v="farm" />
		<tag k="ssr:stedsnr" v="342120" />
	</node>
	<node lat="59.74692500433168" lon="10.623450005267944" id="-15445">
		<tag k="name" v="Myrvoll" />
		<tag k="place" v="farm" />
		<tag k="ssr:stedsnr" v="342499" />
	</node>
	<node lat="59.830344447741545" lon="10.669988889070284" id="-15446">
		<tag k="loc_name" v="Vamyra" />
		<tag k="name" v="Vamyrplassen" />
		<tag k="place" v="locality" />
		<tag k="ssr:stedsnr" v="342819" />
	</node>
	<node lat="59.84977221950404" lon="10.654966659995239" id="-15448">
		<tag k="name" v="Brubakken" />
		<tag k="place" v="quarter" />
		<tag k="ssr:stedsnr" v="344510" />
	</node>
	<node lat="59.781328981221925" lon="10.69152871008807" id="-15451">
		<tag k="fixme" v="consider place=hamlet" />
		<tag k="name" v="Krange" />
		<tag k="place" v="farm" />
		<tag k="ssr:stedsnr" v="368716" />
	</node>
	<node lat="59.801002778666" lon="10.613138895523422" id="-15460">
		<tag k="name" v="Sofienlund" />
		<tag k="place" v="farm" />
		<tag k="ssr:stedsnr" v="403123" />
	</node>
	<node lat="59.79593888563083" lon="10.631124991106486" id="-15461">
		<tag k="name" v="Solhaug" />
		<tag k="place" v="farm" />
		<tag k="ssr:stedsnr" v="403154" />
	</node>
	<node lat="59.76175555254075" lon="10.649150001340075" id="-15463">
		<tag k="name" v="Tomta" />
		<tag k="place" v="locality" />
		<tag k="ssr:stedsnr" v="403576" />
	</node>
	<node lat="59.82160832908913" lon="10.633413891637952" id="-15465">
		<tag k="amenity" v="school" />
		<tag k="name" v="Alværn ungdomsskole" />
		<tag k="ssr:stedsnr" v="403824" />
	</node>
	<node lat="59.85233889119809" lon="10.658127771386186" id="-15468">
		<tag k="name" v="Skogen" />
		<tag k="place" v="quarter" />
		<tag k="ssr:stedsnr" v="489787" />
	</node>
	<node lat="59.80808888551931" lon="10.653613880647999" id="-15469">
		<tag k="alt_name" v="Baltserud" />
		<tag k="name" v="Baltsrud" />
		<tag k="place" v="farm" />
		<tag k="ssr:stedsnr" v="490691" />
	</node>
	<node lat="59.805066664247434" lon="10.66608611023326" id="-15470">
		<tag k="name" v="Nylenda" />
		<tag k="place" v="farm" />
		<tag k="ssr:stedsnr" v="490692" />
	</node>
	<node lat="59.7589833358356" lon="10.606233329846916" id="-15471">
		<tag k="name" v="Toppen" />
		<tag k="place" v="farm" />
		<tag k="ssr:stedsnr" v="490651" />
	</node>
	<node lat="59.79117463522887" lon="10.705442404912908" id="-15472">
		<tag k="fixme" v="consider place=suburb, village or hamlet" />
		<tag k="name" v="Bomansvik" />
		<tag k="place" v="quarter" />
		<tag k="ssr:stedsnr" v="490671" />
	</node>
	<node lat="59.835194446293926" lon="10.640663892275265" id="-15473">
		<tag k="alt_name" v="Sunnås" />
		<tag k="amenity" v="hospital" />
		<tag k="name" v="Sunnås sykehus" />
		<tag k="ssr:stedsnr" v="490766" />
	</node>
	<node lat="59.78513929686362" lon="10.6932174932617" id="-15475">
		<tag k="fixme" v="consider place=hamlet" />
		<tag k="name" v="Grøstad" />
		<tag k="place" v="farm" />
		<tag k="ssr:stedsnr" v="429660" />
	</node>
	<node lat="59.816161382814585" lon="10.70013421322155" id="-15478">
		<tag k="name" v="Torvvik" />
		<tag k="place" v="farm" />
		<tag k="ssr:stedsnr" v="430724" />
	</node>
	<node lat="59.800388888709996" lon="10.657555556679306" id="-15482">
		<tag k="name" v="Myra" />
		<tag k="place" v="farm" />
		<tag k="ssr:stedsnr" v="672684" />
	</node>
	<node lat="59.75287221914035" lon="10.621816670587513" id="-15483">
		<tag k="alt_name" v="Damengen" />
		<tag k="name" v="Damenga" />
		<tag k="place" v="farm" />
		<tag k="ssr:stedsnr" v="672584" />
	</node>
	<node lat="59.764795424130874" lon="10.63744320658744" id="-15484">
		<tag k="fixme" v="consider place=hamlet" />
		<tag k="name" v="Svestad" />
		<tag k="place" v="farm" />
		<tag k="ssr:stedsnr" v="672616" />
	</node>
	<node lat="59.75773333591513" lon="10.584063897276891" id="-15485">
		<tag k="name" v="Søndre Spro" />
		<tag k="place" v="village" />
		<tag k="ssr:stedsnr" v="672628" />
	</node>
	<node lat="59.79411944845503" lon="10.689524994341346" id="-15487">
		<tag k="name" v="Jaer" />
		<tag k="place" v="farm" />
		<tag k="ssr:stedsnr" v="672642" />
	</node>
	<node lat="59.785532357215054" lon="10.681814850411788" id="-15488">
		<tag k="alt_name" v="Kongebråten" />
		<tag k="name" v="Kongebråtan" />
		<tag k="place" v="locality" />
		<tag k="ssr:stedsnr" v="672655" />
	</node>
	<node lat="59.832849383882696" lon="10.675632012077818" id="-15490">
		<tag k="fixme" v="consider place=hamlet" />
		<tag k="name" v="Berger" />
		<tag k="place" v="farm" />
		<tag k="ssr:stedsnr" v="672747" />
	</node>
	<node lat="59.869994442671796" lon="10.657941666307183" id="-15492">
		<tag k="fixme" v="consider tourism=alpine_hut or tourism=chalet" />
		<tag k="name" v="Rødstua" />
		<tag k="ssr:stedsnr" v="463320" />
		<tag k="tourism" v="wilderness_hut" />
	</node>
	<node lat="59.81979444465309" lon="10.683977784746906" id="-15496">
		<tag k="name" v="Solberghagen" />
		<tag k="place" v="isolated_dwelling" />
		<tag k="ssr:stedsnr" v="464864" />
	</node>
	<node lat="59.85890681895334" lon="10.671295126595487" id="-15499">
		<tag k="name" v="Helgolf" />
		<tag k="place" v="isolated_dwelling" />
		<tag k="ssr:stedsnr" v="481403" />
	</node>
	<node lat="59.799194444313045" lon="10.612569444822745" id="-15506">
		<tag k="name" v="Skansen" />
		<tag k="place" v="farm" />
		<tag k="ssr:stedsnr" v="524126" />
	</node>
	<node lat="59.74545000063967" lon="10.597986108215459" id="-15507">
		<tag k="name" v="Bommen" />
		<tag k="place" v="farm" />
		<tag k="ssr:stedsnr" v="524306" />
	</node>
	<node lat="59.748480554327344" lon="10.62037500196696" id="-15508">
		<tag k="name" v="Myrene" />
		<tag k="place" v="farm" />
		<tag k="ssr:stedsnr" v="524502" />
	</node>
	<node lat="59.75620278213751" lon="10.608788894411544" id="-15509">
		<tag k="alt_name" v="Langfjell vestre" />
		<tag k="name" v="Vestre Langfjell" />
		<tag k="place" v="farm" />
		<tag k="ssr:stedsnr" v="524558" />
	</node>
	<node lat="59.75091944317427" lon="10.633824997614722" id="-15510">
		<tag k="name" v="Nylenna" />
		<tag k="place" v="locality" />
		<tag k="ssr:stedsnr" v="524566" />
	</node>
	<node lat="59.81553055746033" lon="10.626680554336978" id="-15511">
		<tag k="name" v="Sørli" />
		<tag k="place" v="farm" />
		<tag k="ssr:stedsnr" v="525763" />
	</node>
	<node lat="59.848122218864724" lon="10.682552776487992" id="-15513">
		<tag k="name" v="Fjellheim" />
		<tag k="place" v="isolated_dwelling" />
		<tag k="ssr:stedsnr" v="542390" />
	</node>
	<node lat="59.74692222280011" lon="10.594994442635006" id="-15518">
		<tag k="name" v="Haukemyr" />
		<tag k="place" v="farm" />
		<tag k="ssr:stedsnr" v="571142" />
	</node>
	<node lat="59.83838258914195" lon="10.678524603492612" id="-15519">
		<tag k="leisure" v="pitch" />
		<tag k="name" v="Berger idrettspark østre" />
		<tag k="ssr:stedsnr" v="693843" />
	</node>
	<node lat="59.80316110832915" lon="10.676863890978748" id="-15520">
		<tag k="name" v="Bjerkerud" />
		<tag k="place" v="farm" />
		<tag k="ssr:stedsnr" v="584111" />
	</node>
	<node lat="59.806369441805955" lon="10.683033335241136" id="-15521">
		<tag k="alt_name" v="Løes østre;Østre Løes" />
		<tag k="name" v="Østre Løs" />
		<tag k="place" v="farm" />
		<tag k="ssr:stedsnr" v="584113" />
	</node>
	<node lat="59.80723679918757" lon="10.680009789915704" id="-15522">
		<tag k="alt_name" v="Løes nordre;Nordre Løes" />
		<tag k="name" v="Nordre Løs" />
		<tag k="place" v="farm" />
		<tag k="ssr:stedsnr" v="584114" />
	</node>
	<node lat="59.741786109204575" lon="10.597205547165442" id="-15524">
		<tag k="name" v="Bergheim" />
		<tag k="place" v="quarter" />
		<tag k="ssr:stedsnr" v="585313" />
	</node>
	<node lat="59.749322222655486" lon="10.608119442554035" id="-15525">
		<tag k="alt_name" v="Gjøfjell søndre" />
		<tag k="name" v="Søndre Gjøfjell" />
		<tag k="place" v="farm" />
		<tag k="ssr:stedsnr" v="585529" />
	</node>
	<node lat="59.82910555283618" lon="10.672030555052366" id="-15527">
		<tag k="name" v="Nordre Sandaker" />
		<tag k="place" v="locality" />
		<tag k="ssr:stedsnr" v="585850" />
	</node>
	<node lat="59.75617777639465" lon="10.593941668765641" id="-15529">
		<tag k="name" v="Sandheim" />
		<tag k="place" v="farm" />
		<tag k="ssr:stedsnr" v="585942" />
	</node>
	<node lat="59.73871110844024" lon="10.600350006752095" id="-15530">
		<tag k="name" v="Sandberg" />
		<tag k="place" v="quarter" />
		<tag k="ssr:stedsnr" v="585946" />
	</node>
	<node lat="59.79831666305907" lon="10.703072220265247" id="-15532">
		<tag k="name" v="Kroken" />
		<tag k="place" v="isolated_dwelling" />
		<tag k="ssr:stedsnr" v="603300" />
	</node>
	<node lat="59.79767630866547" lon="10.696663762063494" id="-15535">
		<tag k="fixme" v="consider place=hamlet" />
		<tag k="name" v="Rud" />
		<tag k="place" v="farm" />
		<tag k="ssr:stedsnr" v="611721" />
	</node>
	<node lat="59.83575000255002" lon="10.64930277882467" id="-15536">
		<tag k="name" v="Tyristua" />
		<tag k="place" v="isolated_dwelling" />
		<tag k="ssr:stedsnr" v="611770" />
	</node>
	<node lat="59.832883333269706" lon="10.644619451915851" id="-15537">
		<tag k="name" v="Bjørnemyrdalen" />
		<tag k="place" v="hamlet" />
		<tag k="ssr:stedsnr" v="611771" />
	</node>
	<node lat="59.806263884646604" lon="10.672258326540064" id="-15541">
		<tag k="name" v="Nordhagen" />
		<tag k="place" v="farm" />
		<tag k="ssr:stedsnr" v="706095" />
	</node>
	<node lat="59.79093333059051" lon="10.689702769407884" id="-15542">
		<tag k="amenity" v="school" />
		<tag k="name" v="Jaer skole" />
		<tag k="ssr:stedsnr" v="706100" />
	</node>
	<node lat="59.792119442644704" lon="10.637086116185628" id="-15543">
		<tag k="name" v="Finstad" />
		<tag k="place" v="farm" />
		<tag k="ssr:stedsnr" v="706135" />
	</node>
	<node lat="59.802905555407996" lon="10.608130563482149" id="-15544">
		<tag k="alt_name" v="Ommen søndre" />
		<tag k="fixme" v="consider tourism=alpine_hut or tourism=chalet" />
		<tag k="name" v="Søndre Ommen" />
		<tag k="ssr:stedsnr" v="645118" />
		<tag k="tourism" v="wilderness_hut" />
	</node>
	<node lat="59.780908337001016" lon="10.676566664091474" id="-15546">
		<tag k="name" v="Størmyren" />
		<tag k="place" v="farm" />
		<tag k="ssr:stedsnr" v="645193" />
	</node>
	<node lat="59.76905555339767" lon="10.65301667102946" id="-15552">
		<tag k="name" v="Fundingrud" />
		<tag k="place" v="farm" />
		<tag k="ssr:stedsnr" v="647431" />
	</node>
	<node lat="59.84451944126601" lon="10.674161103223124" id="-15555">
		<tag k="amenity" v="school" />
		<tag k="name" v="Steinerskolen" />
		<tag k="ssr:stedsnr" v="647494" />
	</node>
	<node lat="59.770091665992744" lon="10.66979166349066" id="-15562">
		<tag k="alt_name" v="Hokholt østre" />
		<tag k="name" v="Østre Hokholt" />
		<tag k="place" v="farm" />
		<tag k="ssr:stedsnr" v="708401" />
	</node>
	<node lat="59.77514999549008" lon="10.700447226474958" id="-15563">
		<tag k="name" v="Vestby" />
		<tag k="place" v="farm" />
		<tag k="ssr:stedsnr" v="708406" />
	</node>
	<node lat="59.839755554378485" lon="10.677811110399537" id="-15565">
		<tag k="amenity" v="school" />
		<tag k="name" v="Nesodden videregående skole" />
		<tag k="ssr:stedsnr" v="708492" />
	</node>
	<node lat="59.7755944404697" lon="10.604269438809425" id="-15566">
		<tag k="name" v="Trygvang" />
		<tag k="place" v="farm" />
		<tag k="ssr:stedsnr" v="890430" />
	</node>
	<node lat="59.77451666725403" lon="10.610897223429392" id="-15567">
		<tag k="name" v="Ankerløkka" />
		<tag k="place" v="locality" />
		<tag k="ssr:stedsnr" v="890433" />
	</node>
	<node lat="59.75779166685599" lon="10.591311115136746" id="-15571">
		<tag k="alt_name" v="Storrudbråten" />
		<tag k="name" v="Storerudbråten" />
		<tag k="place" v="farm" />
		<tag k="ssr:stedsnr" v="693184" />
	</node>
	<node lat="59.77443610857058" lon="10.593280547782914" id="-15572">
		<tag k="name" v="Svestadstøen" />
		<tag k="place" v="isolated_dwelling" />
		<tag k="ssr:stedsnr" v="706482" />
	</node>
	<node lat="59.7305005856225" lon="10.617162271792125" id="-15579">
		<tag k="fixme" v="consider place=hamlet" />
		<tag k="name" v="Agnor" />
		<tag k="place" v="farm" />
		<tag k="ssr:stedsnr" v="731776" />
	</node>
	<node lat="59.86942128096477" lon="10.658488259547019" id="-15581">
		<tag k="fixme" v="consider place=hamlet" />
		<tag k="name" v="Nesoddtangen" />
		<tag k="place" v="farm" />
		<tag k="ssr:stedsnr" v="732798" />
	</node>
	<node lat="59.802816669903514" lon="10.665027775222102" id="-15587">
		<tag k="name" v="Bjerklund" />
		<tag k="place" v="farm" />
		<tag k="ssr:stedsnr" v="767107" />
	</node>
	<node lat="59.79811852200009" lon="10.611775098839972" id="-15588">
		<tag k="name" v="Glanern" />
		<tag k="place" v="isolated_dwelling" />
		<tag k="ssr:stedsnr" v="767145" />
	</node>
	<node lat="59.77572993440759" lon="10.67892756212731" id="-15589">
		<tag k="fixme" v="consider place=hamlet" />
		<tag k="name" v="Kuås" />
		<tag k="place" v="farm" />
		<tag k="ssr:stedsnr" v="767188" />
	</node>
	<node lat="59.78492777553093" lon="10.599747218503115" id="-15590">
		<tag k="name" v="Kvistemyr" />
		<tag k="place" v="isolated_dwelling" />
		<tag k="ssr:stedsnr" v="767502" />
	</node>
	<node lat="59.77252222399488" lon="10.59099722318525" id="-15591">
		<tag k="name" v="Eng" />
		<tag k="place" v="isolated_dwelling" />
		<tag k="ssr:stedsnr" v="767515" />
	</node>
	<node lat="59.80381666356633" lon="10.704705556335766" id="-15593">
		<tag k="name" v="Skjærløkka" />
		<tag k="place" v="isolated_dwelling" />
		<tag k="ssr:stedsnr" v="907285" />
	</node>
	<node lat="59.73745833550876" lon="10.594044441759232" id="-15597">
		<tag k="name" v="Fagerstrand" />
		<tag k="place" v="village" />
		<tag k="ssr:stedsnr" v="913969" />
	</node>
	<node lat="59.738505553063476" lon="10.62990555715932" id="-15598">
		<tag k="name" v="Rustad" />
		<tag k="place" v="farm" />
		<tag k="ssr:stedsnr" v="913972" />
	</node>
	<node lat="59.86038055922614" lon="10.65424444708266" id="-15599">
		<tag k="name" v="Flaskebekk" />
		<tag k="place" v="hamlet" />
		<tag k="ssr:stedsnr" v="914800" />
	</node>
	<node lat="59.756094183428566" lon="10.610855451691046" id="-15600">
		<tag k="name" v="Langfjell" />
		<tag k="place" v="locality" />
		<tag k="ssr:stedsnr" v="915633" />
	</node>
	<node lat="59.78861111367506" lon="10.668311111912283" id="-15601">
		<tag k="alt_name" v="Kjensli" />
		<tag k="name" v="Tjernsli" />
		<tag k="place" v="farm" />
		<tag k="ssr:stedsnr" v="915640" />
	</node>
	<node lat="59.78727778014251" lon="10.611869444917973" id="-15602">
		<tag k="name" v="Tjernshaugen" />
		<tag k="place" v="farm" />
		<tag k="ssr:stedsnr" v="915642" />
	</node>
	<node lat="59.795663555887664" lon="10.640043286553896" id="-15603">
		<tag k="fixme" v="consider place=hamlet" />
		<tag k="name" v="Fjell" />
		<tag k="place" v="farm" />
		<tag k="ssr:stedsnr" v="915684" />
	</node>
	<node lat="59.79946388789638" lon="10.628016661640292" id="-15604">
		<tag k="alt_name" v="Urianstad" />
		<tag k="name" v="Ørjanstad" />
		<tag k="place" v="farm" />
		<tag k="ssr:stedsnr" v="915685" />
	</node>
	<node lat="59.78991389217332" lon="10.602588884899117" id="-15609">
		<tag k="name" v="Fjelltun" />
		<tag k="place" v="farm" />
		<tag k="ssr:stedsnr" v="828164" />
	</node>
	<node lat="59.78853055895925" lon="10.671816671129983" id="-15610">
		<tag k="name" v="Persbråten" />
		<tag k="place" v="farm" />
		<tag k="ssr:stedsnr" v="828166" />
	</node>
	<node lat="59.774497224425275" lon="10.601616669511438" id="-15611">
		<tag k="name" v="Fjellheim" />
		<tag k="place" v="farm" />
		<tag k="ssr:stedsnr" v="828503" />
	</node>
	<node lat="59.75533055383152" lon="10.611861117911399" id="-15612">
		<tag k="alt_name" v="Langfjell østre" />
		<tag k="name" v="Østre Langfjell" />
		<tag k="place" v="farm" />
		<tag k="ssr:stedsnr" v="828565" />
	</node>
	<node lat="59.74978333025194" lon="10.590199998337482" id="-15613">
		<tag k="name" v="Sylta" />
		<tag k="place" v="farm" />
		<tag k="ssr:stedsnr" v="828933" />
	</node>
	<node lat="59.74457500257383" lon="10.596091666682591" id="-15615">
		<tag k="name" v="Tajetbråten" />
		<tag k="place" v="farm" />
		<tag k="ssr:stedsnr" v="828945" />
	</node>
	<node lat="59.73024444092031" lon="10.617769449444951" id="-15616">
		<tag k="alt_name" v="Agnor søndre" />
		<tag k="name" v="Søndre Agnor" />
		<tag k="place" v="farm" />
		<tag k="ssr:stedsnr" v="828950" />
	</node>
	<node lat="59.82198028298189" lon="10.689961872662568" id="-15623">
		<tag k="fixme" v="consider place=hamlet" />
		<tag k="name" v="Solberg" />
		<tag k="place" v="farm" />
		<tag k="ssr:stedsnr" v="854717" />
	</node>
	<node lat="59.7744250032485" lon="10.60704167123204" id="-15624">
		<tag k="alt_name" v="Korsveien" />
		<tag k="name" v="Korsvegen" />
		<tag k="place" v="farm" />
		<tag k="ssr:stedsnr" v="854606" />
	</node>
	<node lat="59.78512624191105" lon="10.653135411450304" id="-15625">
		<tag k="alt_name" v="Høybråten" />
		<tag k="name" v="Høybråtan" />
		<tag k="place" v="locality" />
		<tag k="ssr:stedsnr" v="854645" />
	</node>
	<node lat="59.77981111213615" lon="10.603297227921109" id="-15632">
		<tag k="name" v="Sandbakke" />
		<tag k="place" v="isolated_dwelling" />
		<tag k="ssr:stedsnr" v="889510" />
	</node>
	<node lat="59.841394447683996" lon="10.642683338833645" id="-15633">
		<tag k="name" v="Østlaget" />
		<tag k="place" v="isolated_dwelling" />
		<tag k="ssr:stedsnr" v="889625" />
	</node>
	<node lat="59.78171944744631" lon="10.691822218479333" id="-15634">
		<tag k="alt_name" v="Krange nordre" />
		<tag k="name" v="Nordre Krange" />
		<tag k="place" v="farm" />
		<tag k="ssr:stedsnr" v="890403" />
	</node>
	<node lat="59.864510350224236" lon="10.66778478117539" id="-15635">
		<tag k="alt_name" v="Hatten" />
		<tag k="name" v="Hatt" />
		<tag k="place" v="isolated_dwelling" />
		<tag k="ssr:stedsnr" v="906520" />
	</node>
	<node lat="59.753228464889965" lon="10.63887073045849" id="-15636">
		<tag k="fixme" v="consider place=hamlet" />
		<tag k="name" v="Klufta" />
		<tag k="place" v="farm" />
		<tag k="ssr:stedsnr" v="915582" />
	</node>
	<node lat="59.81541388926504" lon="10.648533325035293" id="-15637">
		<tag k="name" v="Jonsrud" />
		<tag k="place" v="farm" />
		<tag k="ssr:stedsnr" v="915724" />
	</node>
	<node lat="59.78744722535966" lon="10.655247217504662" id="-15641">
		<tag k="name" v="Rugbråtan" />
		<tag k="place" v="locality" />
		<tag k="ssr:stedsnr" v="951389" />
	</node>
	<node lat="59.78806389022416" lon="10.63393055582086" id="-15642">
		<tag k="name" v="Svenskerud" />
		<tag k="place" v="farm" />
		<tag k="ssr:stedsnr" v="951398" />
	</node>
	<node lat="59.84380000092244" lon="10.68115555245937" id="-15643">
		<tag k="name" v="Hellevikskogen" />
		<tag k="place" v="quarter" />
		<tag k="ssr:stedsnr" v="951503" />
	</node>
	<node lat="59.77120277484891" lon="10.662794453042265" id="-15644">
		<tag k="alt_name" v="Hokholt vestre" />
		<tag k="name" v="Vestre Hokholt" />
		<tag k="place" v="farm" />
		<tag k="ssr:stedsnr" v="951403" />
	</node>
	<node lat="59.84711388787672" lon="10.649211113641462" id="-15648">
		<tag k="name" v="Flauet" />
		<tag k="place" v="hamlet" />
		<tag k="ssr:stedsnr" v="951495" />
	</node>
	<node lat="59.79335000071272" lon="10.663005552834766" id="-15653">
		<tag k="name" v="Naverud" />
		<tag k="place" v="farm" />
		<tag k="ssr:stedsnr" v="4661" />
	</node>
	<node lat="59.81397745357708" lon="10.676778147791813" id="-15654">
		<tag k="alt_name" v="Røer" />
		<tag k="fixme" v="consider place=hamlet" />
		<tag k="name" v="Rør" />
		<tag k="place" v="farm" />
		<tag k="ssr:stedsnr" v="5719" />
	</node>
	<node lat="59.82242222244708" lon="10.662386117914084" id="-15655">
		<tag k="alt_name" v="Bekkbråten" />
		<tag k="name" v="Bekkbråtan" />
		<tag k="place" v="farm" />
		<tag k="ssr:stedsnr" v="5721" />
	</node>
	<node lat="59.833047226142504" lon="10.694086106125472" id="-15657">
		<tag k="fixme" v="consider place=suburb, village or hamlet" />
		<tag k="name" v="Berger" />
		<tag k="place" v="quarter" />
		<tag k="ssr:stedsnr" v="5742" />
	</node>
	<node lat="59.74557222327406" lon="10.603488894155628" id="-15658">
		<tag k="alt_name" v="Lillengen" />
		<tag k="name" v="Lillenga" />
		<tag k="place" v="farm" />
		<tag k="ssr:stedsnr" v="25136" />
	</node>
	<node lat="59.74311666528678" lon="10.585186107700178" id="-15659">
		<tag k="alt_name" v="Hytten" />
		<tag k="name" v="Hytta" />
		<tag k="place" v="isolated_dwelling" />
		<tag k="ssr:stedsnr" v="25138" />
	</node>
	<node lat="59.74989957476332" lon="10.593716892824887" id="-15661">
		<tag k="fixme" v="consider place=hamlet" />
		<tag k="name" v="Store Rud" />
		<tag k="place" v="farm" />
		<tag k="ssr:stedsnr" v="25154" />
	</node>
	<node lat="59.81041666229003" lon="10.699266672264597" id="-15664">
		<tag k="name" v="Kirkevika" />
		<tag k="place" v="isolated_dwelling" />
		<tag k="ssr:stedsnr" v="39024" />
	</node>
	<node lat="59.73570277623601" lon="10.604813891599058" id="-15665">
		<tag k="amenity" v="nursing_home" />
		<tag k="name" v="Grøndalen" />
		<tag k="ssr:stedsnr" v="39292" />
	</node>
	<node lat="59.82364166532184" lon="10.624952778810576" id="-15668">
		<tag k="name" v="Mellomstrand" />
		<tag k="place" v="isolated_dwelling" />
		<tag k="ssr:stedsnr" v="39788" />
	</node>
	<node lat="59.82603055121174" lon="10.680225006599025" id="-15670">
		<tag k="alt_name" v="Flateby søndre" />
		<tag k="name" v="Søndre Flateby" />
		<tag k="place" v="farm" />
		<tag k="ssr:stedsnr" v="39829" />
	</node>
	<node lat="59.73581111429396" lon="10.601847226771444" id="-15671">
		<tag k="name" v="Dal" />
		<tag k="place" v="isolated_dwelling" />
		<tag k="ssr:stedsnr" v="39954" />
	</node>
	<node lat="59.7804050716748" lon="10.60588628591132" id="-15672">
		<tag k="name" v="Moen" />
		<tag k="place" v="farm" />
		<tag k="ssr:stedsnr" v="41438" />
	</node>
	<node lat="59.74894166849874" lon="10.630700003671569" id="-15678">
		<tag k="name" v="Veum" />
		<tag k="place" v="farm" />
		<tag k="ssr:stedsnr" v="64955" />
	</node>
	<node lat="59.82923610886286" lon="10.695244441076413" id="-15680">
		<tag k="fixme" v="consider place=suburb, village or hamlet" />
		<tag k="name" v="Fjordvangen" />
		<tag k="place" v="quarter" />
		<tag k="ssr:stedsnr" v="65736" />
	</node>
	<node lat="59.78576111477593" lon="10.609155555251672" id="-15681">
		<tag k="name" v="Dalen" />
		<tag k="place" v="farm" />
		<tag k="ssr:stedsnr" v="65654" />
	</node>
	<node lat="59.77979166968487" lon="10.636980552712357" id="-15683">
		<tag k="name" v="Søndre Granerud" />
		<tag k="place" v="farm" />
		<tag k="ssr:stedsnr" v="65664" />
	</node>
	<node lat="59.84448771480272" lon="10.691181483500412" id="-15686">
		<tag k="fixme" v="consider place=suburb, village or hamlet" />
		<tag k="name" v="Hellvik" />
		<tag k="old_name" v="Helvik" />
		<tag k="place" v="quarter" />
		<tag k="ssr:stedsnr" v="65785" />
	</node>
	<node lat="59.74096020906" lon="10.590784193973473" id="-15688">
		<tag k="fixme" v="consider place=hamlet" />
		<tag k="name" v="Lillerud" />
		<tag k="place" v="farm" />
		<tag k="ssr:stedsnr" v="86145" />
	</node>
	<node lat="59.80221110917531" lon="10.622305555415187" id="-15691">
		<tag k="name" v="Skogsrud" />
		<tag k="place" v="farm" />
		<tag k="ssr:stedsnr" v="99143" />
	</node>
	<node lat="59.77621944149159" lon="10.680908329927526" id="-15693">
		<tag k="name" v="Åslund" />
		<tag k="place" v="farm" />
		<tag k="ssr:stedsnr" v="99241" />
	</node>
	<node lat="59.80615968637628" lon="10.692908870938565" id="-15694">
		<tag k="fixme" v="consider place=hamlet" />
		<tag k="name" v="Nesodden prestegård" />
		<tag k="place" v="farm" />
		<tag k="ssr:stedsnr" v="100040" />
	</node>
	<node lat="59.75010555290709" lon="10.624102774456004" id="-15696">
		<tag k="name" v="Myrås" />
		<tag k="place" v="isolated_dwelling" />
		<tag k="ssr:stedsnr" v="100548" />
	</node>
	<node lat="59.83738333617331" lon="10.677336117777044" id="-15697">
		<tag k="amenity" v="school" />
		<tag k="name" v="Berger skole" />
		<tag k="ssr:stedsnr" v="102555" />
	</node>
	<node lat="59.86911682142095" lon="10.7184051372148" id="-15698">
		<tag k="fixme" v="consider tourism=alpine_hut or tourism=chalet" />
		<tag k="name" v="Langøyene" />
		<tag k="ssr:stedsnr" v="103871" />
		<tag k="tourism" v="wilderness_hut" />
	</node>
	<node lat="59.84232500307139" lon="10.643744441507879" id="-15699">
		<tag k="name" v="Bjørklund" />
		<tag k="place" v="isolated_dwelling" />
		<tag k="ssr:stedsnr" v="117301" />
	</node>
	<node lat="59.79519935993016" lon="10.608338577236337" id="-15700">
		<tag k="name" v="Fjellstrand" />
		<tag k="place" v="village" />
		<tag k="ssr:stedsnr" v="125675" />
	</node>
	<node lat="59.76620277563072" lon="10.601130558796847" id="-15702">
		<tag k="name" v="Labråtan" />
		<tag k="old_name" v="Lubråten" />
		<tag k="place" v="locality" />
		<tag k="ssr:stedsnr" v="126628" />
	</node>
	<node lat="59.8370777773738" lon="10.694825000444448" id="-15705">
		<tag k="name" v="Bonden" />
		<tag k="place" v="isolated_dwelling" />
		<tag k="ssr:stedsnr" v="146359" />
	</node>
	<node lat="59.79457395574148" lon="10.692555092514112" id="-15707">
		<tag k="fixme" v="consider place=hamlet" />
		<tag k="name" v="Loftu" />
		<tag k="place" v="farm" />
		<tag k="ssr:stedsnr" v="160091" />
	</node>
	<node lat="59.774669445477976" lon="10.680547227736971" id="-15708">
		<tag k="name" v="Kollen" />
		<tag k="place" v="farm" />
		<tag k="ssr:stedsnr" v="160170" />
	</node>
	<node lat="59.801180557258206" lon="10.704411103312204" id="-15709">
		<tag k="name" v="Juten" />
		<tag k="place" v="farm" />
		<tag k="ssr:stedsnr" v="160035" />
	</node>
	<node lat="59.804377776852796" lon="10.608986110825764" id="-15711">
		<tag k="alt_name" v="Ommen nordre" />
		<tag k="name" v="Nordre Ommen" />
		<tag k="place" v="farm" />
		<tag k="ssr:stedsnr" v="160107" />
	</node>
	<node lat="59.79455833555517" lon="10.609974995419925" id="-15712">
		<tag k="name" v="Steinor" />
		<tag k="place" v="farm" />
		<tag k="ssr:stedsnr" v="160121" />
	</node>
	<node lat="59.76041111228352" lon="10.608527776790972" id="-15715">
		<tag k="name" v="Nordby" />
		<tag k="place" v="farm" />
		<tag k="ssr:stedsnr" v="160551" />
	</node>
	<node lat="59.81490833099022" lon="10.65125833465304" id="-15716">
		<tag k="name" v="Ravnsborg" />
		<tag k="place" v="locality" />
		<tag k="ssr:stedsnr" v="160765" />
	</node>
	<node lat="59.820722223182955" lon="10.62074443686933" id="-15717">
		<tag k="name" v="Alvern" />
		<tag k="place" v="farm" />
		<tag k="ssr:stedsnr" v="160785" />
	</node>
	<node lat="59.824047225799326" lon="10.668102771127545" id="-15718">
		<tag k="name" v="Nissestua" />
		<tag k="place" v="farm" />
		<tag k="ssr:stedsnr" v="160864" />
	</node>
	<node lat="59.78255555552461" lon="10.610252776740872" id="-15720">
		<tag k="name" v="Åsland" />
		<tag k="place" v="farm" />
		<tag k="ssr:stedsnr" v="162439" />
	</node>
	<node lat="59.83839166464311" lon="10.670069442116729" id="-15722">
		<tag k="name" v="Isakstubråten" />
		<tag k="place" v="locality" />
		<tag k="ssr:stedsnr" v="162490" />
	</node>
	<node lat="59.836124998630126" lon="10.677288880778852" id="-15723">
		<tag k="name" v="Halvorstubråten" />
		<tag k="place" v="locality" />
		<tag k="ssr:stedsnr" v="162493" />
	</node>
	<node lat="59.838516664546624" lon="10.672966661008285" id="-15724">
		<tag k="name" v="Fagerås" />
		<tag k="place" v="locality" />
		<tag k="ssr:stedsnr" v="162495" />
	</node>
	<node lat="59.8515165111434" lon="10.680520258137035" id="-15725">
		<tag k="name" v="Bergum" />
		<tag k="place" v="farm" />
		<tag k="ssr:stedsnr" v="177382" />
	</node>
	<node lat="59.83642039617957" lon="10.695254876288468" id="-15731">
		<tag k="name" v="Lillestrand" />
		<tag k="place" v="isolated_dwelling" />
		<tag k="ssr:stedsnr" v="207369" />
	</node>
	<node lat="59.77923333477069" lon="10.681827778139006" id="-15733">
		<tag k="name" v="Haslehagen" />
		<tag k="place" v="farm" />
		<tag k="ssr:stedsnr" v="221190" />
	</node>
	<node lat="59.800697221996984" lon="10.657291669702282" id="-15734">
		<tag k="alt_name" v="Myra vestre" />
		<tag k="name" v="Vestre Myra" />
		<tag k="place" v="farm" />
		<tag k="ssr:stedsnr" v="221132" />
	</node>
	<node lat="59.80183333394761" lon="10.661038886218245" id="-15735">
		<tag k="alt_name" v="Myra østre" />
		<tag k="name" v="Østre Myra" />
		<tag k="place" v="farm" />
		<tag k="ssr:stedsnr" v="221136" />
	</node>
	<node lat="59.79096666924925" lon="10.606791668643423" id="-15738">
		<tag k="name" v="Løkkeåsen" />
		<tag k="place" v="hamlet" />
		<tag k="ssr:stedsnr" v="221158" />
	</node>
	<node lat="59.7338472228959" lon="10.58834167087792" id="-15739">
		<tag k="name" v="Grisebu" />
		<tag k="place" v="isolated_dwelling" />
		<tag k="ssr:stedsnr" v="221329" />
	</node>
	<node lat="59.748119444638256" lon="10.582202783753218" id="-15741">
		<tag k="name" v="Fjordheim" />
		<tag k="place" v="isolated_dwelling" />
		<tag k="ssr:stedsnr" v="221334" />
	</node>
	<node lat="59.74053055533104" lon="10.604333324609081" id="-15742">
		<tag k="name" v="Bråten" />
		<tag k="place" v="farm" />
		<tag k="ssr:stedsnr" v="221339" />
	</node>
	<node lat="59.752933334127135" lon="10.582927780460789" id="-15743">
		<tag k="name" v="Bekk" />
		<tag k="place" v="hamlet" />
		<tag k="ssr:stedsnr" v="221348" />
	</node>
	<node lat="59.7445555592469" lon="10.582941675660102" id="-15747">
		<tag k="name" v="Fjellvik" />
		<tag k="place" v="isolated_dwelling" />
		<tag k="ssr:stedsnr" v="221940" />
	</node>
	<node lat="59.730088889882005" lon="10.608494452496158" id="-15748">
		<tag k="name" v="Granli" />
		<tag k="place" v="farm" />
		<tag k="ssr:stedsnr" v="221941" />
	</node>
	<node lat="59.8649972266124" lon="10.654991672125517" id="-15752">
		<tag k="name" v="Bratli" />
		<tag k="place" v="isolated_dwelling" />
		<tag k="ssr:stedsnr" v="223472" />
	</node>
	<node lat="59.77713055558888" lon="10.67279722948509" id="-15753">
		<tag k="name" v="Utenga" />
		<tag k="place" v="farm" />
		<tag k="ssr:stedsnr" v="282197" />
	</node>
	<node lat="59.80151944857042" lon="10.620044444695166" id="-15755">
		<tag k="name" v="Urianstadbråten" />
		<tag k="place" v="farm" />
		<tag k="ssr:stedsnr" v="282141" />
	</node>
	<node lat="59.79609166877313" lon="10.646372224907067" id="-15756">
		<tag k="name" v="Kirkerud" />
		<tag k="place" v="farm" />
		<tag k="ssr:stedsnr" v="282160" />
	</node>
	<node lat="59.73300833101747" lon="10.612830554512032" id="-15758">
		<tag k="name" v="Svartebråtan" />
		<tag k="place" v="locality" />
		<tag k="ssr:stedsnr" v="282343" />
	</node>
	<node lat="59.746308329425574" lon="10.612938883035136" id="-15759">
		<tag k="amenity" v="school" />
		<tag k="name" v="Myklerud skole" />
		<tag k="ssr:stedsnr" v="282563" />
	</node>
	<node lat="59.82373888881112" lon="10.675274998747572" id="-15760">
		<tag k="name" v="Smedhagen" />
		<tag k="place" v="locality" />
		<tag k="ssr:stedsnr" v="282838" />
	</node>
	<node lat="59.774305557908306" lon="10.668166661381104" id="-15761">
		<tag k="name" v="Løkka" />
		<tag k="place" v="locality" />
		<tag k="ssr:stedsnr" v="283325" />
	</node>
	<node lat="59.78028610944665" lon="10.70323888022378" id="-15762">
		<tag k="name" v="Rosenhøy" />
		<tag k="place" v="farm" />
		<tag k="ssr:stedsnr" v="283330" />
	</node>
	<node lat="59.78142777453911" lon="10.694816675088635" id="-15763">
		<tag k="alt_name" v="Krange østre" />
		<tag k="name" v="Østre Krange" />
		<tag k="place" v="farm" />
		<tag k="ssr:stedsnr" v="283331" />
	</node>
	<node lat="59.8505916663364" lon="10.680322221084216" id="-15765">
		<tag k="name" v="Skoklefallstrand" />
		<tag k="place" v="isolated_dwelling" />
		<tag k="ssr:stedsnr" v="299412" />
	</node>
	<node lat="59.78198611317605" lon="10.633011117850574" id="-15768">
		<tag k="name" v="Heimli" />
		<tag k="place" v="farm" />
		<tag k="ssr:stedsnr" v="308644" />
	</node>
	<node lat="59.785376998519105" lon="10.639100583571443" id="-15769">
		<tag k="fixme" v="consider place=hamlet" />
		<tag k="name" v="Granerud" />
		<tag k="place" v="farm" />
		<tag k="ssr:stedsnr" v="308646" />
	</node>
	<node lat="59.796513885918415" lon="10.623169442187297" id="-15773">
		<tag k="amenity" v="school" />
		<tag k="name" v="Fjellstrand skole" />
		<tag k="ssr:stedsnr" v="342162" />
	</node>
	<node lat="59.803641665060326" lon="10.624852779642406" id="-15777">
		<tag k="alt_name" v="Holen østre" />
		<tag k="name" v="Østre Holen" />
		<tag k="place" v="farm" />
		<tag k="ssr:stedsnr" v="342129" />
	</node>
	<node lat="59.81758610066674" lon="10.6225612213072" id="-15781">
		<tag k="name" v="Leina" />
		<tag k="place" v="hamlet" />
		<tag k="ssr:stedsnr" v="342770" />
	</node>
	<node lat="59.733616663599626" lon="10.623338886725518" id="-15783">
		<tag k="alt_name" v="Agnor nordre" />
		<tag k="name" v="Nordre Agnor" />
		<tag k="place" v="farm" />
		<tag k="ssr:stedsnr" v="342938" />
	</node>
	<node lat="59.8553666706526" lon="10.662172223098471" id="-15784">
		<tag k="amenity" v="school" />
		<tag k="name" v="Tangenåsen ungdomsskole" />
		<tag k="ssr:stedsnr" v="344470" />
	</node>
	<node lat="59.777619446008835" lon="10.690741664297969" id="-15786">
		<tag k="name" v="Søndre Hasle" />
		<tag k="place" v="farm" />
		<tag k="ssr:stedsnr" v="344432" />
	</node>
	<node lat="59.80588333067337" lon="10.609094445417579" id="-15787">
		<tag k="fixme" v="consider tourism=alpine_hut or tourism=chalet" />
		<tag k="name" v="Vestli" />
		<tag k="ssr:stedsnr" v="354046" />
		<tag k="tourism" v="wilderness_hut" />
	</node>
	<node lat="59.779505554222425" lon="10.604797224075389" id="-15788">
		<tag k="name" v="Sandbakken" />
		<tag k="place" v="isolated_dwelling" />
		<tag k="ssr:stedsnr" v="359072" />
	</node>
	<node lat="59.775138892719575" lon="10.594488893711024" id="-15794">
		<tag k="name" v="Svestad" />
		<tag k="place" v="hamlet" />
		<tag k="ssr:stedsnr" v="368664" />
	</node>
	<node lat="59.77790833753649" lon="10.705877776501131" id="-15795">
		<tag k="alt_name" v="Blylaget" />
		<tag k="name" v="Sundby" />
		<tag k="place" v="farm" />
		<tag k="ssr:stedsnr" v="368715" />
	</node>
	<node lat="59.81078384597095" lon="10.689931570090165" id="-15798">
		<tag k="name" v="Torget" />
		<tag k="old_name" v="Torvet" />
		<tag k="place" v="farm" />
		<tag k="ssr:stedsnr" v="369634" />
	</node>
	<node lat="59.80643610948259" lon="10.625611113140721" id="-15799">
		<tag k="name" v="Ellingstad" />
		<tag k="place" v="farm" />
		<tag k="ssr:stedsnr" v="369640" />
	</node>
	<node lat="59.78457778136151" lon="10.639836119149193" id="-15803">
		<tag k="alt_name" v="Granerud midtre" />
		<tag k="name" v="Midtre Granerud" />
		<tag k="place" v="farm" />
		<tag k="ssr:stedsnr" v="405420" />
	</node>
	<node lat="59.861491666629256" lon="10.654494448080014" id="-15805">
		<tag k="name" v="Flaskebekkbråten" />
		<tag k="place" v="hamlet" />
		<tag k="ssr:stedsnr" v="405467" />
	</node>
	<node lat="59.81358610801987" lon="10.677050002658078" id="-15807">
		<tag k="alt_name" v="Røer" />
		<tag k="name" v="Rør" />
		<tag k="place" v="farm" />
		<tag k="ssr:stedsnr" v="413235" />
	</node>
	<node lat="59.84932778118955" lon="10.682202779181713" id="-15809">
		<tag k="name" v="Grønnbogen" />
		<tag k="place" v="isolated_dwelling" />
		<tag k="ssr:stedsnr" v="421382" />
	</node>
	<node lat="59.79768610697565" lon="10.686691674787417" id="-15812">
		<tag k="name" v="Roberg" />
		<tag k="place" v="farm" />
		<tag k="ssr:stedsnr" v="429715" />
	</node>
	<node lat="59.75476389024021" lon="10.583922213438798" id="-15817">
		<tag k="name" v="Leina" />
		<tag k="place" v="isolated_dwelling" />
		<tag k="ssr:stedsnr" v="511165" />
	</node>
	<node lat="59.803941664152276" lon="10.66993332494905" id="-15818">
		<tag k="name" v="Karlstad" />
		<tag k="place" v="farm" />
		<tag k="ssr:stedsnr" v="524091" />
	</node>
	<node lat="59.799433331413994" lon="10.685266668329165" id="-15819">
		<tag k="name" v="Sletta" />
		<tag k="place" v="farm" />
		<tag k="ssr:stedsnr" v="524096" />
	</node>
	<node lat="59.79474166859169" lon="10.646608330731219" id="-15820">
		<tag k="name" v="Holmsbakken" />
		<tag k="place" v="farm" />
		<tag k="ssr:stedsnr" v="524137" />
	</node>
	<node lat="59.75096666293296" lon="10.607361103312055" id="-15821">
		<tag k="alt_name" v="Gjøfjell nordre" />
		<tag k="name" v="Nordre Gjøfjell" />
		<tag k="place" v="farm" />
		<tag k="ssr:stedsnr" v="524499" />
	</node>
	<node lat="59.73018333500676" lon="10.610258334293542" id="-15822">
		<tag k="name" v="Fagertun" />
		<tag k="place" v="farm" />
		<tag k="ssr:stedsnr" v="524950" />
	</node>
	<node lat="59.78558056009591" lon="10.650199992381811" id="-15829">
		<tag k="alt_name" v="Høybråten vestre" />
		<tag k="name" v="Vestre Høybråten" />
		<tag k="place" v="farm" />
		<tag k="ssr:stedsnr" v="526435" />
	</node>
	<node lat="59.73173610879844" lon="10.603041658260414" id="-15834">
		<tag k="name" v="Labråten" />
		<tag k="place" v="farm" />
		<tag k="ssr:stedsnr" v="549769" />
	</node>
	<node lat="59.85303333091105" lon="10.652005557043472" id="-15837">
		<tag k="fixme" v="consider place=suburb, village or hamlet" />
		<tag k="name" v="Sjøstrand" />
		<tag k="place" v="quarter" />
		<tag k="ssr:stedsnr" v="550786" />
	</node>
	<node lat="59.77148611459867" lon="10.687902783195847" id="-15845">
		<tag k="name" v="Haslenesset" />
		<tag k="place" v="farm" />
		<tag k="ssr:stedsnr" v="586392" />
	</node>
	<node lat="59.771863884916804" lon="10.698213886040323" id="-15846">
		<tag k="name" v="Haslerud" />
		<tag k="place" v="farm" />
		<tag k="ssr:stedsnr" v="586396" />
	</node>
	<node lat="59.75724999903749" lon="10.612897228043181" id="-15849">
		<tag k="alt_name" v="Langfjell nordre" />
		<tag k="name" v="Nordre Langfjell" />
		<tag k="place" v="farm" />
		<tag k="ssr:stedsnr" v="585574" />
	</node>
	<node lat="59.78156389316878" lon="10.708024995591517" id="-15852">
		<tag k="name" v="Linaro" />
		<tag k="place" v="isolated_dwelling" />
		<tag k="ssr:stedsnr" v="586399" />
	</node>
	<node lat="59.784441670497856" lon="10.654988888597599" id="-15853">
		<tag k="alt_name" v="Høybråten østre" />
		<tag k="name" v="Østre Høybråten" />
		<tag k="place" v="farm" />
		<tag k="ssr:stedsnr" v="586439" />
	</node>
	<node lat="59.77645000055542" lon="10.610063896166649" id="-15858">
		<tag k="name" v="Svenskemyr" />
		<tag k="place" v="farm" />
		<tag k="ssr:stedsnr" v="611637" />
	</node>
	<node lat="59.77518333184339" lon="10.652002786063944" id="-15859">
		<tag k="alt_name" v="Dammyra" />
		<tag k="name" v="Hokholtdammyra" />
		<tag k="place" v="farm" />
		<tag k="ssr:stedsnr" v="611642" />
	</node>
	<node lat="59.772991663732746" lon="10.674797218858652" id="-15860">
		<tag k="name" v="Gulstad" />
		<tag k="place" v="farm" />
		<tag k="ssr:stedsnr" v="611645" />
	</node>
	<node lat="59.84091110762958" lon="10.649047220272868" id="-15862">
		<tag k="name" v="Varden" />
		<tag k="place" v="quarter" />
		<tag k="ssr:stedsnr" v="611793" />
	</node>
	<node lat="59.74159722046898" lon="10.631644452219904" id="-15863">
		<tag k="name" v="Tuten" />
		<tag k="place" v="farm" />
		<tag k="ssr:stedsnr" v="631122" />
	</node>
	<node lat="59.79651944413369" lon="10.636644446346462" id="-15867">
		<tag k="name" v="Fagerli" />
		<tag k="place" v="farm" />
		<tag k="ssr:stedsnr" v="645147" />
	</node>
	<node lat="59.79513889110439" lon="10.62335276945748" id="-15869">
		<tag k="name" v="Nyborg" />
		<tag k="place" v="farm" />
		<tag k="ssr:stedsnr" v="645150" />
	</node>
	<node lat="59.787697218980426" lon="10.690091662202624" id="-15870">
		<tag k="name" v="Hesteskoen" />
		<tag k="place" v="isolated_dwelling" />
		<tag k="ssr:stedsnr" v="645165" />
	</node>
	<node lat="59.815236109689266" lon="10.68073333595108" id="-15874">
		<tag k="name" v="Altenborg" />
		<tag k="place" v="locality" />
		<tag k="ssr:stedsnr" v="645820" />
	</node>
	<node lat="59.78609444834053" lon="10.639180552340372" id="-15876">
		<tag k="loc_name" v="Nordre Granerud" />
		<tag k="name" v="Granerud nordre" />
		<tag k="place" v="farm" />
		<tag k="ssr:stedsnr" v="647413" />
	</node>
	<node lat="59.781219445511915" lon="10.705530553084413" id="-15877">
		<tag k="name" v="Grøstadbråten" />
		<tag k="place" v="farm" />
		<tag k="ssr:stedsnr" v="647417" />
	</node>
	<node lat="59.83603838319478" lon="10.675538552517418" id="-15879">
		<tag k="leisure" v="pitch" />
		<tag k="name" v="Berger idrettspark" />
		<tag k="ssr:stedsnr" v="663070" />
	</node>
	<node lat="59.8602361150905" lon="10.665611115783499" id="-15883">
		<tag k="building" v="commercial" />
		<tag k="name" v="Granholt" />
		<tag k="ssr:stedsnr" v="724244" />
	</node>
	<node lat="59.8067098843398" lon="10.680238414248512" id="-15884">
		<tag k="fixme" v="consider place=hamlet" />
		<tag k="name" v="Løs" />
		<tag k="place" v="farm" />
		<tag k="ssr:stedsnr" v="733673" />
	</node>
	<node lat="59.81795256594476" lon="10.690772751963669" id="-15885">
		<tag k="fixme" v="consider place=hamlet" />
		<tag k="name" v="Sørby" />
		<tag k="place" v="farm" />
		<tag k="ssr:stedsnr" v="733714" />
	</node>
	<node lat="59.7624555517625" lon="10.58362777552538" id="-15886">
		<tag k="alt_name" v="Spro" />
		<tag k="fixme" v="consider place=suburb, village or hamlet" />
		<tag k="name" v="Nordre Spro" />
		<tag k="place" v="quarter" />
		<tag k="ssr:stedsnr" v="733601" />
	</node>
	<node lat="59.76597500411194" lon="10.616058335119666" id="-15887">
		<tag k="name" v="Tjernsbråtan" />
		<tag k="old_name" v="Tjernsbråten" />
		<tag k="place" v="isolated_dwelling" />
		<tag k="ssr:stedsnr" v="733602" />
	</node>
	<node lat="59.76514999715685" lon="10.592391666155349" id="-15889">
		<tag k="name" v="Holtet" />
		<tag k="place" v="farm" />
		<tag k="ssr:stedsnr" v="753136" />
	</node>
	<node lat="59.819638889447674" lon="10.64425000873849" id="-15892">
		<tag k="name" v="Sylta" />
		<tag k="place" v="locality" />
		<tag k="ssr:stedsnr" v="767799" />
	</node>
	<node lat="59.81701388757852" lon="10.622758333671188" id="-15894">
		<tag k="name" v="Lalien" />
		<tag k="place" v="farm" />
		<tag k="ssr:stedsnr" v="767802" />
	</node>
	<node lat="59.74536762592718" lon="10.632233605505869" id="-15898">
		<tag k="fixme" v="consider place=hamlet" />
		<tag k="name" v="Munkerud" />
		<tag k="place" v="farm" />
		<tag k="ssr:stedsnr" v="792933" />
	</node>
	<node lat="59.742980016153886" lon="10.612671054839714" id="-15899">
		<tag k="fixme" v="consider place=hamlet" />
		<tag k="name" v="Myklerud" />
		<tag k="place" v="farm" />
		<tag k="ssr:stedsnr" v="792936" />
	</node>
	<node lat="59.80256388837605" lon="10.66802777465646" id="-15900">
		<tag k="name" v="Slabråtan" />
		<tag k="old_name" v="Slabråten" />
		<tag k="place" v="farm" />
		<tag k="ssr:stedsnr" v="793732" />
	</node>
	<node lat="59.80673055758951" lon="10.622186109655976" id="-15902">
		<tag k="name" v="Ellingstadåsen" />
		<tag k="place" v="quarter" />
		<tag k="ssr:stedsnr" v="794743" />
	</node>
	<node lat="59.74142500021996" lon="10.581869446486374" id="-15903">
		<tag k="alt_name" v="Solbakken" />
		<tag k="name" v="Solbakke" />
		<tag k="place" v="isolated_dwelling" />
		<tag k="ssr:stedsnr" v="814158" />
	</node>
	<node lat="59.80306944439843" lon="10.653561113677444" id="-15905">
		<tag k="name" v="Løkke" />
		<tag k="place" v="farm" />
		<tag k="ssr:stedsnr" v="828139" />
	</node>
	<node lat="59.80516388633652" lon="10.682561106670438" id="-15906">
		<tag k="alt_name" v="Løes søndre;Søndre Løes" />
		<tag k="name" v="Søndre Løs" />
		<tag k="place" v="farm" />
		<tag k="ssr:stedsnr" v="828101" />
	</node>
	<node lat="59.74214444482634" lon="10.612613894175547" id="-15907">
		<tag k="name" v="Søndre Myklerud" />
		<tag k="place" v="farm" />
		<tag k="ssr:stedsnr" v="828344" />
	</node>
	<node lat="59.81295555556802" lon="10.627908330747795" id="-15911">
		<tag k="loc_name" v="Flatebybråtan" />
		<tag k="name" v="Flatebybråten" />
		<tag k="place" v="locality" />
		<tag k="ssr:stedsnr" v="828751" />
	</node>
	<node lat="59.82056388996282" lon="10.676363882326124" id="-15912">
		<tag k="name" v="Solbergbråten" />
		<tag k="place" v="farm" />
		<tag k="ssr:stedsnr" v="828834" />
	</node>
	<node lat="59.827782232075506" lon="10.679588207327829" id="-15914">
		<tag k="alt_name" v="Flateby nordre" />
		<tag k="name" v="Nordre Flateby" />
		<tag k="place" v="farm" />
		<tag k="ssr:stedsnr" v="828843" />
	</node>
	<node lat="59.78344444173614" lon="10.61376943803959" id="-15916">
		<tag k="name" v="Nylenna" />
		<tag k="place" v="farm" />
		<tag k="ssr:stedsnr" v="830416" />
	</node>
	<node lat="59.84283333382627" lon="10.6632055521072" id="-15919">
		<tag k="name" v="Kallestad" />
		<tag k="place" v="locality" />
		<tag k="ssr:stedsnr" v="830493" />
	</node>
	<node lat="59.83764999844177" lon="10.642569441714704" id="-15920">
		<tag k="amenity" v="nursing_home" />
		<tag k="name" v="Nesoddtunet" />
		<tag k="ssr:stedsnr" v="889873" />
	</node>
	<node lat="59.7920250018063" lon="10.695638897009264" id="-15922">
		<tag k="alt_name" v="Østeråt" />
		<tag k="name" v="Østrått" />
		<tag k="place" v="isolated_dwelling" />
		<tag k="ssr:stedsnr" v="847338" />
	</node>
	<node lat="59.82616570081771" lon="10.674831047531084" id="-15927">
		<tag k="fixme" v="consider place=hamlet" />
		<tag k="name" v="Sandaker" />
		<tag k="place" v="farm" />
		<tag k="ssr:stedsnr" v="854699" />
	</node>
	<node lat="59.766639446730686" lon="10.65611939970778" id="-15929">
		<tag k="fixme" v="consider place=hamlet" />
		<tag k="name" v="Fundingrud" />
		<tag k="place" v="farm" />
		<tag k="ssr:stedsnr" v="855659" />
	</node>
	<node lat="59.82288747568995" lon="10.654919404025174" id="-15931">
		<tag k="fixme" v="consider place=hamlet" />
		<tag k="name" v="To" />
		<tag k="place" v="farm" />
		<tag k="ssr:stedsnr" v="855754" />
	</node>
	<node lat="59.820930559217665" lon="10.6277805628473" id="-15932">
		<tag k="fixme" v="consider place=suburb, village or hamlet" />
		<tag k="name" v="Alværn" />
		<tag k="place" v="quarter" />
		<tag k="ssr:stedsnr" v="855756" />
	</node>
	<node lat="59.783238892670035" lon="10.693838889231904" id="-15936">
		<tag k="alt_name" v="Grøstad søndre" />
		<tag k="name" v="Søndre Grøstad" />
		<tag k="place" v="farm" />
		<tag k="ssr:stedsnr" v="888193" />
	</node>
	<node lat="59.79085555173534" lon="10.637666664571144" id="-15937">
		<tag k="name" v="Lunner" />
		<tag k="place" v="hamlet" />
		<tag k="ssr:stedsnr" v="888132" />
	</node>
	<node lat="59.80915278158606" lon="10.691588897755095" id="-15941">
		<tag k="name" v="Kirkeåsen" />
		<tag k="place" v="hamlet" />
		<tag k="ssr:stedsnr" v="949035" />
	</node>
	<node lat="59.7437611072268" lon="10.612638881608735" id="-15943">
		<tag k="name" v="Nordre Myklerud" />
		<tag k="place" v="farm" />
		<tag k="ssr:stedsnr" v="949313" />
	</node>
	<node lat="59.76866944239933" lon="10.633533326587362" id="-15945">
		<tag k="name" v="Høybråtaløkka" />
		<tag k="place" v="locality" />
		<tag k="ssr:stedsnr" v="949374" />
	</node>
	<node lat="59.76608055701556" lon="10.6487388903257" id="-15949">
		<tag k="name" v="Fundingrudhaugen" />
		<tag k="place" v="locality" />
		<tag k="ssr:stedsnr" v="949542" />
	</node>
	<node lat="59.77718611461344" lon="10.700675000239645" id="-15950">
		<tag k="name" v="Holmen" />
		<tag k="place" v="farm" />
		<tag k="ssr:stedsnr" v="951415" />
	</node>
	<node lat="59.835046108682626" lon="10.674290852800093" id="-15953">
		<tag k="leisure" v="pitch" />
		<tag k="name" v="Berger idrettspark vestre" />
		<tag k="ssr:stedsnr" v="966061" />
	</node>
	<node lat="59.85101944747485" lon="10.655866668550907" id="-15955">
		<tag k="name" v="Øvre Flaskebekk" />
		<tag k="place" v="isolated_dwelling" />
		<tag k="ssr:stedsnr" v="966263" />
	</node>
	<node lat="59.845198185259534" lon="10.639893039538816" id="-15963">
		<tag k="fixme" v="consider place=hamlet" />
		<tag k="name" v="Ildjernet" />
		<tag k="place" v="farm" />
		<tag k="ssr:stedsnr" v="1081449" />
	</node>
	<node lat="59.858840507990074" lon="10.66342316708211" id="-15970">
		<tag k="name" v="Nesoddtangen" />
		<tag k="place" v="village" />
		<tag k="ssr:stedsnr" v="1081977" />
	</node>
</osm>
