<?xml version="1.0" encoding="UTF-8"?>
<osm version="0.6" generator="osmapis">
	<node lat="59.766144441677426" lon="10.627088895449399" id="-28404">
		<tag k="fixme" v="consider natural=peak for the most distinct mountains in the district" />
		<tag k="name" v="Harafjell" />
		<tag k="natural" v="hill" />
		<tag k="place" v="locality" />
		<tag k="ssr:stedsnr" v="39532" />
	</node>
	<node lat="59.8298000009121" lon="10.631852785679666" id="-28405">
		<tag k="name" v="Vekkopp" />
		<tag k="place" v="locality" />
		<tag k="ssr:stedsnr" v="39801" />
	</node>
	<node lat="59.83927222372668" lon="10.6400611058546" id="-28406">
		<tag k="name" v="Bispestallen" />
		<tag k="place" v="locality" />
		<tag k="ssr:stedsnr" v="39865" />
	</node>
	<node lat="59.77803055740594" lon="10.618886108280577" id="-28440">
		<tag k="fixme" v="consider natural=peak for the most distinct mountains in the district" />
		<tag k="name" v="Støaåsen" />
		<tag k="natural" v="hill" />
		<tag k="place" v="locality" />
		<tag k="ssr:stedsnr" v="126655" />
	</node>
	<node lat="59.84088888798278" lon="10.656594446061673" id="-28442">
		<tag k="name" v="Nissehola" />
		<tag k="place" v="locality" />
		<tag k="ssr:stedsnr" v="162501" />
	</node>
	<node lat="59.80962500087926" lon="10.615302770827412" id="-28468">
		<tag k="alt_name" v="Helvedesflauet" />
		<tag k="name" v="Helvetesflauet" />
		<tag k="natural" v="cliff" />
		<tag k="ssr:stedsnr" v="267326" />
	</node>
	<node lat="59.7710361077916" lon="10.624549996138832" id="-28470">
		<tag k="name" v="Barlindleina" />
		<tag k="place" v="locality" />
		<tag k="ssr:stedsnr" v="282416" />
	</node>
	<node lat="59.84361110732991" lon="10.649913880156006" id="-28487">
		<tag k="fixme" v="consider natural=peak for the most distinct mountains in the district" />
		<tag k="name" v="Ildjernåsen" />
		<tag k="natural" v="hill" />
		<tag k="place" v="locality" />
		<tag k="ssr:stedsnr" v="299295" />
	</node>
	<node lat="59.812816572358216" lon="10.63636846778373" id="-28499">
		<tag k="name" v="Holtebakken" />
		<tag k="place" v="locality" />
		<tag k="ssr:stedsnr" v="464843" />
	</node>
	<node lat="59.79842777480503" lon="10.644413890602502" id="-28503">
		<tag k="fixme" v="consider natural=peak for the most distinct mountains in the district" />
		<tag k="name" v="Gaupefjell" />
		<tag k="natural" v="hill" />
		<tag k="place" v="locality" />
		<tag k="ssr:stedsnr" v="307712" />
	</node>
	<node lat="59.830530557416076" lon="10.662891658756319" id="-28506">
		<tag k="fixme" v="consider natural=peak for the most distinct mountains in the district" />
		<tag k="name" v="Grimsåsen" />
		<tag k="natural" v="hill" />
		<tag k="place" v="locality" />
		<tag k="ssr:stedsnr" v="308738" />
	</node>
	<node lat="59.83904999728106" lon="10.68469999161733" id="-28512">
		<tag k="fixme" v="consider natural=peak for the most distinct mountains in the district" />
		<tag k="name" v="Solåsen" />
		<tag k="natural" v="hill" />
		<tag k="place" v="locality" />
		<tag k="ssr:stedsnr" v="344500" />
	</node>
	<node lat="59.797608331532984" lon="10.669277780390841" id="-28524">
		<tag k="name" v="Grøndalen" />
		<tag k="natural" v="valley" />
		<tag k="place" v="locality" />
		<tag k="ssr:stedsnr" v="403120" />
	</node>
	<node lat="59.816538885877456" lon="10.633702775278337" id="-28529">
		<tag k="fixme" v="consider natural=peak for the most distinct mountains in the district" />
		<tag k="name" v="Stegaberget" />
		<tag k="natural" v="hill" />
		<tag k="place" v="locality" />
		<tag k="ssr:stedsnr" v="403796" />
	</node>
	<node lat="59.782316665063355" lon="10.66649722392426" id="-28540">
		<tag k="fixme" v="consider natural=peak for the most distinct mountains in the district" />
		<tag k="name" v="Sefjell" />
		<tag k="natural" v="hill" />
		<tag k="place" v="locality" />
		<tag k="ssr:stedsnr" v="429657" />
	</node>
	<node lat="59.85701389087913" lon="10.660802783013963" id="-28543">
		<tag k="fixme" v="consider natural=peak for the most distinct mountains in the district" />
		<tag k="name" v="Tangenåsen" />
		<tag k="natural" v="hill" />
		<tag k="place" v="locality" />
		<tag k="ssr:stedsnr" v="429801" />
	</node>
	<node lat="59.758524997035" lon="10.607794437000631" id="-28552">
		<tag k="fixme" v="consider natural=peak for the most distinct mountains in the district" />
		<tag k="name" v="Toppåsen" />
		<tag k="natural" v="hill" />
		<tag k="place" v="locality" />
		<tag k="ssr:stedsnr" v="672629" />
	</node>
	<node lat="59.803599998624826" lon="10.613705552836079" id="-28555">
		<tag k="alt_name" v="Ommsåsen" />
		<tag k="fixme" v="consider natural=peak for the most distinct mountains in the district" />
		<tag k="name" v="Omsåsen" />
		<tag k="natural" v="hill" />
		<tag k="place" v="locality" />
		<tag k="ssr:stedsnr" v="672689" />
	</node>
	<node lat="59.758552775464686" lon="10.628766663442178" id="-28562">
		<tag k="fixme" v="consider natural=peak for the most distinct mountains in the district" />
		<tag k="name" v="Nylandsås" />
		<tag k="natural" v="hill" />
		<tag k="place" v="locality" />
		<tag k="ssr:stedsnr" v="464609" />
	</node>
	<node lat="59.840930552986215" lon="10.649672216865863" id="-28565">
		<tag k="fixme" v="consider natural=peak for the most distinct mountains in the district" />
		<tag k="name" v="Stangåsen" />
		<tag k="natural" v="hill" />
		<tag k="place" v="locality" />
		<tag k="ssr:stedsnr" v="465457" />
	</node>
	<node lat="59.79705833770103" lon="10.676036112092335" id="-28568">
		<tag k="fixme" v="consider natural=peak for the most distinct mountains in the district" />
		<tag k="name" v="Vardeåsen" />
		<tag k="natural" v="hill" />
		<tag k="place" v="locality" />
		<tag k="ssr:stedsnr" v="489741" />
	</node>
	<node lat="59.76886388549831" lon="10.621200000876687" id="-28570">
		<tag k="fixme" v="consider natural=peak for the most distinct mountains in the district" />
		<tag k="name" v="Svestadåsen" />
		<tag k="natural" v="hill" />
		<tag k="place" v="locality" />
		<tag k="ssr:stedsnr" v="490615" />
	</node>
	<node lat="59.82407778121866" lon="10.626916659641507" id="-28595">
		<tag k="name" v="Sagbakksletta" />
		<tag k="place" v="locality" />
		<tag k="ssr:stedsnr" v="585801" />
	</node>
	<node lat="59.772938891629984" lon="10.649861115542913" id="-28612">
		<tag k="fixme" v="consider natural=peak for the most distinct mountains in the district" />
		<tag k="name" v="Fundingrudås" />
		<tag k="natural" v="hill" />
		<tag k="place" v="locality" />
		<tag k="ssr:stedsnr" v="645190" />
	</node>
	<node lat="59.82378055356571" lon="10.65003888068725" id="-28615">
		<tag k="name" v="Gullmoenhølet" />
		<tag k="place" v="locality" />
		<tag k="ssr:stedsnr" v="645815" />
	</node>
	<node lat="59.84016110846697" lon="10.656558338205425" id="-28621">
		<tag k="name" v="Kvennhusdalen" />
		<tag k="natural" v="valley" />
		<tag k="place" v="locality" />
		<tag k="ssr:stedsnr" v="647486" />
	</node>
	<node lat="59.80929444749631" lon="10.676974995473662" id="-28623">
		<tag k="fixme" v="consider natural=peak for the most distinct mountains in the district" />
		<tag k="name" v="Olaås" />
		<tag k="natural" v="hill" />
		<tag k="place" v="locality" />
		<tag k="ssr:stedsnr" v="707030" />
	</node>
	<node lat="59.849125003238825" lon="10.653541659229472" id="-28637">
		<tag k="name" v="Gjøkåsen" />
		<tag k="natural" v="hill" />
		<tag k="place" v="locality" />
		<tag k="ssr:stedsnr" v="891515" />
	</node>
	<node lat="59.837894440461035" lon="10.658908326197439" id="-28640">
		<tag k="fixme" v="consider natural=peak for the most distinct mountains in the district" />
		<tag k="name" v="Mateaåsen" />
		<tag k="natural" v="hill" />
		<tag k="place" v="locality" />
		<tag k="ssr:stedsnr" v="707651" />
	</node>
	<node lat="59.83836111517053" lon="10.646797226204676" id="-28642">
		<tag k="name" v="Håkonkastsletta" />
		<tag k="place" v="locality" />
		<tag k="ssr:stedsnr" v="707868" />
	</node>
	<node lat="59.83409722205158" lon="10.657399994789232" id="-28643">
		<tag k="fixme" v="consider natural=peak for the most distinct mountains in the district" />
		<tag k="name" v="Bjørnåsen" />
		<tag k="natural" v="hill" />
		<tag k="place" v="locality" />
		<tag k="ssr:stedsnr" v="707869" />
	</node>
	<node lat="59.78001111400631" lon="10.6260694477391" id="-28693">
		<tag k="fixme" v="consider natural=peak for the most distinct mountains in the district" />
		<tag k="name" v="Dalåsen" />
		<tag k="natural" v="hill" />
		<tag k="place" v="locality" />
		<tag k="ssr:stedsnr" v="854650" />
	</node>
	<node lat="59.80273055722052" lon="10.640027781882194" id="-28747">
		<tag k="fixme" v="consider natural=peak for the most distinct mountains in the district" />
		<tag k="name" v="Flaåsen" />
		<tag k="natural" v="hill" />
		<tag k="place" v="locality" />
		<tag k="ssr:stedsnr" v="65707" />
	</node>
	<node lat="59.782758333789644" lon="10.64431944898243" id="-28752">
		<tag k="fixme" v="consider natural=peak for the most distinct mountains in the district" />
		<tag k="name" v="Kirkeåsen" />
		<tag k="natural" v="hill" />
		<tag k="place" v="locality" />
		<tag k="ssr:stedsnr" v="65666" />
	</node>
	<node lat="59.78061111374691" lon="10.633049997139745" id="-28789">
		<tag k="fixme" v="consider natural=peak for the most distinct mountains in the district" />
		<tag k="name" v="Gateåsen" />
		<tag k="natural" v="hill" />
		<tag k="place" v="locality" />
		<tag k="ssr:stedsnr" v="162448" />
	</node>
	<node lat="59.804291665764445" lon="10.65846943607984" id="-28804">
		<tag k="fixme" v="consider natural=peak for the most distinct mountains in the district" />
		<tag k="name" v="Nylendeåsen" />
		<tag k="natural" v="hill" />
		<tag k="place" v="locality" />
		<tag k="ssr:stedsnr" v="221142" />
	</node>
	<node lat="59.81770277539376" lon="10.649041667793814" id="-28814">
		<tag k="fixme" v="consider natural=peak for the most distinct mountains in the district" />
		<tag k="name" v="Jonsrudåsen" />
		<tag k="natural" v="hill" />
		<tag k="place" v="locality" />
		<tag k="ssr:stedsnr" v="221767" />
	</node>
	<node lat="59.77490000289216" lon="10.646644449847313" id="-28819">
		<tag k="fixme" v="consider natural=peak for the most distinct mountains in the district" />
		<tag k="name" v="Tolvbjørnrudåsen" />
		<tag k="natural" v="hill" />
		<tag k="place" v="locality" />
		<tag k="ssr:stedsnr" v="223445" />
	</node>
	<node lat="59.81322221985715" lon="10.700444447912298" id="-28834">
		<tag k="name" v="Tutarholet" />
		<tag k="place" v="locality" />
		<tag k="ssr:stedsnr" v="300346" />
	</node>
	<node lat="59.84937500101035" lon="10.649377785485411" id="-28857">
		<tag k="name" v="Kirkeberget" />
		<tag k="place" v="locality" />
		<tag k="ssr:stedsnr" v="359275" />
	</node>
	<node lat="59.8230666675608" lon="10.650052786220517" id="-28861">
		<tag k="fixme" v="consider natural=peak for the most distinct mountains in the district" />
		<tag k="name" v="Toåsen" />
		<tag k="natural" v="hill" />
		<tag k="place" v="locality" />
		<tag k="ssr:stedsnr" v="368549" />
	</node>
	<node lat="59.8111805594564" lon="10.697861113434788" id="-28868">
		<tag k="name" v="Møllebakken" />
		<tag k="place" v="locality" />
		<tag k="ssr:stedsnr" v="403841" />
	</node>
	<node lat="59.81354444509697" lon="10.617275006353937" id="-28878">
		<tag k="name" v="Svarteberget" />
		<tag k="natural" v="hill" />
		<tag k="place" v="locality" />
		<tag k="ssr:stedsnr" v="422652" />
	</node>
	<node lat="59.80942777816396" lon="10.649363882813821" id="-28881">
		<tag k="alt_name" v="Fugleleikåsen" />
		<tag k="fixme" v="consider natural=peak for the most distinct mountains in the district" />
		<tag k="name" v="Fuglleikåsen" />
		<tag k="natural" v="hill" />
		<tag k="place" v="locality" />
		<tag k="ssr:stedsnr" v="430679" />
	</node>
	<node lat="59.817616665474915" lon="10.637980558417343" id="-28894">
		<tag k="fixme" v="consider natural=peak for the most distinct mountains in the district" />
		<tag k="name" v="Totjernåsen" />
		<tag k="natural" v="hill" />
		<tag k="place" v="locality" />
		<tag k="ssr:stedsnr" v="525785" />
	</node>
	<node lat="59.84500833634685" lon="10.687233336513916" id="-28896">
		<tag k="fixme" v="consider natural=peak for the most distinct mountains in the district" />
		<tag k="name" v="Sefjell" />
		<tag k="natural" v="hill" />
		<tag k="place" v="locality" />
		<tag k="ssr:stedsnr" v="526492" />
	</node>
	<node lat="59.807988887541306" lon="10.69604166808161" id="-28900">
		<tag k="fixme" v="consider natural=peak for the most distinct mountains in the district" />
		<tag k="name" v="Kulåsen" />
		<tag k="natural" v="hill" />
		<tag k="place" v="locality" />
		<tag k="ssr:stedsnr" v="543340" />
	</node>
	<node lat="59.76124722371521" lon="10.63391944518819" id="-28929">
		<tag k="name" v="Svestaddalen" />
		<tag k="natural" v="valley" />
		<tag k="place" v="locality" />
		<tag k="ssr:stedsnr" v="611663" />
	</node>
	<node lat="59.7766888908732" lon="10.62931389054108" id="-28946">
		<tag k="fixme" v="consider natural=peak for the most distinct mountains in the district" />
		<tag k="name" v="Plankefjell" />
		<tag k="natural" v="hill" />
		<tag k="place" v="locality" />
		<tag k="ssr:stedsnr" v="647445" />
	</node>
	<node lat="59.81573055220543" lon="10.634302780582585" id="-28961">
		<tag k="name" v="Langeleina" />
		<tag k="natural" v="valley" />
		<tag k="place" v="locality" />
		<tag k="ssr:stedsnr" v="767801" />
	</node>
	<node lat="59.78182500261229" lon="10.623630563787959" id="-28963">
		<tag k="name" v="Spirebakke" />
		<tag k="place" v="locality" />
		<tag k="ssr:stedsnr" v="769443" />
	</node>
	<node lat="59.81636154268637" lon="10.666397604572854" id="-28969">
		<tag k="fixme" v="consider natural=peak for the most distinct mountains in the district" />
		<tag k="name" v="Haukåsen" />
		<tag k="natural" v="hill" />
		<tag k="place" v="locality" />
		<tag k="ssr:stedsnr" v="794731" />
	</node>
	<node lat="59.814144441516774" lon="10.6254527781132" id="-28978">
		<tag k="fixme" v="consider natural=peak for the most distinct mountains in the district" />
		<tag k="name" v="Korpåsen" />
		<tag k="natural" v="hill" />
		<tag k="place" v="locality" />
		<tag k="ssr:stedsnr" v="828749" />
	</node>
	<node lat="59.840525002425295" lon="10.642622226311977" id="-28989">
		<tag k="name" v="Håkonkastet" />
		<tag k="place" v="locality" />
		<tag k="ssr:stedsnr" v="889874" />
	</node>
	<node lat="59.797966663211746" lon="10.663608336352087" id="-29002">
		<tag k="fixme" v="consider natural=peak for the most distinct mountains in the district" />
		<tag k="name" v="Naverudåsen" />
		<tag k="natural" v="hill" />
		<tag k="place" v="locality" />
		<tag k="ssr:stedsnr" v="873227" />
	</node>
	<node lat="59.80093055499465" lon="10.609552774031894" id="-29009">
		<tag k="name" v="Oreklova" />
		<tag k="natural" v="valley" />
		<tag k="place" v="locality" />
		<tag k="ssr:stedsnr" v="949146" />
	</node>
	<node lat="59.744644445398606" lon="10.61823333532681" id="-29011">
		<tag k="name" v="Torehølet" />
		<tag k="place" v="locality" />
		<tag k="ssr:stedsnr" v="949312" />
	</node>
</osm>
