<?xml version="1.0" encoding="UTF-8"?>
<osm version="0.6" generator="osmapis">
	<node lat="59.87251355108686" lon="10.718952893971043" id="-10947">
		<tag k="name" v="Langøyene" />
		<tag k="place" v="island" />
		<tag k="ssr:stedsnr" v="4124" />
	</node>
	<node lat="59.85147499922012" lon="10.687022218775185" id="-10951">
		<tag k="name" v="Hellviktangen" />
		<tag k="natural" v="cape" />
		<tag k="old_name" v="Helviktangen" />
		<tag k="ssr:stedsnr" v="4811" />
	</node>
	<node lat="59.86336923892583" lon="10.716813976303236" id="-10952">
		<tag k="name" v="Husbergøya" />
		<tag k="place" v="islet" />
		<tag k="ssr:stedsnr" v="4824" />
	</node>
	<node lat="59.802427778141634" lon="10.704547229608982" id="-10953">
		<tag k="alt_name" v="Rudstrand" />
		<tag k="name" v="Rudstranda" />
		<tag k="natural" v="beach" />
		<tag k="ssr:stedsnr" v="25185" />
	</node>
	<node lat="59.80200555185626" lon="10.605986105186284" id="-10954">
		<tag k="name" v="Ommskåret" />
		<tag k="natural" v="shoal" />
		<tag k="place" v="locality" />
		<tag k="ssr:stedsnr" v="25191" />
	</node>
	<node lat="59.82701944614595" lon="10.697633338372746" id="-10955">
		<tag k="name" v="Sørbystranda" />
		<tag k="natural" v="beach" />
		<tag k="ssr:stedsnr" v="25378" />
	</node>
	<node lat="59.849075000173364" lon="10.643363894264345" id="-10965">
		<tag k="name" v="Kavringgrunnen" />
		<tag k="natural" v="shoal" />
		<tag k="place" v="locality" />
		<tag k="ssr:stedsnr" v="238273" />
	</node>
	<node lat="59.860288889857685" lon="10.734505548452034" id="-10966">
		<tag k="name" v="Søndre Kalvesanden" />
		<tag k="natural" v="shoal" />
		<tag k="place" v="locality" />
		<tag k="ssr:stedsnr" v="56376" />
	</node>
	<node lat="59.85585833302035" lon="10.718475006097727" id="-10967">
		<tag k="name" v="Kortmakerfluene" />
		<tag k="natural" v="shoal" />
		<tag k="place" v="locality" />
		<tag k="ssr:stedsnr" v="56377" />
	</node>
	<node lat="59.87093333492789" lon="10.663575005988934" id="-10968">
		<tag k="name" v="Lagskjærflua" />
		<tag k="natural" v="shoal" />
		<tag k="place" v="locality" />
		<tag k="ssr:stedsnr" v="240514" />
	</node>
	<node lat="59.814661109825245" lon="10.608858330852216" id="-10969">
		<tag k="alt_name" v="Selskjær" />
		<tag k="fixme" v="consider seamark:type=rock or natural=shoal" />
		<tag k="name" v="Selskjæret" />
		<tag k="place" v="islet" />
		<tag k="ssr:stedsnr" v="240670" />
	</node>
	<node lat="59.81885606066459" lon="10.603644932556037" id="-10970">
		<tag k="fixme" v="consider seamark:type=rock or natural=shoal" />
		<tag k="name" v="Knerten" />
		<tag k="place" v="islet" />
		<tag k="ssr:stedsnr" v="240691" />
	</node>
	<node lat="59.86948095858245" lon="10.722801622156663" id="-10971">
		<tag k="name" v="Søndre Langøya" />
		<tag k="place" v="island" />
		<tag k="ssr:stedsnr" v="64823" />
	</node>
	<node lat="59.86901110810325" lon="10.662780560472395" id="-10972">
		<tag k="alt_name" v="Tangenlaget" />
		<tag k="name" v="Tangelaget" />
		<tag k="natural" v="cape" />
		<tag k="ssr:stedsnr" v="64828" />
	</node>
	<node lat="59.78861111063094" lon="10.651900005888463" id="-10974">
		<tag k="name" v="Nesodden" />
		<tag k="natural" v="cape" />
		<tag k="ssr:stedsnr" v="65642" />
	</node>
	<node lat="59.819588887295176" lon="10.6186194415884" id="-10985">
		<tag k="name" v="Kråkestranda" />
		<tag k="natural" v="beach" />
		<tag k="ssr:stedsnr" v="100775" />
	</node>
	<node lat="59.84570277574946" lon="10.646483339042268" id="-10988">
		<tag k="name" v="Kavringstranda" />
		<tag k="natural" v="beach" />
		<tag k="ssr:stedsnr" v="117302" />
	</node>
	<node lat="59.860097220660286" lon="10.675925001233201" id="-10989">
		<tag k="alt_name" v="Klingenbergodden" />
		<tag k="name" v="Klinkenbergodden" />
		<tag k="natural" v="cape" />
		<tag k="ssr:stedsnr" v="117409" />
	</node>
	<node lat="59.81964444370482" lon="10.602427785799952" id="-10990">
		<tag k="name" v="Knertegrunnen" />
		<tag k="natural" v="shoal" />
		<tag k="place" v="locality" />
		<tag k="ssr:stedsnr" v="118622" />
	</node>
	<node lat="59.78340277903228" lon="10.70879722120622" id="-10998">
		<tag k="name" v="Solvika" />
		<tag k="natural" v="bay" />
		<tag k="ssr:stedsnr" v="179319" />
	</node>
	<node lat="59.877300003724905" lon="10.667333326503137" id="-10999">
		<tag k="alt_name" v="Østre Tangeflua" />
		<tag k="name" v="Tangeflua" />
		<tag k="natural" v="shoal" />
		<tag k="place" v="locality" />
		<tag k="ssr:stedsnr" v="185817" />
	</node>
	<node lat="59.851944446916676" lon="10.68345833759019" id="-11015">
		<tag k="name" v="Ursvikbukta" />
		<tag k="natural" v="bay" />
		<tag k="ssr:stedsnr" v="450334" />
	</node>
	<node lat="59.81680555752557" lon="10.588399991785145" id="-11021">
		<tag k="name" v="Torskegrunnen" />
		<tag k="natural" v="shoal" />
		<tag k="place" v="locality" />
		<tag k="ssr:stedsnr" v="266443" />
	</node>
	<node lat="59.76200555831763" lon="10.582219450959572" id="-11027">
		<tag k="name" v="Sproodden" />
		<tag k="natural" v="cape" />
		<tag k="ssr:stedsnr" v="282325" />
	</node>
	<node lat="59.8419555539688" lon="10.639355554186915" id="-11042">
		<tag k="loc_name" v="Suterbukta" />
		<tag k="name" v="Suterenbukta" />
		<tag k="natural" v="bay" />
		<tag k="ssr:stedsnr" v="299299" />
	</node>
	<node lat="59.8657500000834" lon="10.724216671261514" id="-11043">
		<tag k="name" v="Nordre Kalvesanden" />
		<tag k="natural" v="shoal" />
		<tag k="place" v="locality" />
		<tag k="ssr:stedsnr" v="299407" />
	</node>
	<node lat="59.87107777666414" lon="10.728922219329416" id="-11044">
		<tag k="name" v="Søndre Langøyrabbane" />
		<tag k="natural" v="shoal" />
		<tag k="place" v="locality" />
		<tag k="ssr:stedsnr" v="300478" />
	</node>
	<node lat="59.84317777728258" lon="10.639324991991876" id="-11051">
		<tag k="name" v="Sildedrettet" />
		<tag k="natural" v="beach" />
		<tag k="ssr:stedsnr" v="464649" />
	</node>
	<node lat="59.837055555254814" lon="10.728263882034412" id="-11069">
		<tag k="alt_name" v="Storeflu" />
		<tag k="name" v="Storeflua" />
		<tag k="natural" v="shoal" />
		<tag k="old_name" v="Storflu" />
		<tag k="place" v="locality" />
		<tag k="ssr:stedsnr" v="368220" />
	</node>
	<node lat="59.76126111320978" lon="10.58271666860869" id="-11072">
		<tag k="name" v="Sørbukta" />
		<tag k="natural" v="bay" />
		<tag k="ssr:stedsnr" v="481055" />
	</node>
	<node lat="59.84451944316895" lon="10.639783329813813" id="-11073">
		<tag k="name" v="Nordbukta" />
		<tag k="natural" v="bay" />
		<tag k="ssr:stedsnr" v="481290" />
	</node>
	<node lat="59.817338890040105" lon="10.611019439362336" id="-11074">
		<tag k="alt_name" v="Rekeskjær" />
		<tag k="fixme" v="consider seamark:type=rock or natural=shoal" />
		<tag k="name" v="Rekeskjæret" />
		<tag k="place" v="islet" />
		<tag k="ssr:stedsnr" v="482633" />
	</node>
	<node lat="59.81539444638193" lon="10.616508333319754" id="-11076">
		<tag k="alt_name" v="Viern" />
		<tag k="fixme" v="consider seamark:type=rock or natural=shoal" />
		<tag k="name" v="Vierskjæret" />
		<tag k="place" v="islet" />
		<tag k="ssr:stedsnr" v="482641" />
	</node>
	<node lat="59.85700833183971" lon="10.722569447283815" id="-11077">
		<tag k="alt_name" v="Nordre Skjælholme" />
		<tag k="name" v="Nordre Skjælholmen" />
		<tag k="place" v="islet" />
		<tag k="ssr:stedsnr" v="388506" />
	</node>
	<node lat="59.86378333431681" lon="10.719472229654631" id="-11085">
		<tag k="name" v="Husbergkalven" />
		<tag k="place" v="islet" />
		<tag k="ssr:stedsnr" v="405498" />
	</node>
	<node lat="59.74463333364277" lon="10.722119444469184" id="-11086">
		<tag k="bay" v="fjord" />
		<tag k="name" v="Bunnefjorden" />
		<tag k="natural" v="bay" />
		<tag k="ssr:stedsnr" v="488471" />
	</node>
	<node lat="59.865675001086366" lon="10.683311106070713" id="-11095">
		<tag k="alt_name" v="Ytre Oksvalflua" />
		<tag k="name" v="Østre Oksvalflua" />
		<tag k="natural" v="shoal" />
		<tag k="place" v="locality" />
		<tag k="ssr:stedsnr" v="429808" />
	</node>
	<node lat="59.788938884488346" lon="10.599369443545205" id="-11113">
		<tag k="name" v="Krøkleodden" />
		<tag k="natural" v="cape" />
		<tag k="ssr:stedsnr" v="464510" />
	</node>
	<node lat="59.85548611483232" lon="10.630713892938983" id="-11121">
		<tag k="name" v="Ildjernsflua" />
		<tag k="natural" v="shoal" />
		<tag k="place" v="locality" />
		<tag k="ssr:stedsnr" v="489784" />
	</node>
	<node lat="59.82459721914177" lon="10.626141672986561" id="-11124">
		<tag k="name" v="Kjerringræva" />
		<tag k="natural" v="cape" />
		<tag k="ssr:stedsnr" v="510323" />
	</node>
	<node lat="59.83904166357269" lon="10.634019436574496" id="-11133">
		<tag k="name" v="Bæroddgrunnen" />
		<tag k="natural" v="shoal" />
		<tag k="place" v="locality" />
		<tag k="ssr:stedsnr" v="692297" />
	</node>
	<node lat="59.83171111363288" lon="10.724991658648111" id="-11134">
		<tag k="name" v="Tosoberget" />
		<tag k="natural" v="shoal" />
		<tag k="place" v="locality" />
		<tag k="ssr:stedsnr" v="692356" />
	</node>
	<node lat="59.81678889213231" lon="10.61341945009923" id="-11135">
		<tag k="alt_name" v="Landsteilene" />
		<tag k="name" v="Landsteila" />
		<tag k="place" v="islet" />
		<tag k="ssr:stedsnr" v="570319" />
	</node>
	<node lat="59.873394105630396" lon="10.719443832020652" id="-11152">
		<tag k="name" v="Nordre Langøya" />
		<tag k="place" v="island" />
		<tag k="ssr:stedsnr" v="610831" />
	</node>
	<node lat="59.86049722100316" lon="10.68749999139018" id="-11157">
		<tag k="name" v="Bomannsflua" />
		<tag k="natural" v="shoal" />
		<tag k="place" v="locality" />
		<tag k="ssr:stedsnr" v="631290" />
	</node>
	<node lat="59.87019444101937" lon="10.670163880030248" id="-11158">
		<tag k="name" v="Nesskjærgrunnen" />
		<tag k="natural" v="shoal" />
		<tag k="place" v="locality" />
		<tag k="ssr:stedsnr" v="631294" />
	</node>
	<node lat="59.811675000239205" lon="10.615775008133612" id="-11159">
		<tag k="alt_name" v="Mikkelstrand" />
		<tag k="name" v="Mikkelstranda" />
		<tag k="natural" v="beach" />
		<tag k="ssr:stedsnr" v="631342" />
	</node>
	<node lat="59.79235555439767" lon="10.590980558347585" id="-11197">
		<tag k="name" v="Nordre Krøklegrunnen" />
		<tag k="natural" v="shoal" />
		<tag k="place" v="locality" />
		<tag k="ssr:stedsnr" v="724069" />
	</node>
	<node lat="59.81106860311771" lon="10.700690634002973" id="-11199">
		<tag k="name" v="Kirkevika" />
		<tag k="natural" v="bay" />
		<tag k="ssr:stedsnr" v="732703" />
	</node>
	<node lat="59.83060000021886" lon="10.598725004302059" id="-11201">
		<tag k="name" v="Merseflua" />
		<tag k="natural" v="shoal" />
		<tag k="place" v="locality" />
		<tag k="ssr:stedsnr" v="733690" />
	</node>
	<node lat="59.76386389217519" lon="10.583713887707717" id="-11203">
		<tag k="name" v="Nordrebukta" />
		<tag k="natural" v="bay" />
		<tag k="ssr:stedsnr" v="906045" />
	</node>
	<node lat="59.84957222192994" lon="10.632141658855259" id="-11204">
		<tag k="name" v="Nordvesten" />
		<tag k="natural" v="shoal" />
		<tag k="place" v="locality" />
		<tag k="ssr:stedsnr" v="906288" />
	</node>
	<node lat="59.86983800560039" lon="10.653174321419499" id="-11205">
		<tag k="name" v="Hesteløkkagrunnen" />
		<tag k="natural" v="shoal" />
		<tag k="place" v="locality" />
		<tag k="ssr:stedsnr" v="906290" />
	</node>
	<node lat="59.842580555397866" lon="10.6372250069966" id="-11225">
		<tag k="name" v="Båsen" />
		<tag k="natural" v="bay" />
		<tag k="ssr:stedsnr" v="915756" />
	</node>
	<node lat="59.826841670014296" lon="10.59628055556397" id="-11226">
		<tag k="name" v="Nordre Steilesand" />
		<tag k="natural" v="shoal" />
		<tag k="place" v="locality" />
		<tag k="ssr:stedsnr" v="812487" />
	</node>
	<node lat="59.85237777566649" lon="10.682588880207975" id="-11241">
		<tag k="fixme" v="consider seamark:type=rock or natural=shoal" />
		<tag k="name" v="Anneskjæret" />
		<tag k="place" v="islet" />
		<tag k="ssr:stedsnr" v="845403" />
	</node>
	<node lat="59.78836110809211" lon="10.706680557494703" id="-11247">
		<tag k="name" v="Grøstadstranda" />
		<tag k="natural" v="beach" />
		<tag k="ssr:stedsnr" v="935175" />
	</node>
	<node lat="59.80637499671134" lon="10.609369441522388" id="-11249">
		<tag k="name" v="Prekestolen" />
		<tag k="natural" v="cape" />
		<tag k="ssr:stedsnr" v="935365" />
	</node>
	<node lat="59.82521388836744" lon="10.627186118598177" id="-11258">
		<tag k="name" v="Urstrand" />
		<tag k="natural" v="beach" />
		<tag k="ssr:stedsnr" v="949806" />
	</node>
	<node lat="59.85211944067239" lon="10.70881945213497" id="-11269">
		<tag k="name" v="Hellvikbanken" />
		<tag k="natural" v="shoal" />
		<tag k="place" v="locality" />
		<tag k="ssr:stedsnr" v="966398" />
	</node>
	<node lat="59.81686875041403" lon="10.595880026678753" id="-11270">
		<tag k="alt_name" v="Fyrsteilene" />
		<tag k="fixme" v="consider seamark:type=rock or natural=shoal" />
		<tag k="name" v="Fyrsteila" />
		<tag k="old_name" v="Fyrstejlene" />
		<tag k="place" v="islet" />
		<tag k="ssr:stedsnr" v="968686" />
	</node>
	<node lat="59.819044443069835" lon="10.608036116905522" id="-11271">
		<tag k="alt_name" v="Storsteilene" />
		<tag k="name" v="Storsteila" />
		<tag k="place" v="islet" />
		<tag k="ssr:stedsnr" v="968692" />
	</node>
	<node lat="59.826563885074975" lon="10.583169438838837" id="-11275">
		<tag k="alt_name" v="Måsane, østre" />
		<tag k="name" v="Østre Måsane" />
		<tag k="natural" v="shoal" />
		<tag k="place" v="locality" />
		<tag k="ssr:stedsnr" v="5697" />
	</node>
	<node lat="59.75009999624661" lon="10.580977785244436" id="-11281">
		<tag k="name" v="Humlesekken" />
		<tag k="natural" v="cape" />
		<tag k="ssr:stedsnr" v="25155" />
	</node>
	<node lat="59.78385833191701" lon="10.59620555642993" id="-11282">
		<tag k="name" v="Orebukta" />
		<tag k="natural" v="bay" />
		<tag k="ssr:stedsnr" v="25170" />
	</node>
	<node lat="59.732150004042374" lon="10.589630549651485" id="-11285">
		<tag k="name" v="Grisebukta" />
		<tag k="natural" v="bay" />
		<tag k="ssr:stedsnr" v="39332" />
	</node>
	<node lat="59.79636666580737" lon="10.60822777369799" id="-11286">
		<tag k="name" v="Paradisbukta" />
		<tag k="natural" v="bay" />
		<tag k="ssr:stedsnr" v="39129" />
	</node>
	<node lat="59.82107222620835" lon="10.698311109788312" id="-11288">
		<tag k="name" v="Rundholtstranda" />
		<tag k="natural" v="beach" />
		<tag k="ssr:stedsnr" v="39821" />
	</node>
	<node lat="59.757994444603256" lon="10.582527769161432" id="-11293">
		<tag k="name" v="Hammaren" />
		<tag k="natural" v="cape" />
		<tag k="ssr:stedsnr" v="56050" />
	</node>
	<node lat="59.84340833321537" lon="10.620883340059823" id="-11294">
		<tag k="name" v="Kampehallen" />
		<tag k="natural" v="shoal" />
		<tag k="place" v="locality" />
		<tag k="ssr:stedsnr" v="56254" />
	</node>
	<node lat="59.844624997608605" lon="10.642983338395636" id="-11295">
		<tag k="name" v="Ildjernsbukta" />
		<tag k="natural" v="bay" />
		<tag k="ssr:stedsnr" v="56261" />
	</node>
	<node lat="59.846799999583105" lon="10.639969436958184" id="-11296">
		<tag k="name" v="Kattegattodden" />
		<tag k="natural" v="cape" />
		<tag k="ssr:stedsnr" v="56263" />
	</node>
	<node lat="59.790791662678714" lon="10.59546665811466" id="-11308">
		<tag k="name" v="Krøklegrunnen" />
		<tag k="natural" v="shoal" />
		<tag k="place" v="locality" />
		<tag k="ssr:stedsnr" v="86207" />
	</node>
	<node lat="59.877675002572325" lon="10.660944447445232" id="-11309">
		<tag k="name" v="Tangegrunnane" />
		<tag k="natural" v="shoal" />
		<tag k="place" v="locality" />
		<tag k="ssr:stedsnr" v="86349" />
	</node>
	<node lat="59.81849999735657" lon="10.60250833367775" id="-11322">
		<tag k="name" v="Steilene" />
		<tag k="place" v="islet" />
		<tag k="ssr:stedsnr" v="126707" />
	</node>
	<node lat="59.77177777542164" lon="10.589430561391218" id="-11323">
		<tag k="fixme" v="consider seamark:type=rock or natural=shoal" />
		<tag k="name" v="Rognskjær" />
		<tag k="place" v="islet" />
		<tag k="ssr:stedsnr" v="146149" />
	</node>
	<node lat="59.85490277454136" lon="10.685197219419406" id="-11325">
		<tag k="alt_name" v="Selskjær" />
		<tag k="fixme" v="consider seamark:type=rock or natural=shoal" />
		<tag k="name" v="Selskjæret" />
		<tag k="place" v="islet" />
		<tag k="ssr:stedsnr" v="146300" />
	</node>
	<node lat="59.816102780251306" lon="10.60916110277764" id="-11345">
		<tag k="alt_name" v="Persteilene" />
		<tag k="name" v="Persteila" />
		<tag k="place" v="islet" />
		<tag k="ssr:stedsnr" v="179641" />
	</node>
	<node lat="59.84391110788341" lon="10.737616664301822" id="-11349">
		<tag k="name" v="Østre Skjælholmflua" />
		<tag k="natural" v="shoal" />
		<tag k="place" v="locality" />
		<tag k="ssr:stedsnr" v="207322" />
	</node>
	<node lat="59.86838610849463" lon="10.654658326492116" id="-11368">
		<tag k="name" v="Laksebogen" />
		<tag k="natural" v="bay" />
		<tag k="ssr:stedsnr" v="223475" />
	</node>
	<node lat="59.86664722639708" lon="10.66436111970408" id="-11369">
		<tag k="name" v="Djupholet" />
		<tag k="natural" v="beach" />
		<tag k="ssr:stedsnr" v="223493" />
	</node>
	<node lat="59.80764444654907" lon="10.583847221835692" id="-11389">
		<tag k="name" v="Søndre Steilesand" />
		<tag k="natural" v="shoal" />
		<tag k="place" v="locality" />
		<tag k="ssr:stedsnr" v="308722" />
	</node>
	<node lat="59.77842777529384" lon="10.712158331739634" id="-11390">
		<tag k="name" v="Blylagbukta" />
		<tag k="natural" v="bay" />
		<tag k="ssr:stedsnr" v="328181" />
	</node>
	<node lat="59.80925066864453" lon="10.704531173011794" id="-11391">
		<tag k="fixme" v="consider seamark:type=rock or natural=shoal" />
		<tag k="name" v="Presteskjæret" />
		<tag k="place" v="islet" />
		<tag k="ssr:stedsnr" v="328346" />
	</node>
	<node lat="59.787697218980426" lon="10.690091662202624" id="-11394">
		<tag k="name" v="Grøstadodden" />
		<tag k="natural" v="cape" />
		<tag k="ssr:stedsnr" v="342180" />
	</node>
	<node lat="59.75826944538061" lon="10.58221945326789" id="-11397">
		<tag k="name" v="Hammeren" />
		<tag k="natural" v="cape" />
		<tag k="ssr:stedsnr" v="342337" />
	</node>
	<node lat="59.84150555332357" lon="10.615455564193569" id="-11409">
		<tag k="name" v="Johannesgrunnen" />
		<tag k="natural" v="shoal" />
		<tag k="place" v="locality" />
		<tag k="ssr:stedsnr" v="359300" />
	</node>
	<node lat="59.86998611277921" lon="10.663847219572105" id="-11410">
		<tag k="alt_name" v="Lagskjær" />
		<tag k="fixme" v="consider seamark:type=rock or natural=shoal" />
		<tag k="name" v="Lagskjæret" />
		<tag k="place" v="islet" />
		<tag k="ssr:stedsnr" v="361516" />
	</node>
	<node lat="59.214972223183594" lon="10.636341670814504" id="-11411">
		<tag k="bay" v="fjord" />
		<tag k="name" v="Oslofjorden" />
		<tag k="natural" v="bay" />
		<tag k="ssr:stedsnr" v="365030" />
	</node>
	<node lat="59.8706836102546" lon="10.659683479559908" id="-11425">
		<tag k="name" v="Odden" />
		<tag k="natural" v="cape" />
		<tag k="ssr:stedsnr" v="405475" />
	</node>
	<node lat="59.85531994273027" lon="10.726189758578514" id="-11433">
		<tag k="name" v="Skjælholmene" />
		<tag k="place" v="islet" />
		<tag k="ssr:stedsnr" v="445658" />
	</node>
	<node lat="59.84363039600807" lon="10.643116705447243" id="-11434">
		<tag k="name" v="Suteren" />
		<tag k="old_name" v="Sutarn" />
		<tag k="place" v="islet" />
		<tag k="ssr:stedsnr" v="506630" />
	</node>
	<node lat="59.853709892699364" lon="10.729280326891752" id="-11435">
		<tag k="alt_name" v="Søndre Skjælholme" />
		<tag k="name" v="Søndre Skjælholmen" />
		<tag k="place" v="islet" />
		<tag k="ssr:stedsnr" v="509501" />
	</node>
	<node lat="59.84604166481749" lon="10.636627780298447" id="-11443">
		<tag k="fixme" v="consider seamark:type=rock or natural=shoal" />
		<tag k="name" v="Skjæret" />
		<tag k="place" v="islet" />
		<tag k="ssr:stedsnr" v="525653" />
	</node>
	<node lat="59.84558611441568" lon="10.640747218211759" id="-11444">
		<tag k="name" v="Hagebukta" />
		<tag k="natural" v="bay" />
		<tag k="ssr:stedsnr" v="525654" />
	</node>
	<node lat="59.813302778000846" lon="10.600216673977453" id="-11457">
		<tag k="name" v="Lunkeflua" />
		<tag k="natural" v="shoal" />
		<tag k="place" v="locality" />
		<tag k="ssr:stedsnr" v="569448" />
	</node>
	<node lat="59.791722218433264" lon="10.604652769546416" id="-11458">
		<tag k="name" v="Løkkestranda" />
		<tag k="natural" v="beach" />
		<tag k="ssr:stedsnr" v="571198" />
	</node>
	<node lat="59.83745833345146" lon="10.637188897500103" id="-11460">
		<tag k="name" v="Bærodden" />
		<tag k="natural" v="cape" />
		<tag k="ssr:stedsnr" v="571344" />
	</node>
	<node lat="59.80227499753013" lon="10.609099995488423" id="-11461">
		<tag k="name" v="Sørstrand" />
		<tag k="natural" v="beach" />
		<tag k="ssr:stedsnr" v="584132" />
	</node>
	<node lat="59.84252778085386" lon="10.63534999520549" id="-11462">
		<tag k="name" v="Banken" />
		<tag k="natural" v="beach" />
		<tag k="ssr:stedsnr" v="585620" />
	</node>
	<node lat="59.8354333349891" lon="10.635269452466298" id="-11469">
		<tag k="name" v="Åreverket" />
		<tag k="natural" v="beach" />
		<tag k="ssr:stedsnr" v="585864" />
	</node>
	<node lat="59.843600001782704" lon="10.692016658092236" id="-11473">
		<tag k="name" v="Hellvikbukta" />
		<tag k="natural" v="bay" />
		<tag k="ssr:stedsnr" v="587527" />
	</node>
	<node lat="59.826502774654365" lon="10.623288896931045" id="-11475">
		<tag k="name" v="Kjerringrævgrunnen" />
		<tag k="natural" v="shoal" />
		<tag k="place" v="locality" />
		<tag k="ssr:stedsnr" v="603633" />
	</node>
	<node lat="59.74470555375096" lon="10.582019438210656" id="-11476">
		<tag k="name" v="Kjerringbukta" />
		<tag k="natural" v="bay" />
		<tag k="ssr:stedsnr" v="609956" />
	</node>
	<node lat="59.84510968668081" lon="10.632519742463934" id="-11483">
		<tag k="name" v="Lindholmen" />
		<tag k="place" v="islet" />
		<tag k="ssr:stedsnr" v="631307" />
	</node>
	<node lat="59.79691389193334" lon="10.586830564534132" id="-11484">
		<tag k="name" v="Fjellstrandbanken" />
		<tag k="natural" v="shoal" />
		<tag k="place" v="locality" />
		<tag k="ssr:stedsnr" v="631173" />
	</node>
	<node lat="59.755500003071774" lon="10.582338891527007" id="-11485">
		<tag k="alt_name" v="Skjelvika" />
		<tag k="name" v="Skjelavika" />
		<tag k="natural" v="bay" />
		<tag k="ssr:stedsnr" v="632193" />
	</node>
	<node lat="59.81886944119418" lon="10.598127779367939" id="-11499">
		<tag k="name" v="Fyrsteilegrunnen" />
		<tag k="natural" v="shoal" />
		<tag k="place" v="locality" />
		<tag k="ssr:stedsnr" v="664626" />
	</node>
	<node lat="59.87526666649548" lon="10.72798054998397" id="-11500">
		<tag k="name" v="Nordre Langøyrabbane" />
		<tag k="natural" v="shoal" />
		<tag k="place" v="locality" />
		<tag k="ssr:stedsnr" v="664456" />
	</node>
	<node lat="59.843925814937705" lon="10.63608891083154" id="-11507">
		<tag k="name" v="Ildjernet" />
		<tag k="place" v="island" />
		<tag k="ssr:stedsnr" v="733749" />
	</node>
	<node lat="59.850122222189114" lon="10.647236102509487" id="-11509">
		<tag k="alt_name" v="Kirkeskjærene" />
		<tag k="name" v="Kirkeskjæra" />
		<tag k="place" v="islet" />
		<tag k="ssr:stedsnr" v="753294" />
	</node>
	<node lat="59.8600361107422" lon="10.71270833615588" id="-11516">
		<tag k="name" v="Husbergøyflua" />
		<tag k="natural" v="shoal" />
		<tag k="place" v="locality" />
		<tag k="ssr:stedsnr" v="784408" />
	</node>
	<node lat="59.84938333443084" lon="10.724530547103903" id="-11523">
		<tag k="name" v="Vestre Skjælholmflua" />
		<tag k="natural" v="shoal" />
		<tag k="place" v="locality" />
		<tag k="ssr:stedsnr" v="814377" />
	</node>
	<node lat="59.79948889221825" lon="10.704736116023488" id="-11542">
		<tag k="fixme" v="consider seamark:type=rock or natural=shoal" />
		<tag k="name" v="Kammerskjæret" />
		<tag k="place" v="islet" />
		<tag k="ssr:stedsnr" v="847339" />
	</node>
	<node lat="59.791422219254585" lon="10.572058339366015" id="-11544">
		<tag k="name" v="Østre Krøklegrunnen" />
		<tag k="natural" v="shoal" />
		<tag k="place" v="locality" />
		<tag k="ssr:stedsnr" v="854623" />
	</node>
	<node lat="59.86293055710321" lon="10.67535277549817" id="-11547">
		<tag k="name" v="Vestre Oksvalflua" />
		<tag k="natural" v="shoal" />
		<tag k="place" v="locality" />
		<tag k="ssr:stedsnr" v="854783" />
	</node>
	<node lat="59.846427774709035" lon="10.64533888260793" id="-11553">
		<tag k="fixme" v="consider seamark:type=rock or natural=shoal" />
		<tag k="name" v="Kavringen" />
		<tag k="place" v="islet" />
		<tag k="ssr:stedsnr" v="873228" />
	</node>
	<node lat="59.78564999838805" lon="10.70795000358853" id="-11554">
		<tag k="name" v="Smørhella" />
		<tag k="natural" v="cape" />
		<tag k="ssr:stedsnr" v="875207" />
	</node>
	<node lat="59.8590083298179" lon="10.651944440806256" id="-11570">
		<tag k="name" v="Fiskeskjær" />
		<tag k="natural" v="beach" />
		<tag k="ssr:stedsnr" v="951450" />
	</node>
	<node lat="59.857858329228726" lon="10.677402773494334" id="-11571">
		<tag k="name" v="Raskekvartelet" />
		<tag k="natural" v="beach" />
		<tag k="ssr:stedsnr" v="951476" />
	</node>
	<node lat="59.84170833285144" lon="10.63264999217954" id="-11573">
		<tag k="name" v="Vestodden" />
		<tag k="natural" v="cape" />
		<tag k="ssr:stedsnr" v="966260" />
	</node>
	<node lat="59.741457646039464" lon="10.58106373723196" id="-11576">
		<tag k="name" v="Solbakkodden" />
		<tag k="natural" v="cape" />
		<tag k="ssr:stedsnr" v="985689" />
	</node>
</osm>
