<?xml version="1.0" encoding="UTF-8"?>
<osm version="0.6" generator="osmapis">
	<node lat="59.87251355108686" lon="10.718952893971043" id="-10947">
		<tag k="name" v="Langøyene" />
		<tag k="place" v="island" />
		<tag k="ssr:stedsnr" v="4124" />
	</node>
	<node lat="59.79149999778273" lon="10.649277784254203" id="-10948">
		<tag k="name" v="Lønnås" />
		<tag k="place" v="farm" />
		<tag k="ssr:stedsnr" v="4662" />
	</node>
	<node lat="59.78805833495618" lon="10.610691666419124" id="-10949">
		<tag k="name" v="Dalatjern" />
		<tag k="natural" v="water" />
		<tag k="ssr:stedsnr" v="4664" />
	</node>
	<node lat="59.77844360039446" lon="10.66112613207327" id="-10950">
		<tag k="name" v="Sandåsen" />
		<tag k="place" v="farm" />
		<tag k="ssr:stedsnr" v="4680" />
	</node>
	<node lat="59.85147499922012" lon="10.687022218775185" id="-10951">
		<tag k="name" v="Hellviktangen" />
		<tag k="natural" v="cape" />
		<tag k="old_name" v="Helviktangen" />
		<tag k="ssr:stedsnr" v="4811" />
	</node>
	<node lat="59.86336923892583" lon="10.716813976303236" id="-10952">
		<tag k="name" v="Husbergøya" />
		<tag k="place" v="islet" />
		<tag k="ssr:stedsnr" v="4824" />
	</node>
	<node lat="59.802427778141634" lon="10.704547229608982" id="-10953">
		<tag k="alt_name" v="Rudstrand" />
		<tag k="name" v="Rudstranda" />
		<tag k="natural" v="beach" />
		<tag k="ssr:stedsnr" v="25185" />
	</node>
	<node lat="59.80200555185626" lon="10.605986105186284" id="-10954">
		<tag k="name" v="Ommskåret" />
		<tag k="natural" v="shoal" />
		<tag k="place" v="locality" />
		<tag k="ssr:stedsnr" v="25191" />
	</node>
	<node lat="59.82701944614595" lon="10.697633338372746" id="-10955">
		<tag k="name" v="Sørbystranda" />
		<tag k="natural" v="beach" />
		<tag k="ssr:stedsnr" v="25378" />
	</node>
	<node lat="59.806222220042926" lon="10.680563887652" id="-10956">
		<tag k="name" v="Holt" />
		<tag k="place" v="farm" />
		<tag k="ssr:stedsnr" v="39104" />
	</node>
	<node lat="59.80394999929822" lon="10.626916674896659" id="-10957">
		<tag k="name" v="Bekkevoll" />
		<tag k="place" v="farm" />
		<tag k="ssr:stedsnr" v="39120" />
	</node>
	<node lat="59.76861388807097" lon="10.591327780484326" id="-10958">
		<tag k="name" v="Rogneskjærdammen" />
		<tag k="natural" v="water" />
		<tag k="ssr:stedsnr" v="39531" />
	</node>
	<node lat="59.766144441677426" lon="10.627088895449399" id="-10959">
		<tag k="fixme" v="consider natural=peak for the most distinct mountains in the district" />
		<tag k="name" v="Harafjell" />
		<tag k="natural" v="hill" />
		<tag k="place" v="locality" />
		<tag k="ssr:stedsnr" v="39532" />
	</node>
	<node lat="59.8298000009121" lon="10.631852785679666" id="-10960">
		<tag k="name" v="Vekkopp" />
		<tag k="place" v="locality" />
		<tag k="ssr:stedsnr" v="39801" />
	</node>
	<node lat="59.83927222372668" lon="10.6400611058546" id="-10961">
		<tag k="name" v="Bispestallen" />
		<tag k="place" v="locality" />
		<tag k="ssr:stedsnr" v="39865" />
	</node>
	<node lat="59.818961113848815" lon="10.651869452700621" id="-10962">
		<tag k="name" v="Langemyr" />
		<tag k="place" v="isolated_dwelling" />
		<tag k="ssr:stedsnr" v="39766" />
	</node>
	<node lat="59.78095833223955" lon="10.690838893875414" id="-10963">
		<tag k="alt_name" v="Krange søndre" />
		<tag k="name" v="Søndre Krange" />
		<tag k="place" v="farm" />
		<tag k="ssr:stedsnr" v="40409" />
	</node>
	<node lat="59.849075000173364" lon="10.643363894264345" id="-10965">
		<tag k="name" v="Kavringgrunnen" />
		<tag k="natural" v="shoal" />
		<tag k="place" v="locality" />
		<tag k="ssr:stedsnr" v="238273" />
	</node>
	<node lat="59.860288889857685" lon="10.734505548452034" id="-10966">
		<tag k="name" v="Søndre Kalvesanden" />
		<tag k="natural" v="shoal" />
		<tag k="place" v="locality" />
		<tag k="ssr:stedsnr" v="56376" />
	</node>
	<node lat="59.85585833302035" lon="10.718475006097727" id="-10967">
		<tag k="name" v="Kortmakerfluene" />
		<tag k="natural" v="shoal" />
		<tag k="place" v="locality" />
		<tag k="ssr:stedsnr" v="56377" />
	</node>
	<node lat="59.87093333492789" lon="10.663575005988934" id="-10968">
		<tag k="name" v="Lagskjærflua" />
		<tag k="natural" v="shoal" />
		<tag k="place" v="locality" />
		<tag k="ssr:stedsnr" v="240514" />
	</node>
	<node lat="59.814661109825245" lon="10.608858330852216" id="-10969">
		<tag k="alt_name" v="Selskjær" />
		<tag k="fixme" v="consider seamark:type=rock or natural=shoal" />
		<tag k="name" v="Selskjæret" />
		<tag k="place" v="islet" />
		<tag k="ssr:stedsnr" v="240670" />
	</node>
	<node lat="59.81885606066459" lon="10.603644932556037" id="-10970">
		<tag k="fixme" v="consider seamark:type=rock or natural=shoal" />
		<tag k="name" v="Knerten" />
		<tag k="place" v="islet" />
		<tag k="ssr:stedsnr" v="240691" />
	</node>
	<node lat="59.86948095858245" lon="10.722801622156663" id="-10971">
		<tag k="name" v="Søndre Langøya" />
		<tag k="place" v="island" />
		<tag k="ssr:stedsnr" v="64823" />
	</node>
	<node lat="59.86901110810325" lon="10.662780560472395" id="-10972">
		<tag k="alt_name" v="Tangenlaget" />
		<tag k="name" v="Tangelaget" />
		<tag k="natural" v="cape" />
		<tag k="ssr:stedsnr" v="64828" />
	</node>
	<node lat="59.77725750256784" lon="10.690678664122137" id="-10973">
		<tag k="fixme" v="consider place=hamlet" />
		<tag k="name" v="Hasle" />
		<tag k="place" v="farm" />
		<tag k="ssr:stedsnr" v="65612" />
	</node>
	<node lat="59.78861111063094" lon="10.651900005888463" id="-10974">
		<tag k="name" v="Nesodden" />
		<tag k="natural" v="cape" />
		<tag k="ssr:stedsnr" v="65642" />
	</node>
	<node lat="59.78871389179304" lon="10.635475003835184" id="-10975">
		<tag k="alt_name" v="Granerudtjern" />
		<tag k="name" v="Granerudtjernet" />
		<tag k="natural" v="water" />
		<tag k="ssr:stedsnr" v="65644" />
	</node>
	<node lat="59.861397223786085" lon="10.671794453147204" id="-10976">
		<tag k="fixme" v="consider place=suburb, village or hamlet" />
		<tag k="name" v="Oksval" />
		<tag k="place" v="quarter" />
		<tag k="ssr:stedsnr" v="65804" />
	</node>
	<node lat="59.7566916655442" lon="10.639766669497446" id="-10979">
		<tag k="name" v="Teigen" />
		<tag k="place" v="locality" />
		<tag k="ssr:stedsnr" v="247587" />
	</node>
	<node lat="59.78908888551337" lon="10.599655554626908" id="-10980">
		<tag k="name" v="Dalbo" />
		<tag k="place" v="isolated_dwelling" />
		<tag k="ssr:stedsnr" v="247637" />
	</node>
	<node lat="59.82733086992081" lon="10.679851497376617" id="-10981">
		<tag k="fixme" v="consider place=hamlet" />
		<tag k="name" v="Flateby" />
		<tag k="place" v="farm" />
		<tag k="ssr:stedsnr" v="247708" />
	</node>
	<node lat="59.792561109446034" lon="10.704969443062215" id="-10982">
		<tag k="name" v="Torskeskjær" />
		<tag k="place" v="locality" />
		<tag k="ssr:stedsnr" v="99112" />
	</node>
	<node lat="59.79900000298134" lon="10.690344450175893" id="-10983">
		<tag k="name" v="Rudsborg" />
		<tag k="place" v="farm" />
		<tag k="ssr:stedsnr" v="99115" />
	</node>
	<node lat="59.773152781792575" lon="10.62175000640061" id="-10984">
		<tag k="name" v="Bjønndalen" />
		<tag k="place" v="locality" />
		<tag k="ssr:stedsnr" v="100423" />
	</node>
	<node lat="59.819588887295176" lon="10.6186194415884" id="-10985">
		<tag k="name" v="Kråkestranda" />
		<tag k="natural" v="beach" />
		<tag k="ssr:stedsnr" v="100775" />
	</node>
	<node lat="59.856652781666995" lon="10.649827785315551" id="-10986">
		<tag k="man_made" v="quay" />
		<tag k="name" v="Søndre Flaskebekk brygge" />
		<tag k="place" v="locality" />
		<tag k="ssr:stedsnr" v="102521" />
	</node>
	<node lat="59.866452781085336" lon="10.655580550095685" id="-10987">
		<tag k="name" v="Gråbeinberget" />
		<tag k="place" v="isolated_dwelling" />
		<tag k="ssr:stedsnr" v="102525" />
	</node>
	<node lat="59.84570277574946" lon="10.646483339042268" id="-10988">
		<tag k="name" v="Kavringstranda" />
		<tag k="natural" v="beach" />
		<tag k="ssr:stedsnr" v="117302" />
	</node>
	<node lat="59.860097220660286" lon="10.675925001233201" id="-10989">
		<tag k="alt_name" v="Klingenbergodden" />
		<tag k="name" v="Klinkenbergodden" />
		<tag k="natural" v="cape" />
		<tag k="ssr:stedsnr" v="117409" />
	</node>
	<node lat="59.81964444370482" lon="10.602427785799952" id="-10990">
		<tag k="name" v="Knertegrunnen" />
		<tag k="natural" v="shoal" />
		<tag k="place" v="locality" />
		<tag k="ssr:stedsnr" v="118622" />
	</node>
	<node lat="59.741766664430365" lon="10.624744444135937" id="-10991">
		<tag k="name" v="Ødegaarden" />
		<tag k="place" v="farm" />
		<tag k="ssr:stedsnr" v="124965" />
	</node>
	<node lat="59.841559149168816" lon="10.673748221181587" id="-10992">
		<tag k="fixme" v="consider place=hamlet" />
		<tag k="name" v="Skoklefall" />
		<tag k="place" v="farm" />
		<tag k="ssr:stedsnr" v="126745" />
	</node>
	<node lat="59.78604444387768" lon="10.598766662141081" id="-10993">
		<tag k="name" v="Nordstrand" />
		<tag k="place" v="hamlet" />
		<tag k="ssr:stedsnr" v="126654" />
	</node>
	<node lat="59.77803055740594" lon="10.618886108280577" id="-10994">
		<tag k="fixme" v="consider natural=peak for the most distinct mountains in the district" />
		<tag k="name" v="Støaåsen" />
		<tag k="natural" v="hill" />
		<tag k="place" v="locality" />
		<tag k="ssr:stedsnr" v="126655" />
	</node>
	<node lat="59.87016944345626" lon="10.6549972214458" id="-10995">
		<tag k="man_made" v="quay" />
		<tag k="name" v="Nesoddtangen brygge" />
		<tag k="place" v="locality" />
		<tag k="ssr:stedsnr" v="162459" />
	</node>
	<node lat="59.84088888798278" lon="10.656594446061673" id="-10996">
		<tag k="name" v="Nissehola" />
		<tag k="place" v="locality" />
		<tag k="ssr:stedsnr" v="162501" />
	</node>
	<node lat="59.84216111007541" lon="10.674488885063807" id="-10997">
		<tag k="alt_name" v="Skoklefall østre" />
		<tag k="name" v="Østre Skoklefall" />
		<tag k="place" v="farm" />
		<tag k="ssr:stedsnr" v="162515" />
	</node>
	<node lat="59.78340277903228" lon="10.70879722120622" id="-10998">
		<tag k="name" v="Solvika" />
		<tag k="natural" v="bay" />
		<tag k="ssr:stedsnr" v="179319" />
	</node>
	<node lat="59.877300003724905" lon="10.667333326503137" id="-10999">
		<tag k="alt_name" v="Østre Tangeflua" />
		<tag k="name" v="Tangeflua" />
		<tag k="natural" v="shoal" />
		<tag k="place" v="locality" />
		<tag k="ssr:stedsnr" v="185817" />
	</node>
	<node lat="59.788780554977244" lon="10.610675007114937" id="-11000">
		<tag k="alt_name" v="Beksrud" />
		<tag k="name" v="Bekksrud" />
		<tag k="place" v="farm" />
		<tag k="ssr:stedsnr" v="186690" />
	</node>
	<node lat="59.850733329052495" lon="10.677686105081946" id="-11001">
		<tag k="fixme" v="consider place=hamlet" />
		<tag k="name" v="Ursvik" />
		<tag k="place" v="village" />
		<tag k="ssr:stedsnr" v="186806" />
	</node>
	<node lat="59.7781138862508" lon="10.655030550044234" id="-11003">
		<tag k="name" v="Hokholtmåsan" />
		<tag k="natural" v="wetland" />
		<tag k="ssr:stedsnr" v="266227" />
	</node>
	<node lat="59.743222226128424" lon="10.60681110245827" id="-11006">
		<tag k="name" v="Nygård" />
		<tag k="place" v="farm" />
		<tag k="ssr:stedsnr" v="207132" />
	</node>
	<node lat="59.80889166381145" lon="10.664099994113569" id="-11007">
		<tag k="name" v="Smedsrud" />
		<tag k="place" v="locality" />
		<tag k="ssr:stedsnr" v="221027" />
	</node>
	<node lat="59.79196666820811" lon="10.686886114298165" id="-11008">
		<tag k="name" v="Jaersbråtan" />
		<tag k="place" v="farm" />
		<tag k="ssr:stedsnr" v="221105" />
	</node>
	<node lat="59.802283334256224" lon="10.632397213842744" id="-11009">
		<tag k="name" v="Mastemyr" />
		<tag k="natural" v="wetland" />
		<tag k="ssr:stedsnr" v="221122" />
	</node>
	<node lat="59.82239722511212" lon="10.62615833915676" id="-11010">
		<tag k="name" v="Tømmerbakke" />
		<tag k="place" v="isolated_dwelling" />
		<tag k="ssr:stedsnr" v="221792" />
	</node>
	<node lat="59.811672221414256" lon="10.687008341705106" id="-11011">
		<tag k="name" v="Kontra" />
		<tag k="place" v="farm" />
		<tag k="ssr:stedsnr" v="221809" />
	</node>
	<node lat="59.77540278075764" lon="10.696844453233894" id="-11012">
		<tag k="name" v="Brenningen" />
		<tag k="place" v="locality" />
		<tag k="ssr:stedsnr" v="223426" />
	</node>
	<node lat="59.77555000063072" lon="10.689566670337351" id="-11013">
		<tag k="name" v="Søndre Hasle" />
		<tag k="place" v="farm" />
		<tag k="ssr:stedsnr" v="223430" />
	</node>
	<node lat="59.84196666482152" lon="10.693163891293398" id="-11014">
		<tag k="name" v="Strandheim" />
		<tag k="place" v="isolated_dwelling" />
		<tag k="ssr:stedsnr" v="450387" />
	</node>
	<node lat="59.851944446916676" lon="10.68345833759019" id="-11015">
		<tag k="name" v="Ursvikbukta" />
		<tag k="natural" v="bay" />
		<tag k="ssr:stedsnr" v="450334" />
	</node>
	<node lat="59.83149721544531" lon="10.632666693022953" id="-11016">
		<tag k="name" v="Bonden" />
		<tag k="natural" v="stone" />
		<tag k="ssr:stedsnr" v="450342" />
	</node>
	<node lat="59.863973173693964" lon="10.668899527283411" id="-11017">
		<tag k="name" v="Amalienborg" />
		<tag k="place" v="isolated_dwelling" />
		<tag k="ssr:stedsnr" v="238402" />
	</node>
	<node lat="59.750492521165015" lon="10.60822201324769" id="-11018">
		<tag k="fixme" v="consider place=hamlet" />
		<tag k="name" v="Gjøfjell" />
		<tag k="place" v="farm" />
		<tag k="ssr:stedsnr" v="247571" />
	</node>
	<node lat="59.77053611652073" lon="10.668847942243676" id="-11019">
		<tag k="fixme" v="consider place=hamlet" />
		<tag k="name" v="Hokholt" />
		<tag k="place" v="farm" />
		<tag k="ssr:stedsnr" v="247604" />
	</node>
	<node lat="59.76156944617796" lon="10.625194450841247" id="-11020">
		<tag k="name" v="Ravnsborg" />
		<tag k="place" v="farm" />
		<tag k="ssr:stedsnr" v="247614" />
	</node>
	<node lat="59.81680555752557" lon="10.588399991785145" id="-11021">
		<tag k="name" v="Torskegrunnen" />
		<tag k="natural" v="shoal" />
		<tag k="place" v="locality" />
		<tag k="ssr:stedsnr" v="266443" />
	</node>
	<node lat="59.80962500087926" lon="10.615302770827412" id="-11022">
		<tag k="alt_name" v="Helvedesflauet" />
		<tag k="name" v="Helvetesflauet" />
		<tag k="natural" v="cliff" />
		<tag k="ssr:stedsnr" v="267326" />
	</node>
	<node lat="59.7710361077916" lon="10.624549996138832" id="-11024">
		<tag k="name" v="Barlindleina" />
		<tag k="place" v="locality" />
		<tag k="ssr:stedsnr" v="282416" />
	</node>
	<node lat="59.79083333091507" lon="10.608974997049973" id="-11025">
		<tag k="name" v="Løkkeberg" />
		<tag k="place" v="isolated_dwelling" />
		<tag k="ssr:stedsnr" v="282173" />
	</node>
	<node lat="59.74569166524069" lon="10.610613893928623" id="-11026">
		<tag k="name" v="Kirkeli" />
		<tag k="place" v="farm" />
		<tag k="ssr:stedsnr" v="282313" />
	</node>
	<node lat="59.76200555831763" lon="10.582219450959572" id="-11027">
		<tag k="name" v="Sproodden" />
		<tag k="natural" v="cape" />
		<tag k="ssr:stedsnr" v="282325" />
	</node>
	<node lat="59.762472225439446" lon="10.595627771337188" id="-11028">
		<tag k="name" v="Nydammen" />
		<tag k="natural" v="water" />
		<tag k="ssr:stedsnr" v="282326" />
	</node>
	<node lat="59.7767638847505" lon="10.593069444135443" id="-11029">
		<tag k="name" v="Helleberget" />
		<tag k="place" v="locality" />
		<tag k="ssr:stedsnr" v="282510" />
	</node>
	<node lat="59.78932778040753" lon="10.599833329601562" id="-11030">
		<tag k="man_made" v="quay" />
		<tag k="name" v="Dalbo brygge" />
		<tag k="place" v="locality" />
		<tag k="ssr:stedsnr" v="282483" />
	</node>
	<node lat="59.812532091483824" lon="10.637386088521612" id="-11031">
		<tag k="name" v="Bleksli" />
		<tag k="place" v="locality" />
		<tag k="ssr:stedsnr" v="282809" />
	</node>
	<node lat="59.76959444015225" lon="10.588936117554718" id="-11032">
		<tag k="name" v="Rogneskjær" />
		<tag k="place" v="isolated_dwelling" />
		<tag k="ssr:stedsnr" v="282577" />
	</node>
	<node lat="59.766955559496886" lon="10.655619438544962" id="-11033">
		<tag k="name" v="Fundingrud" />
		<tag k="place" v="farm" />
		<tag k="ssr:stedsnr" v="282579" />
	</node>
	<node lat="59.862130556343416" lon="10.672044444289247" id="-11034">
		<tag k="man_made" v="quay" />
		<tag k="name" v="Oksval brygge" />
		<tag k="place" v="locality" />
		<tag k="ssr:stedsnr" v="284482" />
	</node>
	<node lat="59.860002776498746" lon="10.666330555583906" id="-11035">
		<tag k="name" v="Toppen" />
		<tag k="place" v="quarter" />
		<tag k="ssr:stedsnr" v="284483" />
	</node>
	<node lat="59.8514472226679" lon="10.648980559672468" id="-11036">
		<tag k="man_made" v="quay" />
		<tag k="name" v="Sjøstrand brygge" />
		<tag k="place" v="locality" />
		<tag k="ssr:stedsnr" v="284504" />
	</node>
	<node lat="59.84460555467375" lon="10.69204999316955" id="-11037">
		<tag k="man_made" v="quay" />
		<tag k="name" v="Hellvik brygge" />
		<tag k="place" v="locality" />
		<tag k="ssr:stedsnr" v="284510" />
	</node>
	<node lat="59.84196944166681" lon="10.671158331897049" id="-11038">
		<tag k="alt_name" v="Skoklefall vestre" />
		<tag k="name" v="Vestre Skoklefall" />
		<tag k="place" v="farm" />
		<tag k="ssr:stedsnr" v="284514" />
	</node>
	<node lat="59.80497222512192" lon="10.68545833507561" id="-11039">
		<tag k="name" v="Kirkebøen" />
		<tag k="place" v="isolated_dwelling" />
		<tag k="ssr:stedsnr" v="463083" />
	</node>
	<node lat="59.78478610670222" lon="10.69436389245517" id="-11040">
		<tag k="alt_name" v="Grøstad nordre" />
		<tag k="name" v="Nordre Grøstad" />
		<tag k="place" v="farm" />
		<tag k="ssr:stedsnr" v="463199" />
	</node>
	<node lat="59.84361110732991" lon="10.649913880156006" id="-11041">
		<tag k="fixme" v="consider natural=peak for the most distinct mountains in the district" />
		<tag k="name" v="Ildjernåsen" />
		<tag k="natural" v="hill" />
		<tag k="place" v="locality" />
		<tag k="ssr:stedsnr" v="299295" />
	</node>
	<node lat="59.8419555539688" lon="10.639355554186915" id="-11042">
		<tag k="loc_name" v="Suterbukta" />
		<tag k="name" v="Suterenbukta" />
		<tag k="natural" v="bay" />
		<tag k="ssr:stedsnr" v="299299" />
	</node>
	<node lat="59.8657500000834" lon="10.724216671261514" id="-11043">
		<tag k="name" v="Nordre Kalvesanden" />
		<tag k="natural" v="shoal" />
		<tag k="place" v="locality" />
		<tag k="ssr:stedsnr" v="299407" />
	</node>
	<node lat="59.87107777666414" lon="10.728922219329416" id="-11044">
		<tag k="name" v="Søndre Langøyrabbane" />
		<tag k="natural" v="shoal" />
		<tag k="place" v="locality" />
		<tag k="ssr:stedsnr" v="300478" />
	</node>
	<node lat="59.80630278036132" lon="10.68743333922753" id="-11045">
		<tag k="fixme" v="consider boundary=protected_area and relevant protect_class if not nature reserve" />
		<tag k="leisure" v="nature_reserve" />
		<tag k="name" v="Ekebo/Eikheim naturminne" />
		<tag k="old_name" v="Ekebo/Ekheim naturreservat" />
		<tag k="ssr:stedsnr" v="464051" />
	</node>
	<node lat="59.737825003683156" lon="10.59571667331576" id="-11046">
		<tag k="name" v="Skogheim" />
		<tag k="place" v="locality" />
		<tag k="ssr:stedsnr" v="464341" />
	</node>
	<node lat="59.727861113726384" lon="10.612247219568669" id="-11047">
		<tag k="name" v="Agnor" />
		<tag k="place" v="locality" />
		<tag k="ssr:stedsnr" v="464482" />
	</node>
	<node lat="59.77618888941104" lon="10.59603333419765" id="-11048">
		<tag k="name" v="Hella" />
		<tag k="place" v="farm" />
		<tag k="ssr:stedsnr" v="464532" />
	</node>
	<node lat="59.86865833337234" lon="10.659513885964394" id="-11050">
		<tag k="name" v="Kalveløkka" />
		<tag k="place" v="locality" />
		<tag k="ssr:stedsnr" v="465430" />
	</node>
	<node lat="59.84317777728258" lon="10.639324991991876" id="-11051">
		<tag k="name" v="Sildedrettet" />
		<tag k="natural" v="beach" />
		<tag k="ssr:stedsnr" v="464649" />
	</node>
	<node lat="59.82676111007562" lon="10.655180554206012" id="-11052">
		<tag k="name" v="Treskomyra" />
		<tag k="natural" v="wetland" />
		<tag k="ssr:stedsnr" v="464833" />
	</node>
	<node lat="59.812816572358216" lon="10.63636846778373" id="-11053">
		<tag k="name" v="Holtebakken" />
		<tag k="place" v="locality" />
		<tag k="ssr:stedsnr" v="464843" />
	</node>
	<node lat="59.82403055699329" lon="10.632855556872968" id="-11054">
		<tag k="name" v="Huldrebakken" />
		<tag k="place" v="locality" />
		<tag k="ssr:stedsnr" v="464848" />
	</node>
	<node lat="59.81831110821562" lon="10.663463885181903" id="-11055">
		<tag k="name" v="Moltemyr" />
		<tag k="natural" v="wetland" />
		<tag k="ssr:stedsnr" v="464850" />
	</node>
	<node lat="59.812141665035156" lon="10.673463896029189" id="-11056">
		<tag k="landuse" v="meadow" />
		<tag k="name" v="Linenga" />
		<tag k="ssr:stedsnr" v="464852" />
	</node>
	<node lat="59.79842777480503" lon="10.644413890602502" id="-11057">
		<tag k="fixme" v="consider natural=peak for the most distinct mountains in the district" />
		<tag k="name" v="Gaupefjell" />
		<tag k="natural" v="hill" />
		<tag k="place" v="locality" />
		<tag k="ssr:stedsnr" v="307712" />
	</node>
	<node lat="59.80439444800296" lon="10.608988892952462" id="-11058">
		<tag k="name" v="Ommen" />
		<tag k="old_name" v="Ovnen" />
		<tag k="place" v="isolated_dwelling" />
		<tag k="ssr:stedsnr" v="307718" />
	</node>
	<node lat="59.777466669646934" lon="10.693619448285972" id="-11059">
		<tag k="name" v="Haslehaugen" />
		<tag k="place" v="farm" />
		<tag k="ssr:stedsnr" v="465386" />
	</node>
	<node lat="59.830530557416076" lon="10.662891658756319" id="-11060">
		<tag k="fixme" v="consider natural=peak for the most distinct mountains in the district" />
		<tag k="name" v="Grimsåsen" />
		<tag k="natural" v="hill" />
		<tag k="place" v="locality" />
		<tag k="ssr:stedsnr" v="308738" />
	</node>
	<node lat="59.8079388864104" lon="10.683166658168808" id="-11061">
		<tag k="building" v="commercial" />
		<tag k="name" v="Sandmo" />
		<tag k="ssr:stedsnr" v="342047" />
	</node>
	<node lat="59.79325000003675" lon="10.666636106940624" id="-11062">
		<tag k="name" v="Viborgløkka" />
		<tag k="place" v="locality" />
		<tag k="ssr:stedsnr" v="342113" />
	</node>
	<node lat="59.80879721795485" lon="10.628491667993835" id="-11063">
		<tag k="name" v="Berget" />
		<tag k="place" v="farm" />
		<tag k="ssr:stedsnr" v="342120" />
	</node>
	<node lat="59.74692500433168" lon="10.623450005267944" id="-11064">
		<tag k="name" v="Myrvoll" />
		<tag k="place" v="farm" />
		<tag k="ssr:stedsnr" v="342499" />
	</node>
	<node lat="59.830344447741545" lon="10.669988889070284" id="-11065">
		<tag k="loc_name" v="Vamyra" />
		<tag k="name" v="Vamyrplassen" />
		<tag k="place" v="locality" />
		<tag k="ssr:stedsnr" v="342819" />
	</node>
	<node lat="59.83904999728106" lon="10.68469999161733" id="-11066">
		<tag k="fixme" v="consider natural=peak for the most distinct mountains in the district" />
		<tag k="name" v="Solåsen" />
		<tag k="natural" v="hill" />
		<tag k="place" v="locality" />
		<tag k="ssr:stedsnr" v="344500" />
	</node>
	<node lat="59.84977221950404" lon="10.654966659995239" id="-11067">
		<tag k="name" v="Brubakken" />
		<tag k="place" v="quarter" />
		<tag k="ssr:stedsnr" v="344510" />
	</node>
	<node lat="59.837055555254814" lon="10.728263882034412" id="-11069">
		<tag k="alt_name" v="Storeflu" />
		<tag k="name" v="Storeflua" />
		<tag k="natural" v="shoal" />
		<tag k="old_name" v="Storflu" />
		<tag k="place" v="locality" />
		<tag k="ssr:stedsnr" v="368220" />
	</node>
	<node lat="59.781328981221925" lon="10.69152871008807" id="-11070">
		<tag k="fixme" v="consider place=hamlet" />
		<tag k="name" v="Krange" />
		<tag k="place" v="farm" />
		<tag k="ssr:stedsnr" v="368716" />
	</node>
	<node lat="59.771025000704704" lon="10.59669722584291" id="-11071">
		<tag k="name" v="Sevholdammen" />
		<tag k="natural" v="water" />
		<tag k="ssr:stedsnr" v="369573" />
	</node>
	<node lat="59.76126111320978" lon="10.58271666860869" id="-11072">
		<tag k="name" v="Sørbukta" />
		<tag k="natural" v="bay" />
		<tag k="ssr:stedsnr" v="481055" />
	</node>
	<node lat="59.84451944316895" lon="10.639783329813813" id="-11073">
		<tag k="name" v="Nordbukta" />
		<tag k="natural" v="bay" />
		<tag k="ssr:stedsnr" v="481290" />
	</node>
	<node lat="59.817338890040105" lon="10.611019439362336" id="-11074">
		<tag k="alt_name" v="Rekeskjær" />
		<tag k="fixme" v="consider seamark:type=rock or natural=shoal" />
		<tag k="name" v="Rekeskjæret" />
		<tag k="place" v="islet" />
		<tag k="ssr:stedsnr" v="482633" />
	</node>
	<node lat="59.817699996264764" lon="10.618830551961974" id="-11075">
		<tag k="name" v="Kula" />
		<tag k="place" v="locality" />
		<tag k="ssr:stedsnr" v="482638" />
	</node>
	<node lat="59.81539444638193" lon="10.616508333319754" id="-11076">
		<tag k="alt_name" v="Viern" />
		<tag k="fixme" v="consider seamark:type=rock or natural=shoal" />
		<tag k="name" v="Vierskjæret" />
		<tag k="place" v="islet" />
		<tag k="ssr:stedsnr" v="482641" />
	</node>
	<node lat="59.85700833183971" lon="10.722569447283815" id="-11077">
		<tag k="alt_name" v="Nordre Skjælholme" />
		<tag k="name" v="Nordre Skjælholmen" />
		<tag k="place" v="islet" />
		<tag k="ssr:stedsnr" v="388506" />
	</node>
	<node lat="59.797608331532984" lon="10.669277780390841" id="-11078">
		<tag k="name" v="Grøndalen" />
		<tag k="natural" v="valley" />
		<tag k="place" v="locality" />
		<tag k="ssr:stedsnr" v="403120" />
	</node>
	<node lat="59.801002778666" lon="10.613138895523422" id="-11079">
		<tag k="name" v="Sofienlund" />
		<tag k="place" v="farm" />
		<tag k="ssr:stedsnr" v="403123" />
	</node>
	<node lat="59.79593888563083" lon="10.631124991106486" id="-11080">
		<tag k="name" v="Solhaug" />
		<tag k="place" v="farm" />
		<tag k="ssr:stedsnr" v="403154" />
	</node>
	<node lat="59.784558329857454" lon="10.679224992273191" id="-11081">
		<tag k="name" v="Blankemyr" />
		<tag k="natural" v="wetland" />
		<tag k="ssr:stedsnr" v="403170" />
	</node>
	<node lat="59.76175555254075" lon="10.649150001340075" id="-11082">
		<tag k="name" v="Tomta" />
		<tag k="place" v="locality" />
		<tag k="ssr:stedsnr" v="403576" />
	</node>
	<node lat="59.816538885877456" lon="10.633702775278337" id="-11083">
		<tag k="fixme" v="consider natural=peak for the most distinct mountains in the district" />
		<tag k="name" v="Stegaberget" />
		<tag k="natural" v="hill" />
		<tag k="place" v="locality" />
		<tag k="ssr:stedsnr" v="403796" />
	</node>
	<node lat="59.82160832908913" lon="10.633413891637952" id="-11084">
		<tag k="amenity" v="school" />
		<tag k="name" v="Alværn ungdomsskole" />
		<tag k="ssr:stedsnr" v="403824" />
	</node>
	<node lat="59.86378333431681" lon="10.719472229654631" id="-11085">
		<tag k="name" v="Husbergkalven" />
		<tag k="place" v="islet" />
		<tag k="ssr:stedsnr" v="405498" />
	</node>
	<node lat="59.74463333364277" lon="10.722119444469184" id="-11086">
		<tag k="bay" v="fjord" />
		<tag k="name" v="Bunnefjorden" />
		<tag k="natural" v="bay" />
		<tag k="ssr:stedsnr" v="488471" />
	</node>
	<node lat="59.85233889119809" lon="10.658127771386186" id="-11087">
		<tag k="name" v="Skogen" />
		<tag k="place" v="quarter" />
		<tag k="ssr:stedsnr" v="489787" />
	</node>
	<node lat="59.80808888551931" lon="10.653613880647999" id="-11088">
		<tag k="alt_name" v="Baltserud" />
		<tag k="name" v="Baltsrud" />
		<tag k="place" v="farm" />
		<tag k="ssr:stedsnr" v="490691" />
	</node>
	<node lat="59.805066664247434" lon="10.66608611023326" id="-11089">
		<tag k="name" v="Nylenda" />
		<tag k="place" v="farm" />
		<tag k="ssr:stedsnr" v="490692" />
	</node>
	<node lat="59.7589833358356" lon="10.606233329846916" id="-11090">
		<tag k="name" v="Toppen" />
		<tag k="place" v="farm" />
		<tag k="ssr:stedsnr" v="490651" />
	</node>
	<node lat="59.79117463522887" lon="10.705442404912908" id="-11091">
		<tag k="fixme" v="consider place=suburb, village or hamlet" />
		<tag k="name" v="Bomansvik" />
		<tag k="place" v="quarter" />
		<tag k="ssr:stedsnr" v="490671" />
	</node>
	<node lat="59.835194446293926" lon="10.640663892275265" id="-11092">
		<tag k="alt_name" v="Sunnås" />
		<tag k="amenity" v="hospital" />
		<tag k="name" v="Sunnås sykehus" />
		<tag k="ssr:stedsnr" v="490766" />
	</node>
	<node lat="59.782316665063355" lon="10.66649722392426" id="-11093">
		<tag k="fixme" v="consider natural=peak for the most distinct mountains in the district" />
		<tag k="name" v="Sefjell" />
		<tag k="natural" v="hill" />
		<tag k="place" v="locality" />
		<tag k="ssr:stedsnr" v="429657" />
	</node>
	<node lat="59.78513929686362" lon="10.6932174932617" id="-11094">
		<tag k="fixme" v="consider place=hamlet" />
		<tag k="name" v="Grøstad" />
		<tag k="place" v="farm" />
		<tag k="ssr:stedsnr" v="429660" />
	</node>
	<node lat="59.865675001086366" lon="10.683311106070713" id="-11095">
		<tag k="alt_name" v="Ytre Oksvalflua" />
		<tag k="name" v="Østre Oksvalflua" />
		<tag k="natural" v="shoal" />
		<tag k="place" v="locality" />
		<tag k="ssr:stedsnr" v="429808" />
	</node>
	<node lat="59.85701389087913" lon="10.660802783013963" id="-11096">
		<tag k="fixme" v="consider natural=peak for the most distinct mountains in the district" />
		<tag k="name" v="Tangenåsen" />
		<tag k="natural" v="hill" />
		<tag k="place" v="locality" />
		<tag k="ssr:stedsnr" v="429801" />
	</node>
	<node lat="59.816161382814585" lon="10.70013421322155" id="-11097">
		<tag k="name" v="Torvvik" />
		<tag k="place" v="farm" />
		<tag k="ssr:stedsnr" v="430724" />
	</node>
	<node lat="59.817919447376745" lon="10.642966659829824" id="-11098">
		<tag k="alt_name" v="Totjernet" />
		<tag k="name" v="Totjern" />
		<tag k="natural" v="water" />
		<tag k="ssr:stedsnr" v="430727" />
	</node>
	<node lat="59.746663892638345" lon="10.610394438155412" id="-11099">
		<tag k="alt_name" v="Gjøfjell" />
		<tag k="amenity" v="place_of_worship" />
		<tag k="denomination" v="lutheran" />
		<tag k="name" v="Gjøfjell kirke" />
		<tag k="religion" v="christian" />
		<tag k="ssr:stedsnr" v="670941" />
	</node>
	<node lat="59.746680551113464" lon="10.588019444403804" id="-11100">
		<tag k="name" v="Gaupemyrdammen" />
		<tag k="natural" v="water" />
		<tag k="ssr:stedsnr" v="670958" />
	</node>
	<node lat="59.800388888709996" lon="10.657555556679306" id="-11101">
		<tag k="name" v="Myra" />
		<tag k="place" v="farm" />
		<tag k="ssr:stedsnr" v="672684" />
	</node>
	<node lat="59.75287221914035" lon="10.621816670587513" id="-11102">
		<tag k="alt_name" v="Damengen" />
		<tag k="name" v="Damenga" />
		<tag k="place" v="farm" />
		<tag k="ssr:stedsnr" v="672584" />
	</node>
	<node lat="59.764795424130874" lon="10.63744320658744" id="-11103">
		<tag k="fixme" v="consider place=hamlet" />
		<tag k="name" v="Svestad" />
		<tag k="place" v="farm" />
		<tag k="ssr:stedsnr" v="672616" />
	</node>
	<node lat="59.75773333591513" lon="10.584063897276891" id="-11104">
		<tag k="name" v="Søndre Spro" />
		<tag k="place" v="village" />
		<tag k="ssr:stedsnr" v="672628" />
	</node>
	<node lat="59.758524997035" lon="10.607794437000631" id="-11105">
		<tag k="fixme" v="consider natural=peak for the most distinct mountains in the district" />
		<tag k="name" v="Toppåsen" />
		<tag k="natural" v="hill" />
		<tag k="place" v="locality" />
		<tag k="ssr:stedsnr" v="672629" />
	</node>
	<node lat="59.79411944845503" lon="10.689524994341346" id="-11106">
		<tag k="name" v="Jaer" />
		<tag k="place" v="farm" />
		<tag k="ssr:stedsnr" v="672642" />
	</node>
	<node lat="59.785532357215054" lon="10.681814850411788" id="-11107">
		<tag k="alt_name" v="Kongebråten" />
		<tag k="name" v="Kongebråtan" />
		<tag k="place" v="locality" />
		<tag k="ssr:stedsnr" v="672655" />
	</node>
	<node lat="59.803599998624826" lon="10.613705552836079" id="-11108">
		<tag k="alt_name" v="Ommsåsen" />
		<tag k="fixme" v="consider natural=peak for the most distinct mountains in the district" />
		<tag k="name" v="Omsåsen" />
		<tag k="natural" v="hill" />
		<tag k="place" v="locality" />
		<tag k="ssr:stedsnr" v="672689" />
	</node>
	<node lat="59.832849383882696" lon="10.675632012077818" id="-11109">
		<tag k="fixme" v="consider place=hamlet" />
		<tag k="name" v="Berger" />
		<tag k="place" v="farm" />
		<tag k="ssr:stedsnr" v="672747" />
	</node>
	<node lat="59.798347218870276" lon="10.618750000839317" id="-11110">
		<tag k="name" v="Persilengen" />
		<tag k="place" v="locality" />
		<tag k="ssr:stedsnr" v="463159" />
	</node>
	<node lat="59.869994442671796" lon="10.657941666307183" id="-11111">
		<tag k="fixme" v="consider tourism=alpine_hut or tourism=chalet" />
		<tag k="name" v="Rødstua" />
		<tag k="ssr:stedsnr" v="463320" />
		<tag k="tourism" v="wilderness_hut" />
	</node>
	<node lat="59.77802499805739" lon="10.605383334108353" id="-11112">
		<tag k="amenity" v="community_centre" />
		<tag k="name" v="Sandvang" />
		<tag k="ssr:stedsnr" v="464259" />
	</node>
	<node lat="59.788938884488346" lon="10.599369443545205" id="-11113">
		<tag k="name" v="Krøkleodden" />
		<tag k="natural" v="cape" />
		<tag k="ssr:stedsnr" v="464510" />
	</node>
	<node lat="59.758552775464686" lon="10.628766663442178" id="-11114">
		<tag k="fixme" v="consider natural=peak for the most distinct mountains in the district" />
		<tag k="name" v="Nylandsås" />
		<tag k="natural" v="hill" />
		<tag k="place" v="locality" />
		<tag k="ssr:stedsnr" v="464609" />
	</node>
	<node lat="59.81979444465309" lon="10.683977784746906" id="-11115">
		<tag k="name" v="Solberghagen" />
		<tag k="place" v="isolated_dwelling" />
		<tag k="ssr:stedsnr" v="464864" />
	</node>
	<node lat="59.862022217905704" lon="10.656397217033405" id="-11116">
		<tag k="name" v="Kleiva" />
		<tag k="place" v="locality" />
		<tag k="ssr:stedsnr" v="465429" />
	</node>
	<node lat="59.840930552986215" lon="10.649672216865863" id="-11117">
		<tag k="fixme" v="consider natural=peak for the most distinct mountains in the district" />
		<tag k="name" v="Stangåsen" />
		<tag k="natural" v="hill" />
		<tag k="place" v="locality" />
		<tag k="ssr:stedsnr" v="465457" />
	</node>
	<node lat="59.85890681895334" lon="10.671295126595487" id="-11118">
		<tag k="name" v="Helgolf" />
		<tag k="place" v="isolated_dwelling" />
		<tag k="ssr:stedsnr" v="481403" />
	</node>
	<node lat="59.87074444544009" lon="10.657044446839823" id="-11119">
		<tag k="name" v="Signalen" />
		<tag k="place" v="locality" />
		<tag k="ssr:stedsnr" v="482470" />
	</node>
	<node lat="59.79705833770103" lon="10.676036112092335" id="-11120">
		<tag k="fixme" v="consider natural=peak for the most distinct mountains in the district" />
		<tag k="name" v="Vardeåsen" />
		<tag k="natural" v="hill" />
		<tag k="place" v="locality" />
		<tag k="ssr:stedsnr" v="489741" />
	</node>
	<node lat="59.85548611483232" lon="10.630713892938983" id="-11121">
		<tag k="name" v="Ildjernsflua" />
		<tag k="natural" v="shoal" />
		<tag k="place" v="locality" />
		<tag k="ssr:stedsnr" v="489784" />
	</node>
	<node lat="59.76886388549831" lon="10.621200000876687" id="-11122">
		<tag k="fixme" v="consider natural=peak for the most distinct mountains in the district" />
		<tag k="name" v="Svestadåsen" />
		<tag k="natural" v="hill" />
		<tag k="place" v="locality" />
		<tag k="ssr:stedsnr" v="490615" />
	</node>
	<node lat="59.826158335089914" lon="10.644338880878752" id="-11123">
		<tag k="name" v="Tomåsan" />
		<tag k="natural" v="wetland" />
		<tag k="ssr:stedsnr" v="490727" />
	</node>
	<node lat="59.82459721914177" lon="10.626141672986561" id="-11124">
		<tag k="name" v="Kjerringræva" />
		<tag k="natural" v="cape" />
		<tag k="ssr:stedsnr" v="510323" />
	</node>
	<node lat="59.799194444313045" lon="10.612569444822745" id="-11125">
		<tag k="name" v="Skansen" />
		<tag k="place" v="farm" />
		<tag k="ssr:stedsnr" v="524126" />
	</node>
	<node lat="59.74545000063967" lon="10.597986108215459" id="-11126">
		<tag k="name" v="Bommen" />
		<tag k="place" v="farm" />
		<tag k="ssr:stedsnr" v="524306" />
	</node>
	<node lat="59.748480554327344" lon="10.62037500196696" id="-11127">
		<tag k="name" v="Myrene" />
		<tag k="place" v="farm" />
		<tag k="ssr:stedsnr" v="524502" />
	</node>
	<node lat="59.75620278213751" lon="10.608788894411544" id="-11128">
		<tag k="alt_name" v="Langfjell vestre" />
		<tag k="name" v="Vestre Langfjell" />
		<tag k="place" v="farm" />
		<tag k="ssr:stedsnr" v="524558" />
	</node>
	<node lat="59.75091944317427" lon="10.633824997614722" id="-11129">
		<tag k="name" v="Nylenna" />
		<tag k="place" v="locality" />
		<tag k="ssr:stedsnr" v="524566" />
	</node>
	<node lat="59.81553055746033" lon="10.626680554336978" id="-11130">
		<tag k="name" v="Sørli" />
		<tag k="place" v="farm" />
		<tag k="ssr:stedsnr" v="525763" />
	</node>
	<node lat="59.77401944764298" lon="10.642505556625975" id="-11131">
		<tag k="name" v="Lusetjern" />
		<tag k="natural" v="wetland" />
		<tag k="ssr:stedsnr" v="526418" />
	</node>
	<node lat="59.848122218864724" lon="10.682552776487992" id="-11132">
		<tag k="name" v="Fjellheim" />
		<tag k="place" v="isolated_dwelling" />
		<tag k="ssr:stedsnr" v="542390" />
	</node>
	<node lat="59.83904166357269" lon="10.634019436574496" id="-11133">
		<tag k="name" v="Bæroddgrunnen" />
		<tag k="natural" v="shoal" />
		<tag k="place" v="locality" />
		<tag k="ssr:stedsnr" v="692297" />
	</node>
	<node lat="59.83171111363288" lon="10.724991658648111" id="-11134">
		<tag k="name" v="Tosoberget" />
		<tag k="natural" v="shoal" />
		<tag k="place" v="locality" />
		<tag k="ssr:stedsnr" v="692356" />
	</node>
	<node lat="59.81678889213231" lon="10.61341945009923" id="-11135">
		<tag k="alt_name" v="Landsteilene" />
		<tag k="name" v="Landsteila" />
		<tag k="place" v="islet" />
		<tag k="ssr:stedsnr" v="570319" />
	</node>
	<node lat="59.74692222280011" lon="10.594994442635006" id="-11137">
		<tag k="name" v="Haukemyr" />
		<tag k="place" v="farm" />
		<tag k="ssr:stedsnr" v="571142" />
	</node>
	<node lat="59.83838258914195" lon="10.678524603492612" id="-11138">
		<tag k="leisure" v="pitch" />
		<tag k="name" v="Berger idrettspark østre" />
		<tag k="ssr:stedsnr" v="693843" />
	</node>
	<node lat="59.80316110832915" lon="10.676863890978748" id="-11139">
		<tag k="name" v="Bjerkerud" />
		<tag k="place" v="farm" />
		<tag k="ssr:stedsnr" v="584111" />
	</node>
	<node lat="59.806369441805955" lon="10.683033335241136" id="-11140">
		<tag k="alt_name" v="Løes østre;Østre Løes" />
		<tag k="name" v="Østre Løs" />
		<tag k="place" v="farm" />
		<tag k="ssr:stedsnr" v="584113" />
	</node>
	<node lat="59.80723679918757" lon="10.680009789915704" id="-11141">
		<tag k="alt_name" v="Løes nordre;Nordre Løes" />
		<tag k="name" v="Nordre Løs" />
		<tag k="place" v="farm" />
		<tag k="ssr:stedsnr" v="584114" />
	</node>
	<node lat="59.79441389036382" lon="10.66749722226478" id="-11142">
		<tag k="name" v="Grøstadmåsan" />
		<tag k="natural" v="wetland" />
		<tag k="ssr:stedsnr" v="584118" />
	</node>
	<node lat="59.741786109204575" lon="10.597205547165442" id="-11143">
		<tag k="name" v="Bergheim" />
		<tag k="place" v="quarter" />
		<tag k="ssr:stedsnr" v="585313" />
	</node>
	<node lat="59.749322222655486" lon="10.608119442554035" id="-11144">
		<tag k="alt_name" v="Gjøfjell søndre" />
		<tag k="name" v="Søndre Gjøfjell" />
		<tag k="place" v="farm" />
		<tag k="ssr:stedsnr" v="585529" />
	</node>
	<node lat="59.81289444887374" lon="10.670041669006418" id="-11145">
		<tag k="name" v="Bjørnestein" />
		<tag k="natural" v="stone" />
		<tag k="ssr:stedsnr" v="585812" />
	</node>
	<node lat="59.82910555283618" lon="10.672030555052366" id="-11146">
		<tag k="name" v="Nordre Sandaker" />
		<tag k="place" v="locality" />
		<tag k="ssr:stedsnr" v="585850" />
	</node>
	<node lat="59.82407778121866" lon="10.626916659641507" id="-11147">
		<tag k="name" v="Sagbakksletta" />
		<tag k="place" v="locality" />
		<tag k="ssr:stedsnr" v="585801" />
	</node>
	<node lat="59.75617777639465" lon="10.593941668765641" id="-11148">
		<tag k="name" v="Sandheim" />
		<tag k="place" v="farm" />
		<tag k="ssr:stedsnr" v="585942" />
	</node>
	<node lat="59.73871110844024" lon="10.600350006752095" id="-11149">
		<tag k="name" v="Sandberg" />
		<tag k="place" v="quarter" />
		<tag k="ssr:stedsnr" v="585946" />
	</node>
	<node lat="59.78325278164321" lon="10.703816671310623" id="-11150">
		<tag k="name" v="Krystalldammen" />
		<tag k="natural" v="water" />
		<tag k="ssr:stedsnr" v="586406" />
	</node>
	<node lat="59.79831666305907" lon="10.703072220265247" id="-11151">
		<tag k="name" v="Kroken" />
		<tag k="place" v="isolated_dwelling" />
		<tag k="ssr:stedsnr" v="603300" />
	</node>
	<node lat="59.873394105630396" lon="10.719443832020652" id="-11152">
		<tag k="name" v="Nordre Langøya" />
		<tag k="place" v="island" />
		<tag k="ssr:stedsnr" v="610831" />
	</node>
	<node lat="59.795400001856386" lon="10.652074997415808" id="-11153">
		<tag k="name" v="Svennemåsan" />
		<tag k="natural" v="wetland" />
		<tag k="ssr:stedsnr" v="611710" />
	</node>
	<node lat="59.79767630866547" lon="10.696663762063494" id="-11154">
		<tag k="fixme" v="consider place=hamlet" />
		<tag k="name" v="Rud" />
		<tag k="place" v="farm" />
		<tag k="ssr:stedsnr" v="611721" />
	</node>
	<node lat="59.83575000255002" lon="10.64930277882467" id="-11155">
		<tag k="name" v="Tyristua" />
		<tag k="place" v="isolated_dwelling" />
		<tag k="ssr:stedsnr" v="611770" />
	</node>
	<node lat="59.832883333269706" lon="10.644619451915851" id="-11156">
		<tag k="name" v="Bjørnemyrdalen" />
		<tag k="place" v="hamlet" />
		<tag k="ssr:stedsnr" v="611771" />
	</node>
	<node lat="59.86049722100316" lon="10.68749999139018" id="-11157">
		<tag k="name" v="Bomannsflua" />
		<tag k="natural" v="shoal" />
		<tag k="place" v="locality" />
		<tag k="ssr:stedsnr" v="631290" />
	</node>
	<node lat="59.87019444101937" lon="10.670163880030248" id="-11158">
		<tag k="name" v="Nesskjærgrunnen" />
		<tag k="natural" v="shoal" />
		<tag k="place" v="locality" />
		<tag k="ssr:stedsnr" v="631294" />
	</node>
	<node lat="59.811675000239205" lon="10.615775008133612" id="-11159">
		<tag k="alt_name" v="Mikkelstrand" />
		<tag k="name" v="Mikkelstranda" />
		<tag k="natural" v="beach" />
		<tag k="ssr:stedsnr" v="631342" />
	</node>
	<node lat="59.806263884646604" lon="10.672258326540064" id="-11160">
		<tag k="name" v="Nordhagen" />
		<tag k="place" v="farm" />
		<tag k="ssr:stedsnr" v="706095" />
	</node>
	<node lat="59.79093333059051" lon="10.689702769407884" id="-11161">
		<tag k="amenity" v="school" />
		<tag k="name" v="Jaer skole" />
		<tag k="ssr:stedsnr" v="706100" />
	</node>
	<node lat="59.792119442644704" lon="10.637086116185628" id="-11162">
		<tag k="name" v="Finstad" />
		<tag k="place" v="farm" />
		<tag k="ssr:stedsnr" v="706135" />
	</node>
	<node lat="59.802905555407996" lon="10.608130563482149" id="-11163">
		<tag k="alt_name" v="Ommen søndre" />
		<tag k="fixme" v="consider tourism=alpine_hut or tourism=chalet" />
		<tag k="name" v="Søndre Ommen" />
		<tag k="ssr:stedsnr" v="645118" />
		<tag k="tourism" v="wilderness_hut" />
	</node>
	<node lat="59.772938891629984" lon="10.649861115542913" id="-11164">
		<tag k="fixme" v="consider natural=peak for the most distinct mountains in the district" />
		<tag k="name" v="Fundingrudås" />
		<tag k="natural" v="hill" />
		<tag k="place" v="locality" />
		<tag k="ssr:stedsnr" v="645190" />
	</node>
	<node lat="59.780908337001016" lon="10.676566664091474" id="-11165">
		<tag k="name" v="Størmyren" />
		<tag k="place" v="farm" />
		<tag k="ssr:stedsnr" v="645193" />
	</node>
	<node lat="59.732699998516146" lon="10.59388889737796" id="-11166">
		<tag k="name" v="Vasaga" />
		<tag k="place" v="locality" />
		<tag k="ssr:stedsnr" v="645372" />
	</node>
	<node lat="59.82378055356571" lon="10.65003888068725" id="-11167">
		<tag k="name" v="Gullmoenhølet" />
		<tag k="place" v="locality" />
		<tag k="ssr:stedsnr" v="645815" />
	</node>
	<node lat="59.81859444475079" lon="10.617786103731646" id="-11169">
		<tag k="loc_name" v="Alværn brygge" />
		<tag k="man_made" v="quay" />
		<tag k="name" v="Alvern brygge" />
		<tag k="place" v="locality" />
		<tag k="ssr:stedsnr" v="645797" />
	</node>
	<node lat="59.78440000317254" lon="10.599705561395258" id="-11170">
		<tag k="fixme" v="consider boundary=protected_area and relevant protect_class if not nature reserve" />
		<tag k="leisure" v="nature_reserve" />
		<tag k="name" v="Kvistemyrdammen naturreservat" />
		<tag k="ssr:stedsnr" v="647429" />
	</node>
	<node lat="59.76905555339767" lon="10.65301667102946" id="-11171">
		<tag k="name" v="Fundingrud" />
		<tag k="place" v="farm" />
		<tag k="ssr:stedsnr" v="647431" />
	</node>
	<node lat="59.779566663333185" lon="10.623111108098477" id="-11172">
		<tag k="name" v="Høyåstjern" />
		<tag k="natural" v="water" />
		<tag k="ssr:stedsnr" v="647437" />
	</node>
	<node lat="59.84016110846697" lon="10.656558338205425" id="-11173">
		<tag k="name" v="Kvennhusdalen" />
		<tag k="natural" v="valley" />
		<tag k="place" v="locality" />
		<tag k="ssr:stedsnr" v="647486" />
	</node>
	<node lat="59.84451944126601" lon="10.674161103223124" id="-11174">
		<tag k="amenity" v="school" />
		<tag k="name" v="Steinerskolen" />
		<tag k="ssr:stedsnr" v="647494" />
	</node>
	<node lat="59.80929444749631" lon="10.676974995473662" id="-11175">
		<tag k="fixme" v="consider natural=peak for the most distinct mountains in the district" />
		<tag k="name" v="Olaås" />
		<tag k="natural" v="hill" />
		<tag k="place" v="locality" />
		<tag k="ssr:stedsnr" v="707030" />
	</node>
	<node lat="59.80108611368547" lon="10.684586108060593" id="-11176">
		<tag k="name" v="Enebøl" />
		<tag k="place" v="locality" />
		<tag k="ssr:stedsnr" v="707048" />
	</node>
	<node lat="59.83619444533391" lon="10.656327784980373" id="-11177">
		<tag k="bridge" v="yes" />
		<tag k="layer" v="1" />
		<tag k="name" v="Steinbruene" />
		<tag k="ssr:stedsnr" v="707653" />
	</node>
	<node lat="59.83508332908365" lon="10.676966659050814" id="-11178">
		<tag k="bridge" v="yes" />
		<tag k="layer" v="1" />
		<tag k="name" v="Berger stadion" />
		<tag k="ssr:stedsnr" v="652108" />
	</node>
	<node lat="59.751794447339236" lon="10.636391658784364" id="-11179">
		<tag k="bridge" v="yes" />
		<tag k="layer" v="1" />
		<tag k="name" v="Kløfta" />
		<tag k="ssr:stedsnr" v="652111" />
	</node>
	<node lat="59.82403055699329" lon="10.632855556872968" id="-11180">
		<tag k="name" v="Brenningmyr" />
		<tag k="natural" v="wetland" />
		<tag k="ssr:stedsnr" v="707834" />
	</node>
	<node lat="59.770091665992744" lon="10.66979166349066" id="-11181">
		<tag k="alt_name" v="Hokholt østre" />
		<tag k="name" v="Østre Hokholt" />
		<tag k="place" v="farm" />
		<tag k="ssr:stedsnr" v="708401" />
	</node>
	<node lat="59.77514999549008" lon="10.700447226474958" id="-11182">
		<tag k="name" v="Vestby" />
		<tag k="place" v="farm" />
		<tag k="ssr:stedsnr" v="708406" />
	</node>
	<node lat="59.85266627683342" lon="10.727047723227265" id="-11183">
		<tag k="fixme" v="consider boundary=protected_area and relevant protect_class if not nature reserve" />
		<tag k="leisure" v="nature_reserve" />
		<tag k="name" v="Søndre Skjælholmen naturreservat" />
		<tag k="ssr:stedsnr" v="708486" />
	</node>
	<node lat="59.839755554378485" lon="10.677811110399537" id="-11184">
		<tag k="amenity" v="school" />
		<tag k="name" v="Nesodden videregående skole" />
		<tag k="ssr:stedsnr" v="708492" />
	</node>
	<node lat="59.7755944404697" lon="10.604269438809425" id="-11185">
		<tag k="name" v="Trygvang" />
		<tag k="place" v="farm" />
		<tag k="ssr:stedsnr" v="890430" />
	</node>
	<node lat="59.77451666725403" lon="10.610897223429392" id="-11186">
		<tag k="name" v="Ankerløkka" />
		<tag k="place" v="locality" />
		<tag k="ssr:stedsnr" v="890433" />
	</node>
	<node lat="59.86268333488861" lon="10.716380561261467" id="-11187">
		<tag k="fixme" v="consider boundary=protected_area and relevant protect_class if not nature reserve" />
		<tag k="leisure" v="nature_reserve" />
		<tag k="name" v="Husbergøya naturreservat" />
		<tag k="ssr:stedsnr" v="891497" />
	</node>
	<node lat="59.849125003238825" lon="10.653541659229472" id="-11189">
		<tag k="name" v="Gjøkåsen" />
		<tag k="natural" v="hill" />
		<tag k="place" v="locality" />
		<tag k="ssr:stedsnr" v="891515" />
	</node>
	<node lat="59.75779166685599" lon="10.591311115136746" id="-11190">
		<tag k="alt_name" v="Storrudbråten" />
		<tag k="name" v="Storerudbråten" />
		<tag k="place" v="farm" />
		<tag k="ssr:stedsnr" v="693184" />
	</node>
	<node lat="59.77443610857058" lon="10.593280547782914" id="-11191">
		<tag k="name" v="Svestadstøen" />
		<tag k="place" v="isolated_dwelling" />
		<tag k="ssr:stedsnr" v="706482" />
	</node>
	<node lat="59.837894440461035" lon="10.658908326197439" id="-11192">
		<tag k="fixme" v="consider natural=peak for the most distinct mountains in the district" />
		<tag k="name" v="Mateaåsen" />
		<tag k="natural" v="hill" />
		<tag k="place" v="locality" />
		<tag k="ssr:stedsnr" v="707651" />
	</node>
	<node lat="59.82832777718797" lon="10.696325006553565" id="-11193">
		<tag k="name" v="Saltboden" />
		<tag k="place" v="locality" />
		<tag k="ssr:stedsnr" v="707861" />
	</node>
	<node lat="59.83836111517053" lon="10.646797226204676" id="-11194">
		<tag k="name" v="Håkonkastsletta" />
		<tag k="place" v="locality" />
		<tag k="ssr:stedsnr" v="707868" />
	</node>
	<node lat="59.83409722205158" lon="10.657399994789232" id="-11195">
		<tag k="fixme" v="consider natural=peak for the most distinct mountains in the district" />
		<tag k="name" v="Bjørnåsen" />
		<tag k="natural" v="hill" />
		<tag k="place" v="locality" />
		<tag k="ssr:stedsnr" v="707869" />
	</node>
	<node lat="59.770361108716386" lon="10.691519443798402" id="-11196">
		<tag k="bridge" v="yes" />
		<tag k="layer" v="1" />
		<tag k="name" v="Sagstu" />
		<tag k="ssr:stedsnr" v="713132" />
	</node>
	<node lat="59.79235555439767" lon="10.590980558347585" id="-11197">
		<tag k="name" v="Nordre Krøklegrunnen" />
		<tag k="natural" v="shoal" />
		<tag k="place" v="locality" />
		<tag k="ssr:stedsnr" v="724069" />
	</node>
	<node lat="59.7305005856225" lon="10.617162271792125" id="-11198">
		<tag k="fixme" v="consider place=hamlet" />
		<tag k="name" v="Agnor" />
		<tag k="place" v="farm" />
		<tag k="ssr:stedsnr" v="731776" />
	</node>
	<node lat="59.81106860311771" lon="10.700690634002973" id="-11199">
		<tag k="name" v="Kirkevika" />
		<tag k="natural" v="bay" />
		<tag k="ssr:stedsnr" v="732703" />
	</node>
	<node lat="59.86942128096477" lon="10.658488259547019" id="-11200">
		<tag k="fixme" v="consider place=hamlet" />
		<tag k="name" v="Nesoddtangen" />
		<tag k="place" v="farm" />
		<tag k="ssr:stedsnr" v="732798" />
	</node>
	<node lat="59.83060000021886" lon="10.598725004302059" id="-11201">
		<tag k="name" v="Merseflua" />
		<tag k="natural" v="shoal" />
		<tag k="place" v="locality" />
		<tag k="ssr:stedsnr" v="733690" />
	</node>
	<node lat="59.76386389217519" lon="10.583713887707717" id="-11203">
		<tag k="name" v="Nordrebukta" />
		<tag k="natural" v="bay" />
		<tag k="ssr:stedsnr" v="906045" />
	</node>
	<node lat="59.84957222192994" lon="10.632141658855259" id="-11204">
		<tag k="name" v="Nordvesten" />
		<tag k="natural" v="shoal" />
		<tag k="place" v="locality" />
		<tag k="ssr:stedsnr" v="906288" />
	</node>
	<node lat="59.86983800560039" lon="10.653174321419499" id="-11205">
		<tag k="name" v="Hesteløkkagrunnen" />
		<tag k="natural" v="shoal" />
		<tag k="place" v="locality" />
		<tag k="ssr:stedsnr" v="906290" />
	</node>
	<node lat="59.802816669903514" lon="10.665027775222102" id="-11206">
		<tag k="name" v="Bjerklund" />
		<tag k="place" v="farm" />
		<tag k="ssr:stedsnr" v="767107" />
	</node>
	<node lat="59.79811852200009" lon="10.611775098839972" id="-11207">
		<tag k="name" v="Glanern" />
		<tag k="place" v="isolated_dwelling" />
		<tag k="ssr:stedsnr" v="767145" />
	</node>
	<node lat="59.77572993440759" lon="10.67892756212731" id="-11208">
		<tag k="fixme" v="consider place=hamlet" />
		<tag k="name" v="Kuås" />
		<tag k="place" v="farm" />
		<tag k="ssr:stedsnr" v="767188" />
	</node>
	<node lat="59.78492777553093" lon="10.599747218503115" id="-11209">
		<tag k="name" v="Kvistemyr" />
		<tag k="place" v="isolated_dwelling" />
		<tag k="ssr:stedsnr" v="767502" />
	</node>
	<node lat="59.77252222399488" lon="10.59099722318525" id="-11210">
		<tag k="name" v="Eng" />
		<tag k="place" v="isolated_dwelling" />
		<tag k="ssr:stedsnr" v="767515" />
	</node>
	<node lat="59.815894443556445" lon="10.662219444080808" id="-11211">
		<tag k="name" v="Rugbråtemyr" />
		<tag k="natural" v="wetland" />
		<tag k="ssr:stedsnr" v="767841" />
	</node>
	<node lat="59.80381666356633" lon="10.704705556335766" id="-11212">
		<tag k="name" v="Skjærløkka" />
		<tag k="place" v="isolated_dwelling" />
		<tag k="ssr:stedsnr" v="907285" />
	</node>
	<node lat="59.78611388684312" lon="10.616730562332506" id="-11213">
		<tag k="name" v="Lauvåsmyra" />
		<tag k="natural" v="wetland" />
		<tag k="ssr:stedsnr" v="769402" />
	</node>
	<node lat="59.73745833550876" lon="10.594044441759232" id="-11216">
		<tag k="name" v="Fagerstrand" />
		<tag k="place" v="village" />
		<tag k="ssr:stedsnr" v="913969" />
	</node>
	<node lat="59.738505553063476" lon="10.62990555715932" id="-11217">
		<tag k="name" v="Rustad" />
		<tag k="place" v="farm" />
		<tag k="ssr:stedsnr" v="913972" />
	</node>
	<node lat="59.86038055922614" lon="10.65424444708266" id="-11218">
		<tag k="name" v="Flaskebekk" />
		<tag k="place" v="hamlet" />
		<tag k="ssr:stedsnr" v="914800" />
	</node>
	<node lat="59.756094183428566" lon="10.610855451691046" id="-11219">
		<tag k="name" v="Langfjell" />
		<tag k="place" v="locality" />
		<tag k="ssr:stedsnr" v="915633" />
	</node>
	<node lat="59.78861111367506" lon="10.668311111912283" id="-11220">
		<tag k="alt_name" v="Kjensli" />
		<tag k="name" v="Tjernsli" />
		<tag k="place" v="farm" />
		<tag k="ssr:stedsnr" v="915640" />
	</node>
	<node lat="59.78727778014251" lon="10.611869444917973" id="-11221">
		<tag k="name" v="Tjernshaugen" />
		<tag k="place" v="farm" />
		<tag k="ssr:stedsnr" v="915642" />
	</node>
	<node lat="59.795663555887664" lon="10.640043286553896" id="-11222">
		<tag k="fixme" v="consider place=hamlet" />
		<tag k="name" v="Fjell" />
		<tag k="place" v="farm" />
		<tag k="ssr:stedsnr" v="915684" />
	</node>
	<node lat="59.79946388789638" lon="10.628016661640292" id="-11223">
		<tag k="alt_name" v="Urianstad" />
		<tag k="name" v="Ørjanstad" />
		<tag k="place" v="farm" />
		<tag k="ssr:stedsnr" v="915685" />
	</node>
	<node lat="59.7994944466442" lon="10.67033056193945" id="-11224">
		<tag k="name" v="Grøndammen" />
		<tag k="natural" v="water" />
		<tag k="ssr:stedsnr" v="915687" />
	</node>
	<node lat="59.842580555397866" lon="10.6372250069966" id="-11225">
		<tag k="name" v="Båsen" />
		<tag k="natural" v="bay" />
		<tag k="ssr:stedsnr" v="915756" />
	</node>
	<node lat="59.826841670014296" lon="10.59628055556397" id="-11226">
		<tag k="name" v="Nordre Steilesand" />
		<tag k="natural" v="shoal" />
		<tag k="place" v="locality" />
		<tag k="ssr:stedsnr" v="812487" />
	</node>
	<node lat="59.80948333084773" lon="10.640541675355456" id="-11227">
		<tag k="name" v="Oremyr" />
		<tag k="natural" v="wetland" />
		<tag k="ssr:stedsnr" v="828120" />
	</node>
	<node lat="59.78991389217332" lon="10.602588884899117" id="-11228">
		<tag k="name" v="Fjelltun" />
		<tag k="place" v="farm" />
		<tag k="ssr:stedsnr" v="828164" />
	</node>
	<node lat="59.78853055895925" lon="10.671816671129983" id="-11229">
		<tag k="name" v="Persbråten" />
		<tag k="place" v="farm" />
		<tag k="ssr:stedsnr" v="828166" />
	</node>
	<node lat="59.774497224425275" lon="10.601616669511438" id="-11230">
		<tag k="name" v="Fjellheim" />
		<tag k="place" v="farm" />
		<tag k="ssr:stedsnr" v="828503" />
	</node>
	<node lat="59.75533055383152" lon="10.611861117911399" id="-11231">
		<tag k="alt_name" v="Langfjell østre" />
		<tag k="name" v="Østre Langfjell" />
		<tag k="place" v="farm" />
		<tag k="ssr:stedsnr" v="828565" />
	</node>
	<node lat="59.74978333025194" lon="10.590199998337482" id="-11232">
		<tag k="name" v="Sylta" />
		<tag k="place" v="farm" />
		<tag k="ssr:stedsnr" v="828933" />
	</node>
	<node lat="59.73917777707892" lon="10.588699992521157" id="-11233">
		<tag k="name" v="Lilleruddammen" />
		<tag k="natural" v="water" />
		<tag k="ssr:stedsnr" v="828941" />
	</node>
	<node lat="59.74457500257383" lon="10.596091666682591" id="-11234">
		<tag k="name" v="Tajetbråten" />
		<tag k="place" v="farm" />
		<tag k="ssr:stedsnr" v="828945" />
	</node>
	<node lat="59.73024444092031" lon="10.617769449444951" id="-11235">
		<tag k="alt_name" v="Agnor søndre" />
		<tag k="name" v="Søndre Agnor" />
		<tag k="place" v="farm" />
		<tag k="ssr:stedsnr" v="828950" />
	</node>
	<node lat="59.83848333527411" lon="10.695147225670775" id="-11236">
		<tag k="name" v="Bonden" />
		<tag k="place" v="locality" />
		<tag k="ssr:stedsnr" v="830475" />
	</node>
	<node lat="59.833027777453566" lon="10.696188893954671" id="-11237">
		<tag k="man_made" v="quay" />
		<tag k="name" v="Berger brygge" />
		<tag k="place" v="locality" />
		<tag k="ssr:stedsnr" v="830478" />
	</node>
	<node lat="59.773641663643524" lon="10.67301388950367" id="-11238">
		<tag k="name" v="Stupinn" />
		<tag k="place" v="locality" />
		<tag k="ssr:stedsnr" v="830387" />
	</node>
	<node lat="59.770361108716386" lon="10.691519443798402" id="-11240">
		<tag k="bridge" v="yes" />
		<tag k="layer" v="1" />
		<tag k="name" v="Sagstu" />
		<tag k="ssr:stedsnr" v="835147" />
	</node>
	<node lat="59.85237777566649" lon="10.682588880207975" id="-11241">
		<tag k="fixme" v="consider seamark:type=rock or natural=shoal" />
		<tag k="name" v="Anneskjæret" />
		<tag k="place" v="islet" />
		<tag k="ssr:stedsnr" v="845403" />
	</node>
	<node lat="59.82198028298189" lon="10.689961872662568" id="-11242">
		<tag k="fixme" v="consider place=hamlet" />
		<tag k="name" v="Solberg" />
		<tag k="place" v="farm" />
		<tag k="ssr:stedsnr" v="854717" />
	</node>
	<node lat="59.7744250032485" lon="10.60704167123204" id="-11243">
		<tag k="alt_name" v="Korsveien" />
		<tag k="name" v="Korsvegen" />
		<tag k="place" v="farm" />
		<tag k="ssr:stedsnr" v="854606" />
	</node>
	<node lat="59.78512624191105" lon="10.653135411450304" id="-11244">
		<tag k="alt_name" v="Høybråten" />
		<tag k="name" v="Høybråtan" />
		<tag k="place" v="locality" />
		<tag k="ssr:stedsnr" v="854645" />
	</node>
	<node lat="59.78001111400631" lon="10.6260694477391" id="-11245">
		<tag k="fixme" v="consider natural=peak for the most distinct mountains in the district" />
		<tag k="name" v="Dalåsen" />
		<tag k="natural" v="hill" />
		<tag k="place" v="locality" />
		<tag k="ssr:stedsnr" v="854650" />
	</node>
	<node lat="59.7662472245808" lon="10.586497230773737" id="-11246">
		<tag k="landuse" v="quarry" />
		<tag k="loc_name" v="Spro Stenknuseri" />
		<tag k="name" v="Gruva" />
		<tag k="ssr:stedsnr" v="935152" />
	</node>
	<node lat="59.78836110809211" lon="10.706680557494703" id="-11247">
		<tag k="name" v="Grøstadstranda" />
		<tag k="natural" v="beach" />
		<tag k="ssr:stedsnr" v="935175" />
	</node>
	<node lat="59.8042361116573" lon="10.615291668675319" id="-11248">
		<tag k="name" v="Signalmyra" />
		<tag k="natural" v="wetland" />
		<tag k="ssr:stedsnr" v="888107" />
	</node>
	<node lat="59.80637499671134" lon="10.609369441522388" id="-11249">
		<tag k="name" v="Prekestolen" />
		<tag k="natural" v="cape" />
		<tag k="ssr:stedsnr" v="935365" />
	</node>
	<node lat="59.78689721966769" lon="10.597366670809276" id="-11250">
		<tag k="man_made" v="quay" />
		<tag k="name" v="Nordstrand brygge" />
		<tag k="place" v="locality" />
		<tag k="ssr:stedsnr" v="889503" />
	</node>
	<node lat="59.77981111213615" lon="10.603297227921109" id="-11251">
		<tag k="name" v="Sandbakke" />
		<tag k="place" v="isolated_dwelling" />
		<tag k="ssr:stedsnr" v="889510" />
	</node>
	<node lat="59.841394447683996" lon="10.642683338833645" id="-11252">
		<tag k="name" v="Østlaget" />
		<tag k="place" v="isolated_dwelling" />
		<tag k="ssr:stedsnr" v="889625" />
	</node>
	<node lat="59.78171944744631" lon="10.691822218479333" id="-11253">
		<tag k="alt_name" v="Krange nordre" />
		<tag k="name" v="Nordre Krange" />
		<tag k="place" v="farm" />
		<tag k="ssr:stedsnr" v="890403" />
	</node>
	<node lat="59.864510350224236" lon="10.66778478117539" id="-11254">
		<tag k="alt_name" v="Hatten" />
		<tag k="name" v="Hatt" />
		<tag k="place" v="isolated_dwelling" />
		<tag k="ssr:stedsnr" v="906520" />
	</node>
	<node lat="59.753228464889965" lon="10.63887073045849" id="-11255">
		<tag k="fixme" v="consider place=hamlet" />
		<tag k="name" v="Klufta" />
		<tag k="place" v="farm" />
		<tag k="ssr:stedsnr" v="915582" />
	</node>
	<node lat="59.81541388926504" lon="10.648533325035293" id="-11256">
		<tag k="name" v="Jonsrud" />
		<tag k="place" v="farm" />
		<tag k="ssr:stedsnr" v="915724" />
	</node>
	<node lat="59.79138889330171" lon="10.706066660101142" id="-11257">
		<tag k="alt_name" v="Bomannsvik brygge" />
		<tag k="man_made" v="quay" />
		<tag k="name" v="Bomansvik brygge" />
		<tag k="place" v="locality" />
		<tag k="ssr:stedsnr" v="949115" />
	</node>
	<node lat="59.82521388836744" lon="10.627186118598177" id="-11258">
		<tag k="name" v="Urstrand" />
		<tag k="natural" v="beach" />
		<tag k="ssr:stedsnr" v="949806" />
	</node>
	<node lat="59.820977778335966" lon="10.670072221917922" id="-11259">
		<tag k="name" v="Hareposten" />
		<tag k="place" v="locality" />
		<tag k="ssr:stedsnr" v="949832" />
	</node>
	<node lat="59.78744722535966" lon="10.655247217504662" id="-11260">
		<tag k="name" v="Rugbråtan" />
		<tag k="place" v="locality" />
		<tag k="ssr:stedsnr" v="951389" />
	</node>
	<node lat="59.78806389022416" lon="10.63393055582086" id="-11261">
		<tag k="name" v="Svenskerud" />
		<tag k="place" v="farm" />
		<tag k="ssr:stedsnr" v="951398" />
	</node>
	<node lat="59.84380000092244" lon="10.68115555245937" id="-11262">
		<tag k="name" v="Hellevikskogen" />
		<tag k="place" v="quarter" />
		<tag k="ssr:stedsnr" v="951503" />
	</node>
	<node lat="59.77120277484891" lon="10.662794453042265" id="-11263">
		<tag k="alt_name" v="Hokholt vestre" />
		<tag k="name" v="Vestre Hokholt" />
		<tag k="place" v="farm" />
		<tag k="ssr:stedsnr" v="951403" />
	</node>
	<node lat="59.85670560093245" lon="10.722073794970722" id="-11265">
		<tag k="fixme" v="consider boundary=protected_area and relevant protect_class if not nature reserve" />
		<tag k="leisure" v="nature_reserve" />
		<tag k="name" v="Nordre Skjælholmen naturreservat" />
		<tag k="ssr:stedsnr" v="951480" />
	</node>
	<node lat="59.83862777548453" lon="10.664888892562235" id="-11266">
		<tag k="name" v="Haukemyr" />
		<tag k="natural" v="wetland" />
		<tag k="ssr:stedsnr" v="951487" />
	</node>
	<node lat="59.84711388787672" lon="10.649211113641462" id="-11267">
		<tag k="name" v="Flauet" />
		<tag k="place" v="hamlet" />
		<tag k="ssr:stedsnr" v="951495" />
	</node>
	<node lat="59.85211944067239" lon="10.70881945213497" id="-11269">
		<tag k="name" v="Hellvikbanken" />
		<tag k="natural" v="shoal" />
		<tag k="place" v="locality" />
		<tag k="ssr:stedsnr" v="966398" />
	</node>
	<node lat="59.81686875041403" lon="10.595880026678753" id="-11270">
		<tag k="alt_name" v="Fyrsteilene" />
		<tag k="fixme" v="consider seamark:type=rock or natural=shoal" />
		<tag k="name" v="Fyrsteila" />
		<tag k="old_name" v="Fyrstejlene" />
		<tag k="place" v="islet" />
		<tag k="ssr:stedsnr" v="968686" />
	</node>
	<node lat="59.819044443069835" lon="10.608036116905522" id="-11271">
		<tag k="alt_name" v="Storsteilene" />
		<tag k="name" v="Storsteila" />
		<tag k="place" v="islet" />
		<tag k="ssr:stedsnr" v="968692" />
	</node>
	<node lat="59.79335000071272" lon="10.663005552834766" id="-11272">
		<tag k="name" v="Naverud" />
		<tag k="place" v="farm" />
		<tag k="ssr:stedsnr" v="4661" />
	</node>
	<node lat="59.81397745357708" lon="10.676778147791813" id="-11273">
		<tag k="alt_name" v="Røer" />
		<tag k="fixme" v="consider place=hamlet" />
		<tag k="name" v="Rør" />
		<tag k="place" v="farm" />
		<tag k="ssr:stedsnr" v="5719" />
	</node>
	<node lat="59.82242222244708" lon="10.662386117914084" id="-11274">
		<tag k="alt_name" v="Bekkbråten" />
		<tag k="name" v="Bekkbråtan" />
		<tag k="place" v="farm" />
		<tag k="ssr:stedsnr" v="5721" />
	</node>
	<node lat="59.826563885074975" lon="10.583169438838837" id="-11275">
		<tag k="alt_name" v="Måsane, østre" />
		<tag k="name" v="Østre Måsane" />
		<tag k="natural" v="shoal" />
		<tag k="place" v="locality" />
		<tag k="ssr:stedsnr" v="5697" />
	</node>
	<node lat="59.833047226142504" lon="10.694086106125472" id="-11276">
		<tag k="fixme" v="consider place=suburb, village or hamlet" />
		<tag k="name" v="Berger" />
		<tag k="place" v="quarter" />
		<tag k="ssr:stedsnr" v="5742" />
	</node>
	<node lat="59.74557222327406" lon="10.603488894155628" id="-11277">
		<tag k="alt_name" v="Lillengen" />
		<tag k="name" v="Lillenga" />
		<tag k="place" v="farm" />
		<tag k="ssr:stedsnr" v="25136" />
	</node>
	<node lat="59.74311666528678" lon="10.585186107700178" id="-11278">
		<tag k="alt_name" v="Hytten" />
		<tag k="name" v="Hytta" />
		<tag k="place" v="isolated_dwelling" />
		<tag k="ssr:stedsnr" v="25138" />
	</node>
	<node lat="59.74989957476332" lon="10.593716892824887" id="-11280">
		<tag k="fixme" v="consider place=hamlet" />
		<tag k="name" v="Store Rud" />
		<tag k="place" v="farm" />
		<tag k="ssr:stedsnr" v="25154" />
	</node>
	<node lat="59.75009999624661" lon="10.580977785244436" id="-11281">
		<tag k="name" v="Humlesekken" />
		<tag k="natural" v="cape" />
		<tag k="ssr:stedsnr" v="25155" />
	</node>
	<node lat="59.78385833191701" lon="10.59620555642993" id="-11282">
		<tag k="name" v="Orebukta" />
		<tag k="natural" v="bay" />
		<tag k="ssr:stedsnr" v="25170" />
	</node>
	<node lat="59.81041666229003" lon="10.699266672264597" id="-11283">
		<tag k="name" v="Kirkevika" />
		<tag k="place" v="isolated_dwelling" />
		<tag k="ssr:stedsnr" v="39024" />
	</node>
	<node lat="59.73570277623601" lon="10.604813891599058" id="-11284">
		<tag k="amenity" v="nursing_home" />
		<tag k="name" v="Grøndalen" />
		<tag k="ssr:stedsnr" v="39292" />
	</node>
	<node lat="59.732150004042374" lon="10.589630549651485" id="-11285">
		<tag k="name" v="Grisebukta" />
		<tag k="natural" v="bay" />
		<tag k="ssr:stedsnr" v="39332" />
	</node>
	<node lat="59.79636666580737" lon="10.60822777369799" id="-11286">
		<tag k="name" v="Paradisbukta" />
		<tag k="natural" v="bay" />
		<tag k="ssr:stedsnr" v="39129" />
	</node>
	<node lat="59.82364166532184" lon="10.624952778810576" id="-11287">
		<tag k="name" v="Mellomstrand" />
		<tag k="place" v="isolated_dwelling" />
		<tag k="ssr:stedsnr" v="39788" />
	</node>
	<node lat="59.82107222620835" lon="10.698311109788312" id="-11288">
		<tag k="name" v="Rundholtstranda" />
		<tag k="natural" v="beach" />
		<tag k="ssr:stedsnr" v="39821" />
	</node>
	<node lat="59.82603055121174" lon="10.680225006599025" id="-11289">
		<tag k="alt_name" v="Flateby søndre" />
		<tag k="name" v="Søndre Flateby" />
		<tag k="place" v="farm" />
		<tag k="ssr:stedsnr" v="39829" />
	</node>
	<node lat="59.73581111429396" lon="10.601847226771444" id="-11290">
		<tag k="name" v="Dal" />
		<tag k="place" v="isolated_dwelling" />
		<tag k="ssr:stedsnr" v="39954" />
	</node>
	<node lat="59.7804050716748" lon="10.60588628591132" id="-11291">
		<tag k="name" v="Moen" />
		<tag k="place" v="farm" />
		<tag k="ssr:stedsnr" v="41438" />
	</node>
	<node lat="59.84792777821934" lon="10.655213889594231" id="-11292">
		<tag k="name" v="Flauet" />
		<tag k="place" v="islet" />
		<tag k="ssr:stedsnr" v="41491" />
	</node>
	<node lat="59.757994444603256" lon="10.582527769161432" id="-11293">
		<tag k="name" v="Hammaren" />
		<tag k="natural" v="cape" />
		<tag k="ssr:stedsnr" v="56050" />
	</node>
	<node lat="59.84340833321537" lon="10.620883340059823" id="-11294">
		<tag k="name" v="Kampehallen" />
		<tag k="natural" v="shoal" />
		<tag k="place" v="locality" />
		<tag k="ssr:stedsnr" v="56254" />
	</node>
	<node lat="59.844624997608605" lon="10.642983338395636" id="-11295">
		<tag k="name" v="Ildjernsbukta" />
		<tag k="natural" v="bay" />
		<tag k="ssr:stedsnr" v="56261" />
	</node>
	<node lat="59.846799999583105" lon="10.639969436958184" id="-11296">
		<tag k="name" v="Kattegattodden" />
		<tag k="natural" v="cape" />
		<tag k="ssr:stedsnr" v="56263" />
	</node>
	<node lat="59.74894166849874" lon="10.630700003671569" id="-11297">
		<tag k="name" v="Veum" />
		<tag k="place" v="farm" />
		<tag k="ssr:stedsnr" v="64955" />
	</node>
	<node lat="59.80273055722052" lon="10.640027781882194" id="-11298">
		<tag k="fixme" v="consider natural=peak for the most distinct mountains in the district" />
		<tag k="name" v="Flaåsen" />
		<tag k="natural" v="hill" />
		<tag k="place" v="locality" />
		<tag k="ssr:stedsnr" v="65707" />
	</node>
	<node lat="59.82923610886286" lon="10.695244441076413" id="-11299">
		<tag k="fixme" v="consider place=suburb, village or hamlet" />
		<tag k="name" v="Fjordvangen" />
		<tag k="place" v="quarter" />
		<tag k="ssr:stedsnr" v="65736" />
	</node>
	<node lat="59.78576111477593" lon="10.609155555251672" id="-11300">
		<tag k="name" v="Dalen" />
		<tag k="place" v="farm" />
		<tag k="ssr:stedsnr" v="65654" />
	</node>
	<node lat="59.78513482382234" lon="10.671304136903252" id="-11301">
		<tag k="alt_name" v="Kjenslitjern;Kjenslitjernet" />
		<tag k="name" v="Tjernslitjernet" />
		<tag k="natural" v="water" />
		<tag k="ssr:stedsnr" v="65662" />
	</node>
	<node lat="59.77979166968487" lon="10.636980552712357" id="-11302">
		<tag k="name" v="Søndre Granerud" />
		<tag k="place" v="farm" />
		<tag k="ssr:stedsnr" v="65664" />
	</node>
	<node lat="59.782758333789644" lon="10.64431944898243" id="-11303">
		<tag k="fixme" v="consider natural=peak for the most distinct mountains in the district" />
		<tag k="name" v="Kirkeåsen" />
		<tag k="natural" v="hill" />
		<tag k="place" v="locality" />
		<tag k="ssr:stedsnr" v="65666" />
	</node>
	<node lat="59.77855278157354" lon="10.593672222552689" id="-11304">
		<tag k="man_made" v="breakwater" />
		<tag k="name" v="Granerudstøa" />
		<tag k="place" v="locality" />
		<tag k="ssr:stedsnr" v="65682" />
	</node>
	<node lat="59.84448771480272" lon="10.691181483500412" id="-11305">
		<tag k="fixme" v="consider place=suburb, village or hamlet" />
		<tag k="name" v="Hellvik" />
		<tag k="old_name" v="Helvik" />
		<tag k="place" v="quarter" />
		<tag k="ssr:stedsnr" v="65785" />
	</node>
	<node lat="59.75872500011916" lon="10.588841659296932" id="-11306">
		<tag k="alt_name" v="Bråtedammen" />
		<tag k="name" v="Bråtadammen" />
		<tag k="natural" v="water" />
		<tag k="ssr:stedsnr" v="66637" />
	</node>
	<node lat="59.74096020906" lon="10.590784193973473" id="-11307">
		<tag k="fixme" v="consider place=hamlet" />
		<tag k="name" v="Lillerud" />
		<tag k="place" v="farm" />
		<tag k="ssr:stedsnr" v="86145" />
	</node>
	<node lat="59.790791662678714" lon="10.59546665811466" id="-11308">
		<tag k="name" v="Krøklegrunnen" />
		<tag k="natural" v="shoal" />
		<tag k="place" v="locality" />
		<tag k="ssr:stedsnr" v="86207" />
	</node>
	<node lat="59.877675002572325" lon="10.660944447445232" id="-11309">
		<tag k="name" v="Tangegrunnane" />
		<tag k="natural" v="shoal" />
		<tag k="place" v="locality" />
		<tag k="ssr:stedsnr" v="86349" />
	</node>
	<node lat="59.80221110917531" lon="10.622305555415187" id="-11310">
		<tag k="name" v="Skogsrud" />
		<tag k="place" v="farm" />
		<tag k="ssr:stedsnr" v="99143" />
	</node>
	<node lat="59.79413333176694" lon="10.606533339401778" id="-11311">
		<tag k="man_made" v="quay" />
		<tag k="name" v="Fjellstrand brygge" />
		<tag k="place" v="locality" />
		<tag k="ssr:stedsnr" v="99158" />
	</node>
	<node lat="59.77621944149159" lon="10.680908329927526" id="-11312">
		<tag k="name" v="Åslund" />
		<tag k="place" v="farm" />
		<tag k="ssr:stedsnr" v="99241" />
	</node>
	<node lat="59.80615968637628" lon="10.692908870938565" id="-11313">
		<tag k="fixme" v="consider place=hamlet" />
		<tag k="name" v="Nesodden prestegård" />
		<tag k="place" v="farm" />
		<tag k="ssr:stedsnr" v="100040" />
	</node>
	<node lat="59.75010555290709" lon="10.624102774456004" id="-11315">
		<tag k="name" v="Myrås" />
		<tag k="place" v="isolated_dwelling" />
		<tag k="ssr:stedsnr" v="100548" />
	</node>
	<node lat="59.83738333617331" lon="10.677336117777044" id="-11316">
		<tag k="amenity" v="school" />
		<tag k="name" v="Berger skole" />
		<tag k="ssr:stedsnr" v="102555" />
	</node>
	<node lat="59.86911682142095" lon="10.7184051372148" id="-11317">
		<tag k="fixme" v="consider tourism=alpine_hut or tourism=chalet" />
		<tag k="name" v="Langøyene" />
		<tag k="ssr:stedsnr" v="103871" />
		<tag k="tourism" v="wilderness_hut" />
	</node>
	<node lat="59.84232500307139" lon="10.643744441507879" id="-11318">
		<tag k="name" v="Bjørklund" />
		<tag k="place" v="isolated_dwelling" />
		<tag k="ssr:stedsnr" v="117301" />
	</node>
	<node lat="59.79519935993016" lon="10.608338577236337" id="-11319">
		<tag k="name" v="Fjellstrand" />
		<tag k="place" v="village" />
		<tag k="ssr:stedsnr" v="125675" />
	</node>
	<node lat="59.764124995761414" lon="10.594674996184814" id="-11320">
		<tag k="name" v="Sprodammen" />
		<tag k="natural" v="water" />
		<tag k="ssr:stedsnr" v="126622" />
	</node>
	<node lat="59.76620277563072" lon="10.601130558796847" id="-11321">
		<tag k="name" v="Labråtan" />
		<tag k="old_name" v="Lubråten" />
		<tag k="place" v="locality" />
		<tag k="ssr:stedsnr" v="126628" />
	</node>
	<node lat="59.81849999735657" lon="10.60250833367775" id="-11322">
		<tag k="name" v="Steilene" />
		<tag k="place" v="islet" />
		<tag k="ssr:stedsnr" v="126707" />
	</node>
	<node lat="59.77177777542164" lon="10.589430561391218" id="-11323">
		<tag k="fixme" v="consider seamark:type=rock or natural=shoal" />
		<tag k="name" v="Rognskjær" />
		<tag k="place" v="islet" />
		<tag k="ssr:stedsnr" v="146149" />
	</node>
	<node lat="59.8370777773738" lon="10.694825000444448" id="-11324">
		<tag k="name" v="Bonden" />
		<tag k="place" v="isolated_dwelling" />
		<tag k="ssr:stedsnr" v="146359" />
	</node>
	<node lat="59.85490277454136" lon="10.685197219419406" id="-11325">
		<tag k="alt_name" v="Selskjær" />
		<tag k="fixme" v="consider seamark:type=rock or natural=shoal" />
		<tag k="name" v="Selskjæret" />
		<tag k="place" v="islet" />
		<tag k="ssr:stedsnr" v="146300" />
	</node>
	<node lat="59.79457395574148" lon="10.692555092514112" id="-11326">
		<tag k="fixme" v="consider place=hamlet" />
		<tag k="name" v="Loftu" />
		<tag k="place" v="farm" />
		<tag k="ssr:stedsnr" v="160091" />
	</node>
	<node lat="59.774669445477976" lon="10.680547227736971" id="-11327">
		<tag k="name" v="Kollen" />
		<tag k="place" v="farm" />
		<tag k="ssr:stedsnr" v="160170" />
	</node>
	<node lat="59.801180557258206" lon="10.704411103312204" id="-11328">
		<tag k="name" v="Juten" />
		<tag k="place" v="farm" />
		<tag k="ssr:stedsnr" v="160035" />
	</node>
	<node lat="59.80509444221086" lon="10.626580546735706" id="-11329">
		<tag k="name" v="Ellingstadtjern" />
		<tag k="natural" v="water" />
		<tag k="ssr:stedsnr" v="160104" />
	</node>
	<node lat="59.804377776852796" lon="10.608986110825764" id="-11330">
		<tag k="alt_name" v="Ommen nordre" />
		<tag k="name" v="Nordre Ommen" />
		<tag k="place" v="farm" />
		<tag k="ssr:stedsnr" v="160107" />
	</node>
	<node lat="59.79455833555517" lon="10.609974995419925" id="-11331">
		<tag k="name" v="Steinor" />
		<tag k="place" v="farm" />
		<tag k="ssr:stedsnr" v="160121" />
	</node>
	<node lat="59.75438055341672" lon="10.582888882909774" id="-11332">
		<tag k="man_made" v="quay" />
		<tag k="name" v="Søndre Spro brygge" />
		<tag k="place" v="locality" />
		<tag k="ssr:stedsnr" v="160322" />
	</node>
	<node lat="59.730736114952634" lon="10.634708336429219" id="-11333">
		<tag k="name" v="Agnormåsan" />
		<tag k="natural" v="wetland" />
		<tag k="ssr:stedsnr" v="160420" />
	</node>
	<node lat="59.76041111228352" lon="10.608527776790972" id="-11334">
		<tag k="name" v="Nordby" />
		<tag k="place" v="farm" />
		<tag k="ssr:stedsnr" v="160551" />
	</node>
	<node lat="59.81490833099022" lon="10.65125833465304" id="-11335">
		<tag k="name" v="Ravnsborg" />
		<tag k="place" v="locality" />
		<tag k="ssr:stedsnr" v="160765" />
	</node>
	<node lat="59.820722223182955" lon="10.62074443686933" id="-11336">
		<tag k="name" v="Alvern" />
		<tag k="place" v="farm" />
		<tag k="ssr:stedsnr" v="160785" />
	</node>
	<node lat="59.824047225799326" lon="10.668102771127545" id="-11337">
		<tag k="name" v="Nissestua" />
		<tag k="place" v="farm" />
		<tag k="ssr:stedsnr" v="160864" />
	</node>
	<node lat="59.81273888886322" lon="10.68925556370949" id="-11338">
		<tag k="name" v="Sørbydammen" />
		<tag k="natural" v="water" />
		<tag k="ssr:stedsnr" v="160814" />
	</node>
	<node lat="59.78255555552461" lon="10.610252776740872" id="-11339">
		<tag k="name" v="Åsland" />
		<tag k="place" v="farm" />
		<tag k="ssr:stedsnr" v="162439" />
	</node>
	<node lat="59.78061111374691" lon="10.633049997139745" id="-11340">
		<tag k="fixme" v="consider natural=peak for the most distinct mountains in the district" />
		<tag k="name" v="Gateåsen" />
		<tag k="natural" v="hill" />
		<tag k="place" v="locality" />
		<tag k="ssr:stedsnr" v="162448" />
	</node>
	<node lat="59.83839166464311" lon="10.670069442116729" id="-11341">
		<tag k="name" v="Isakstubråten" />
		<tag k="place" v="locality" />
		<tag k="ssr:stedsnr" v="162490" />
	</node>
	<node lat="59.836124998630126" lon="10.677288880778852" id="-11342">
		<tag k="name" v="Halvorstubråten" />
		<tag k="place" v="locality" />
		<tag k="ssr:stedsnr" v="162493" />
	</node>
	<node lat="59.838516664546624" lon="10.672966661008285" id="-11343">
		<tag k="name" v="Fagerås" />
		<tag k="place" v="locality" />
		<tag k="ssr:stedsnr" v="162495" />
	</node>
	<node lat="59.8515165111434" lon="10.680520258137035" id="-11344">
		<tag k="name" v="Bergum" />
		<tag k="place" v="farm" />
		<tag k="ssr:stedsnr" v="177382" />
	</node>
	<node lat="59.816102780251306" lon="10.60916110277764" id="-11345">
		<tag k="alt_name" v="Persteilene" />
		<tag k="name" v="Persteila" />
		<tag k="place" v="islet" />
		<tag k="ssr:stedsnr" v="179641" />
	</node>
	<node lat="59.805163892641964" lon="10.693669439026687" id="-11346">
		<tag k="alt_name" v="Nesodden" />
		<tag k="amenity" v="place_of_worship" />
		<tag k="denomination" v="lutheran" />
		<tag k="name" v="Nesodden kirke" />
		<tag k="religion" v="christian" />
		<tag k="ssr:stedsnr" v="187651" />
	</node>
	<node lat="59.81284156773058" lon="10.631970711063586" id="-11347">
		<tag k="alt_name" v="Blekslitjern" />
		<tag k="fixme" v="multiple name tags, choose one and add the other to alt_name" />
		<tag k="name" v="Blekslitjernet;Bråtetjernet" />
		<tag k="natural" v="water" />
		<tag k="ssr:stedsnr" v="187657" />
	</node>
	<node lat="59.811455559414846" lon="10.657680549527768" id="-11348">
		<tag k="name" v="Ravnsborgtjernet" />
		<tag k="natural" v="water" />
		<tag k="ssr:stedsnr" v="187658" />
	</node>
	<node lat="59.84391110788341" lon="10.737616664301822" id="-11349">
		<tag k="name" v="Østre Skjælholmflua" />
		<tag k="natural" v="shoal" />
		<tag k="place" v="locality" />
		<tag k="ssr:stedsnr" v="207322" />
	</node>
	<node lat="59.83642039617957" lon="10.695254876288468" id="-11350">
		<tag k="name" v="Lillestrand" />
		<tag k="place" v="isolated_dwelling" />
		<tag k="ssr:stedsnr" v="207369" />
	</node>
	<node lat="59.82987777986775" lon="10.695994446306361" id="-11351">
		<tag k="man_made" v="quay" />
		<tag k="name" v="Fjordvangen brygge" />
		<tag k="place" v="locality" />
		<tag k="ssr:stedsnr" v="221838" />
	</node>
	<node lat="59.77923333477069" lon="10.681827778139006" id="-11352">
		<tag k="name" v="Haslehagen" />
		<tag k="place" v="farm" />
		<tag k="ssr:stedsnr" v="221190" />
	</node>
	<node lat="59.800697221996984" lon="10.657291669702282" id="-11353">
		<tag k="alt_name" v="Myra vestre" />
		<tag k="name" v="Vestre Myra" />
		<tag k="place" v="farm" />
		<tag k="ssr:stedsnr" v="221132" />
	</node>
	<node lat="59.80183333394761" lon="10.661038886218245" id="-11354">
		<tag k="alt_name" v="Myra østre" />
		<tag k="name" v="Østre Myra" />
		<tag k="place" v="farm" />
		<tag k="ssr:stedsnr" v="221136" />
	</node>
	<node lat="59.804291665764445" lon="10.65846943607984" id="-11355">
		<tag k="fixme" v="consider natural=peak for the most distinct mountains in the district" />
		<tag k="name" v="Nylendeåsen" />
		<tag k="natural" v="hill" />
		<tag k="place" v="locality" />
		<tag k="ssr:stedsnr" v="221142" />
	</node>
	<node lat="59.799558331816066" lon="10.622586106251408" id="-11356">
		<tag k="name" v="Persilengtjern" />
		<tag k="natural" v="water" />
		<tag k="ssr:stedsnr" v="221150" />
	</node>
	<node lat="59.79096666924925" lon="10.606791668643423" id="-11357">
		<tag k="name" v="Løkkeåsen" />
		<tag k="place" v="hamlet" />
		<tag k="ssr:stedsnr" v="221158" />
	</node>
	<node lat="59.7338472228959" lon="10.58834167087792" id="-11358">
		<tag k="name" v="Grisebu" />
		<tag k="place" v="isolated_dwelling" />
		<tag k="ssr:stedsnr" v="221329" />
	</node>
	<node lat="59.73443055330295" lon="10.585219440894784" id="-11359">
		<tag k="man_made" v="quay" />
		<tag k="name" v="Fagerstrand brygge" />
		<tag k="place" v="locality" />
		<tag k="ssr:stedsnr" v="221330" />
	</node>
	<node lat="59.748119444638256" lon="10.582202783753218" id="-11360">
		<tag k="name" v="Fjordheim" />
		<tag k="place" v="isolated_dwelling" />
		<tag k="ssr:stedsnr" v="221334" />
	</node>
	<node lat="59.74053055533104" lon="10.604333324609081" id="-11361">
		<tag k="name" v="Bråten" />
		<tag k="place" v="farm" />
		<tag k="ssr:stedsnr" v="221339" />
	</node>
	<node lat="59.752933334127135" lon="10.582927780460789" id="-11362">
		<tag k="name" v="Bekk" />
		<tag k="place" v="hamlet" />
		<tag k="ssr:stedsnr" v="221348" />
	</node>
	<node lat="59.81711567022849" lon="10.596375441248146" id="-11363">
		<tag k="fixme" v="consider boundary=protected_area and relevant protect_class if not nature reserve" />
		<tag k="leisure" v="nature_reserve" />
		<tag k="name" v="Fyrsteilene naturreservat" />
		<tag k="ssr:stedsnr" v="221748" />
	</node>
	<node lat="59.8131805572622" lon="10.647230549539607" id="-11364">
		<tag k="name" v="Haukemåsan" />
		<tag k="natural" v="wetland" />
		<tag k="ssr:stedsnr" v="221757" />
	</node>
	<node lat="59.81770277539376" lon="10.649041667793814" id="-11365">
		<tag k="fixme" v="consider natural=peak for the most distinct mountains in the district" />
		<tag k="name" v="Jonsrudåsen" />
		<tag k="natural" v="hill" />
		<tag k="place" v="locality" />
		<tag k="ssr:stedsnr" v="221767" />
	</node>
	<node lat="59.7445555592469" lon="10.582941675660102" id="-11366">
		<tag k="name" v="Fjellvik" />
		<tag k="place" v="isolated_dwelling" />
		<tag k="ssr:stedsnr" v="221940" />
	</node>
	<node lat="59.730088889882005" lon="10.608494452496158" id="-11367">
		<tag k="name" v="Granli" />
		<tag k="place" v="farm" />
		<tag k="ssr:stedsnr" v="221941" />
	</node>
	<node lat="59.86838610849463" lon="10.654658326492116" id="-11368">
		<tag k="name" v="Laksebogen" />
		<tag k="natural" v="bay" />
		<tag k="ssr:stedsnr" v="223475" />
	</node>
	<node lat="59.86664722639708" lon="10.66436111970408" id="-11369">
		<tag k="name" v="Djupholet" />
		<tag k="natural" v="beach" />
		<tag k="ssr:stedsnr" v="223493" />
	</node>
	<node lat="59.77490000289216" lon="10.646644449847313" id="-11370">
		<tag k="fixme" v="consider natural=peak for the most distinct mountains in the district" />
		<tag k="name" v="Tolvbjørnrudåsen" />
		<tag k="natural" v="hill" />
		<tag k="place" v="locality" />
		<tag k="ssr:stedsnr" v="223445" />
	</node>
	<node lat="59.8649972266124" lon="10.654991672125517" id="-11371">
		<tag k="name" v="Bratli" />
		<tag k="place" v="isolated_dwelling" />
		<tag k="ssr:stedsnr" v="223472" />
	</node>
	<node lat="59.77713055558888" lon="10.67279722948509" id="-11372">
		<tag k="name" v="Utenga" />
		<tag k="place" v="farm" />
		<tag k="ssr:stedsnr" v="282197" />
	</node>
	<node lat="59.806449999821446" lon="10.638236119683153" id="-11373">
		<tag k="name" v="Springdalsmyr" />
		<tag k="natural" v="wetland" />
		<tag k="ssr:stedsnr" v="282137" />
	</node>
	<node lat="59.80151944857042" lon="10.620044444695166" id="-11374">
		<tag k="name" v="Urianstadbråten" />
		<tag k="place" v="farm" />
		<tag k="ssr:stedsnr" v="282141" />
	</node>
	<node lat="59.79609166877313" lon="10.646372224907067" id="-11375">
		<tag k="name" v="Kirkerud" />
		<tag k="place" v="farm" />
		<tag k="ssr:stedsnr" v="282160" />
	</node>
	<node lat="59.83799166421914" lon="10.656916662877974" id="-11376">
		<tag k="name" v="Kjerringgravmyr" />
		<tag k="natural" v="wetland" />
		<tag k="ssr:stedsnr" v="282614" />
	</node>
	<node lat="59.73300833101747" lon="10.612830554512032" id="-11377">
		<tag k="name" v="Svartebråtan" />
		<tag k="place" v="locality" />
		<tag k="ssr:stedsnr" v="282343" />
	</node>
	<node lat="59.746308329425574" lon="10.612938883035136" id="-11378">
		<tag k="amenity" v="school" />
		<tag k="name" v="Myklerud skole" />
		<tag k="ssr:stedsnr" v="282563" />
	</node>
	<node lat="59.82373888881112" lon="10.675274998747572" id="-11379">
		<tag k="name" v="Smedhagen" />
		<tag k="place" v="locality" />
		<tag k="ssr:stedsnr" v="282838" />
	</node>
	<node lat="59.774305557908306" lon="10.668166661381104" id="-11380">
		<tag k="name" v="Løkka" />
		<tag k="place" v="locality" />
		<tag k="ssr:stedsnr" v="283325" />
	</node>
	<node lat="59.78028610944665" lon="10.70323888022378" id="-11381">
		<tag k="name" v="Rosenhøy" />
		<tag k="place" v="farm" />
		<tag k="ssr:stedsnr" v="283330" />
	</node>
	<node lat="59.78142777453911" lon="10.694816675088635" id="-11382">
		<tag k="alt_name" v="Krange østre" />
		<tag k="name" v="Østre Krange" />
		<tag k="place" v="farm" />
		<tag k="ssr:stedsnr" v="283331" />
	</node>
	<node lat="59.860638892307755" lon="10.6529888947155" id="-11383">
		<tag k="man_made" v="quay" />
		<tag k="name" v="Flaskebekk brygge" />
		<tag k="place" v="locality" />
		<tag k="ssr:stedsnr" v="284453" />
	</node>
	<node lat="59.8505916663364" lon="10.680322221084216" id="-11384">
		<tag k="name" v="Skoklefallstrand" />
		<tag k="place" v="isolated_dwelling" />
		<tag k="ssr:stedsnr" v="299412" />
	</node>
	<node lat="59.81322221985715" lon="10.700444447912298" id="-11385">
		<tag k="name" v="Tutarholet" />
		<tag k="place" v="locality" />
		<tag k="ssr:stedsnr" v="300346" />
	</node>
	<node lat="59.75402500018456" lon="10.615127770396013" id="-11386">
		<tag k="alt_name" v="Gjøfjellmåsan" />
		<tag k="name" v="Gjøfjellsmåsan" />
		<tag k="natural" v="wetland" />
		<tag k="ssr:stedsnr" v="308626" />
	</node>
	<node lat="59.78198611317605" lon="10.633011117850574" id="-11387">
		<tag k="name" v="Heimli" />
		<tag k="place" v="farm" />
		<tag k="ssr:stedsnr" v="308644" />
	</node>
	<node lat="59.785376998519105" lon="10.639100583571443" id="-11388">
		<tag k="fixme" v="consider place=hamlet" />
		<tag k="name" v="Granerud" />
		<tag k="place" v="farm" />
		<tag k="ssr:stedsnr" v="308646" />
	</node>
	<node lat="59.80764444654907" lon="10.583847221835692" id="-11389">
		<tag k="name" v="Søndre Steilesand" />
		<tag k="natural" v="shoal" />
		<tag k="place" v="locality" />
		<tag k="ssr:stedsnr" v="308722" />
	</node>
	<node lat="59.77842777529384" lon="10.712158331739634" id="-11390">
		<tag k="name" v="Blylagbukta" />
		<tag k="natural" v="bay" />
		<tag k="ssr:stedsnr" v="328181" />
	</node>
	<node lat="59.80925066864453" lon="10.704531173011794" id="-11391">
		<tag k="fixme" v="consider seamark:type=rock or natural=shoal" />
		<tag k="name" v="Presteskjæret" />
		<tag k="place" v="islet" />
		<tag k="ssr:stedsnr" v="328346" />
	</node>
	<node lat="59.796513885918415" lon="10.623169442187297" id="-11392">
		<tag k="amenity" v="school" />
		<tag k="name" v="Fjellstrand skole" />
		<tag k="ssr:stedsnr" v="342162" />
	</node>
	<node lat="59.79791110744476" lon="10.6234694432287" id="-11393">
		<tag k="alt_name" v="Persilengen østre" />
		<tag k="name" v="Østre Persilengen" />
		<tag k="place" v="locality" />
		<tag k="ssr:stedsnr" v="342164" />
	</node>
	<node lat="59.787697218980426" lon="10.690091662202624" id="-11394">
		<tag k="name" v="Grøstadodden" />
		<tag k="natural" v="cape" />
		<tag k="ssr:stedsnr" v="342180" />
	</node>
	<node lat="59.77709167111765" lon="10.663211104176614" id="-11395">
		<tag k="name" v="Langemyr" />
		<tag k="natural" v="wetland" />
		<tag k="ssr:stedsnr" v="342187" />
	</node>
	<node lat="59.803641665060326" lon="10.624852779642406" id="-11396">
		<tag k="alt_name" v="Holen østre" />
		<tag k="name" v="Østre Holen" />
		<tag k="place" v="farm" />
		<tag k="ssr:stedsnr" v="342129" />
	</node>
	<node lat="59.75826944538061" lon="10.58221945326789" id="-11397">
		<tag k="name" v="Hammeren" />
		<tag k="natural" v="cape" />
		<tag k="ssr:stedsnr" v="342337" />
	</node>
	<node lat="59.76855277950335" lon="10.594691664500585" id="-11399">
		<tag k="name" v="Nydammen" />
		<tag k="natural" v="water" />
		<tag k="ssr:stedsnr" v="342529" />
	</node>
	<node lat="59.81758610066674" lon="10.6225612213072" id="-11400">
		<tag k="name" v="Leina" />
		<tag k="place" v="hamlet" />
		<tag k="ssr:stedsnr" v="342770" />
	</node>
	<node lat="59.735094442347794" lon="10.603841664012538" id="-11401">
		<tag k="name" v="Agnorbekken" />
		<tag k="ssr:stedsnr" v="342933" />
		<tag k="waterway" v="stream" />
	</node>
	<node lat="59.733616663599626" lon="10.623338886725518" id="-11402">
		<tag k="alt_name" v="Agnor nordre" />
		<tag k="name" v="Nordre Agnor" />
		<tag k="place" v="farm" />
		<tag k="ssr:stedsnr" v="342938" />
	</node>
	<node lat="59.8553666706526" lon="10.662172223098471" id="-11403">
		<tag k="amenity" v="school" />
		<tag k="name" v="Tangenåsen ungdomsskole" />
		<tag k="ssr:stedsnr" v="344470" />
	</node>
	<node lat="59.85470000032434" lon="10.680116665997758" id="-11404">
		<tag k="man_made" v="quay" />
		<tag k="name" v="Ursvik brygge" />
		<tag k="place" v="locality" />
		<tag k="ssr:stedsnr" v="344484" />
	</node>
	<node lat="59.777619446008835" lon="10.690741664297969" id="-11405">
		<tag k="name" v="Søndre Hasle" />
		<tag k="place" v="farm" />
		<tag k="ssr:stedsnr" v="344432" />
	</node>
	<node lat="59.80588333067337" lon="10.609094445417579" id="-11406">
		<tag k="fixme" v="consider tourism=alpine_hut or tourism=chalet" />
		<tag k="name" v="Vestli" />
		<tag k="ssr:stedsnr" v="354046" />
		<tag k="tourism" v="wilderness_hut" />
	</node>
	<node lat="59.779505554222425" lon="10.604797224075389" id="-11407">
		<tag k="name" v="Sandbakken" />
		<tag k="place" v="isolated_dwelling" />
		<tag k="ssr:stedsnr" v="359072" />
	</node>
	<node lat="59.84937500101035" lon="10.649377785485411" id="-11408">
		<tag k="name" v="Kirkeberget" />
		<tag k="place" v="locality" />
		<tag k="ssr:stedsnr" v="359275" />
	</node>
	<node lat="59.84150555332357" lon="10.615455564193569" id="-11409">
		<tag k="name" v="Johannesgrunnen" />
		<tag k="natural" v="shoal" />
		<tag k="place" v="locality" />
		<tag k="ssr:stedsnr" v="359300" />
	</node>
	<node lat="59.86998611277921" lon="10.663847219572105" id="-11410">
		<tag k="alt_name" v="Lagskjær" />
		<tag k="fixme" v="consider seamark:type=rock or natural=shoal" />
		<tag k="name" v="Lagskjæret" />
		<tag k="place" v="islet" />
		<tag k="ssr:stedsnr" v="361516" />
	</node>
	<node lat="59.214972223183594" lon="10.636341670814504" id="-11411">
		<tag k="bay" v="fjord" />
		<tag k="name" v="Oslofjorden" />
		<tag k="natural" v="bay" />
		<tag k="ssr:stedsnr" v="365030" />
	</node>
	<node lat="59.8230666675608" lon="10.650052786220517" id="-11412">
		<tag k="fixme" v="consider natural=peak for the most distinct mountains in the district" />
		<tag k="name" v="Toåsen" />
		<tag k="natural" v="hill" />
		<tag k="place" v="locality" />
		<tag k="ssr:stedsnr" v="368549" />
	</node>
	<node lat="59.775138892719575" lon="10.594488893711024" id="-11413">
		<tag k="name" v="Svestad" />
		<tag k="place" v="hamlet" />
		<tag k="ssr:stedsnr" v="368664" />
	</node>
	<node lat="59.77790833753649" lon="10.705877776501131" id="-11414">
		<tag k="alt_name" v="Blylaget" />
		<tag k="name" v="Sundby" />
		<tag k="place" v="farm" />
		<tag k="ssr:stedsnr" v="368715" />
	</node>
	<node lat="59.766716670085295" lon="10.613188886696273" id="-11415">
		<tag k="alt_name" v="Svestadtjern" />
		<tag k="name" v="Svestadtjernet" />
		<tag k="natural" v="water" />
		<tag k="ssr:stedsnr" v="369594" />
	</node>
	<node lat="59.84572778042711" lon="10.656313894631216" id="-11416">
		<tag k="name" v="Flaskebekktjernet" />
		<tag k="natural" v="water" />
		<tag k="ssr:stedsnr" v="368806" />
	</node>
	<node lat="59.81078384597095" lon="10.689931570090165" id="-11417">
		<tag k="name" v="Torget" />
		<tag k="old_name" v="Torvet" />
		<tag k="place" v="farm" />
		<tag k="ssr:stedsnr" v="369634" />
	</node>
	<node lat="59.80643610948259" lon="10.625611113140721" id="-11418">
		<tag k="name" v="Ellingstad" />
		<tag k="place" v="farm" />
		<tag k="ssr:stedsnr" v="369640" />
	</node>
	<node lat="59.8111805594564" lon="10.697861113434788" id="-11419">
		<tag k="name" v="Møllebakken" />
		<tag k="place" v="locality" />
		<tag k="ssr:stedsnr" v="403841" />
	</node>
	<node lat="59.82700277643161" lon="10.697363885855815" id="-11420">
		<tag k="name" v="Strandparken" />
		<tag k="place" v="locality" />
		<tag k="ssr:stedsnr" v="403868" />
	</node>
	<node lat="59.821475001734306" lon="10.640327776026556" id="-11421">
		<tag k="name" v="Måsatjernet" />
		<tag k="natural" v="water" />
		<tag k="ssr:stedsnr" v="403820" />
	</node>
	<node lat="59.78457778136151" lon="10.639836119149193" id="-11422">
		<tag k="alt_name" v="Granerud midtre" />
		<tag k="name" v="Midtre Granerud" />
		<tag k="place" v="farm" />
		<tag k="ssr:stedsnr" v="405420" />
	</node>
	<node lat="59.77668611429099" lon="10.70182499441229" id="-11423">
		<tag k="fixme" v="consider boundary=protected_area and relevant protect_class if not nature reserve" />
		<tag k="leisure" v="nature_reserve" />
		<tag k="name" v="Blylagsdammen naturreservat" />
		<tag k="ssr:stedsnr" v="405422" />
	</node>
	<node lat="59.861491666629256" lon="10.654494448080014" id="-11424">
		<tag k="name" v="Flaskebekkbråten" />
		<tag k="place" v="hamlet" />
		<tag k="ssr:stedsnr" v="405467" />
	</node>
	<node lat="59.8706836102546" lon="10.659683479559908" id="-11425">
		<tag k="name" v="Odden" />
		<tag k="natural" v="cape" />
		<tag k="ssr:stedsnr" v="405475" />
	</node>
	<node lat="59.81358610801987" lon="10.677050002658078" id="-11426">
		<tag k="alt_name" v="Røer" />
		<tag k="name" v="Rør" />
		<tag k="place" v="farm" />
		<tag k="ssr:stedsnr" v="413235" />
	</node>
	<node lat="59.78104444070944" lon="10.594930554708206" id="-11427">
		<tag k="man_made" v="quay" />
		<tag k="name" v="Dalkenstrand" />
		<tag k="place" v="locality" />
		<tag k="ssr:stedsnr" v="421050" />
	</node>
	<node lat="59.84932778118955" lon="10.682202779181713" id="-11428">
		<tag k="name" v="Grønnbogen" />
		<tag k="place" v="isolated_dwelling" />
		<tag k="ssr:stedsnr" v="421382" />
	</node>
	<node lat="59.81354444509697" lon="10.617275006353937" id="-11429">
		<tag k="name" v="Svarteberget" />
		<tag k="natural" v="hill" />
		<tag k="place" v="locality" />
		<tag k="ssr:stedsnr" v="422652" />
	</node>
	<node lat="59.85064444299998" lon="10.665341665322122" id="-11430">
		<tag k="alt_name" v="Skoklefalltjern" />
		<tag k="name" v="Skoklefalltjernet" />
		<tag k="natural" v="water" />
		<tag k="ssr:stedsnr" v="429792" />
	</node>
	<node lat="59.79768610697565" lon="10.686691674787417" id="-11431">
		<tag k="name" v="Roberg" />
		<tag k="place" v="farm" />
		<tag k="ssr:stedsnr" v="429715" />
	</node>
	<node lat="59.80942777816396" lon="10.649363882813821" id="-11432">
		<tag k="alt_name" v="Fugleleikåsen" />
		<tag k="fixme" v="consider natural=peak for the most distinct mountains in the district" />
		<tag k="name" v="Fuglleikåsen" />
		<tag k="natural" v="hill" />
		<tag k="place" v="locality" />
		<tag k="ssr:stedsnr" v="430679" />
	</node>
	<node lat="59.85531994273027" lon="10.726189758578514" id="-11433">
		<tag k="name" v="Skjælholmene" />
		<tag k="place" v="islet" />
		<tag k="ssr:stedsnr" v="445658" />
	</node>
	<node lat="59.84363039600807" lon="10.643116705447243" id="-11434">
		<tag k="name" v="Suteren" />
		<tag k="old_name" v="Sutarn" />
		<tag k="place" v="islet" />
		<tag k="ssr:stedsnr" v="506630" />
	</node>
	<node lat="59.853709892699364" lon="10.729280326891752" id="-11435">
		<tag k="alt_name" v="Søndre Skjælholme" />
		<tag k="name" v="Søndre Skjælholmen" />
		<tag k="place" v="islet" />
		<tag k="ssr:stedsnr" v="509501" />
	</node>
	<node lat="59.75476389024021" lon="10.583922213438798" id="-11436">
		<tag k="name" v="Leina" />
		<tag k="place" v="isolated_dwelling" />
		<tag k="ssr:stedsnr" v="511165" />
	</node>
	<node lat="59.803941664152276" lon="10.66993332494905" id="-11437">
		<tag k="name" v="Karlstad" />
		<tag k="place" v="farm" />
		<tag k="ssr:stedsnr" v="524091" />
	</node>
	<node lat="59.799433331413994" lon="10.685266668329165" id="-11438">
		<tag k="name" v="Sletta" />
		<tag k="place" v="farm" />
		<tag k="ssr:stedsnr" v="524096" />
	</node>
	<node lat="59.79474166859169" lon="10.646608330731219" id="-11439">
		<tag k="name" v="Holmsbakken" />
		<tag k="place" v="farm" />
		<tag k="ssr:stedsnr" v="524137" />
	</node>
	<node lat="59.75096666293296" lon="10.607361103312055" id="-11440">
		<tag k="alt_name" v="Gjøfjell nordre" />
		<tag k="name" v="Nordre Gjøfjell" />
		<tag k="place" v="farm" />
		<tag k="ssr:stedsnr" v="524499" />
	</node>
	<node lat="59.73018333500676" lon="10.610258334293542" id="-11441">
		<tag k="name" v="Fagertun" />
		<tag k="place" v="farm" />
		<tag k="ssr:stedsnr" v="524950" />
	</node>
	<node lat="59.81994721958966" lon="10.699180558249136" id="-11442">
		<tag k="man_made" v="quay" />
		<tag k="name" v="Sørby brygge" />
		<tag k="place" v="locality" />
		<tag k="ssr:stedsnr" v="525841" />
	</node>
	<node lat="59.84604166481749" lon="10.636627780298447" id="-11443">
		<tag k="fixme" v="consider seamark:type=rock or natural=shoal" />
		<tag k="name" v="Skjæret" />
		<tag k="place" v="islet" />
		<tag k="ssr:stedsnr" v="525653" />
	</node>
	<node lat="59.84558611441568" lon="10.640747218211759" id="-11444">
		<tag k="name" v="Hagebukta" />
		<tag k="natural" v="bay" />
		<tag k="ssr:stedsnr" v="525654" />
	</node>
	<node lat="59.817616665474915" lon="10.637980558417343" id="-11445">
		<tag k="fixme" v="consider natural=peak for the most distinct mountains in the district" />
		<tag k="name" v="Totjernåsen" />
		<tag k="natural" v="hill" />
		<tag k="place" v="locality" />
		<tag k="ssr:stedsnr" v="525785" />
	</node>
	<node lat="59.78593333384446" lon="10.622530555016084" id="-11446">
		<tag k="name" v="Trommeskinnmyra" />
		<tag k="natural" v="wetland" />
		<tag k="ssr:stedsnr" v="526391" />
	</node>
	<node lat="59.84500833634685" lon="10.687233336513916" id="-11447">
		<tag k="fixme" v="consider natural=peak for the most distinct mountains in the district" />
		<tag k="name" v="Sefjell" />
		<tag k="natural" v="hill" />
		<tag k="place" v="locality" />
		<tag k="ssr:stedsnr" v="526492" />
	</node>
	<node lat="59.78558056009591" lon="10.650199992381811" id="-11448">
		<tag k="alt_name" v="Høybråten vestre" />
		<tag k="name" v="Vestre Høybråten" />
		<tag k="place" v="farm" />
		<tag k="ssr:stedsnr" v="526435" />
	</node>
	<node lat="59.807988887541306" lon="10.69604166808161" id="-11451">
		<tag k="fixme" v="consider natural=peak for the most distinct mountains in the district" />
		<tag k="name" v="Kulåsen" />
		<tag k="natural" v="hill" />
		<tag k="place" v="locality" />
		<tag k="ssr:stedsnr" v="543340" />
	</node>
	<node lat="59.73173610879844" lon="10.603041658260414" id="-11453">
		<tag k="name" v="Labråten" />
		<tag k="place" v="farm" />
		<tag k="ssr:stedsnr" v="549769" />
	</node>
	<node lat="59.809112462697335" lon="10.70353817348653" id="-11454">
		<tag k="man_made" v="quay" />
		<tag k="name" v="Presteskjær brygge" />
		<tag k="place" v="locality" />
		<tag k="ssr:stedsnr" v="550672" />
	</node>
	<node lat="59.84677221894543" lon="10.671347218647579" id="-11455">
		<tag k="alt_name" v="Skoklefall" />
		<tag k="amenity" v="place_of_worship" />
		<tag k="denomination" v="lutheran" />
		<tag k="name" v="Skoklefall kirke" />
		<tag k="religion" v="christian" />
		<tag k="ssr:stedsnr" v="550771" />
	</node>
	<node lat="59.85303333091105" lon="10.652005557043472" id="-11456">
		<tag k="fixme" v="consider place=suburb, village or hamlet" />
		<tag k="name" v="Sjøstrand" />
		<tag k="place" v="quarter" />
		<tag k="ssr:stedsnr" v="550786" />
	</node>
	<node lat="59.813302778000846" lon="10.600216673977453" id="-11457">
		<tag k="name" v="Lunkeflua" />
		<tag k="natural" v="shoal" />
		<tag k="place" v="locality" />
		<tag k="ssr:stedsnr" v="569448" />
	</node>
	<node lat="59.791722218433264" lon="10.604652769546416" id="-11458">
		<tag k="name" v="Løkkestranda" />
		<tag k="natural" v="beach" />
		<tag k="ssr:stedsnr" v="571198" />
	</node>
	<node lat="59.83745833345146" lon="10.637188897500103" id="-11460">
		<tag k="name" v="Bærodden" />
		<tag k="natural" v="cape" />
		<tag k="ssr:stedsnr" v="571344" />
	</node>
	<node lat="59.80227499753013" lon="10.609099995488423" id="-11461">
		<tag k="name" v="Sørstrand" />
		<tag k="natural" v="beach" />
		<tag k="ssr:stedsnr" v="584132" />
	</node>
	<node lat="59.84252778085386" lon="10.63534999520549" id="-11462">
		<tag k="name" v="Banken" />
		<tag k="natural" v="beach" />
		<tag k="ssr:stedsnr" v="585620" />
	</node>
	<node lat="59.84443611103995" lon="10.638674996693721" id="-11463">
		<tag k="fixme" v="consider boundary=protected_area and relevant protect_class if not nature reserve" />
		<tag k="leisure" v="nature_reserve" />
		<tag k="name" v="Ildjernet naturreservat" />
		<tag k="ssr:stedsnr" v="585621" />
	</node>
	<node lat="59.77148611459867" lon="10.687902783195847" id="-11464">
		<tag k="name" v="Haslenesset" />
		<tag k="place" v="farm" />
		<tag k="ssr:stedsnr" v="586392" />
	</node>
	<node lat="59.771863884916804" lon="10.698213886040323" id="-11465">
		<tag k="name" v="Haslerud" />
		<tag k="place" v="farm" />
		<tag k="ssr:stedsnr" v="586396" />
	</node>
	<node lat="59.76658055498319" lon="10.589308333093152" id="-11467">
		<tag k="name" v="Buksedammen" />
		<tag k="natural" v="water" />
		<tag k="ssr:stedsnr" v="585563" />
	</node>
	<node lat="59.75724999903749" lon="10.612897228043181" id="-11468">
		<tag k="alt_name" v="Langfjell nordre" />
		<tag k="name" v="Nordre Langfjell" />
		<tag k="place" v="farm" />
		<tag k="ssr:stedsnr" v="585574" />
	</node>
	<node lat="59.8354333349891" lon="10.635269452466298" id="-11469">
		<tag k="name" v="Åreverket" />
		<tag k="natural" v="beach" />
		<tag k="ssr:stedsnr" v="585864" />
	</node>
	<node lat="59.78585277721849" lon="10.642052775467251" id="-11470">
		<tag k="name" v="Bjønnhølet" />
		<tag k="natural" v="wetland" />
		<tag k="ssr:stedsnr" v="586386" />
	</node>
	<node lat="59.78156389316878" lon="10.708024995591517" id="-11471">
		<tag k="name" v="Linaro" />
		<tag k="place" v="isolated_dwelling" />
		<tag k="ssr:stedsnr" v="586399" />
	</node>
	<node lat="59.784441670497856" lon="10.654988888597599" id="-11472">
		<tag k="alt_name" v="Høybråten østre" />
		<tag k="name" v="Østre Høybråten" />
		<tag k="place" v="farm" />
		<tag k="ssr:stedsnr" v="586439" />
	</node>
	<node lat="59.843600001782704" lon="10.692016658092236" id="-11473">
		<tag k="name" v="Hellvikbukta" />
		<tag k="natural" v="bay" />
		<tag k="ssr:stedsnr" v="587527" />
	</node>
	<node lat="59.79434444276745" lon="10.613088889263487" id="-11474">
		<tag k="bridge" v="yes" />
		<tag k="layer" v="1" />
		<tag k="name" v="Vangen" />
		<tag k="ssr:stedsnr" v="592125" />
	</node>
	<node lat="59.826502774654365" lon="10.623288896931045" id="-11475">
		<tag k="name" v="Kjerringrævgrunnen" />
		<tag k="natural" v="shoal" />
		<tag k="place" v="locality" />
		<tag k="ssr:stedsnr" v="603633" />
	</node>
	<node lat="59.74470555375096" lon="10.582019438210656" id="-11476">
		<tag k="name" v="Kjerringbukta" />
		<tag k="natural" v="bay" />
		<tag k="ssr:stedsnr" v="609956" />
	</node>
	<node lat="59.77645000055542" lon="10.610063896166649" id="-11477">
		<tag k="name" v="Svenskemyr" />
		<tag k="place" v="farm" />
		<tag k="ssr:stedsnr" v="611637" />
	</node>
	<node lat="59.77518333184339" lon="10.652002786063944" id="-11478">
		<tag k="alt_name" v="Dammyra" />
		<tag k="name" v="Hokholtdammyra" />
		<tag k="place" v="farm" />
		<tag k="ssr:stedsnr" v="611642" />
	</node>
	<node lat="59.772991663732746" lon="10.674797218858652" id="-11479">
		<tag k="name" v="Gulstad" />
		<tag k="place" v="farm" />
		<tag k="ssr:stedsnr" v="611645" />
	</node>
	<node lat="59.76124722371521" lon="10.63391944518819" id="-11480">
		<tag k="name" v="Svestaddalen" />
		<tag k="natural" v="valley" />
		<tag k="place" v="locality" />
		<tag k="ssr:stedsnr" v="611663" />
	</node>
	<node lat="59.84091110762958" lon="10.649047220272868" id="-11481">
		<tag k="name" v="Varden" />
		<tag k="place" v="quarter" />
		<tag k="ssr:stedsnr" v="611793" />
	</node>
	<node lat="59.74159722046898" lon="10.631644452219904" id="-11482">
		<tag k="name" v="Tuten" />
		<tag k="place" v="farm" />
		<tag k="ssr:stedsnr" v="631122" />
	</node>
	<node lat="59.84510968668081" lon="10.632519742463934" id="-11483">
		<tag k="name" v="Lindholmen" />
		<tag k="place" v="islet" />
		<tag k="ssr:stedsnr" v="631307" />
	</node>
	<node lat="59.79691389193334" lon="10.586830564534132" id="-11484">
		<tag k="name" v="Fjellstrandbanken" />
		<tag k="natural" v="shoal" />
		<tag k="place" v="locality" />
		<tag k="ssr:stedsnr" v="631173" />
	</node>
	<node lat="59.755500003071774" lon="10.582338891527007" id="-11485">
		<tag k="alt_name" v="Skjelvika" />
		<tag k="name" v="Skjelavika" />
		<tag k="natural" v="bay" />
		<tag k="ssr:stedsnr" v="632193" />
	</node>
	<node lat="59.79651944413369" lon="10.636644446346462" id="-11486">
		<tag k="name" v="Fagerli" />
		<tag k="place" v="farm" />
		<tag k="ssr:stedsnr" v="645147" />
	</node>
	<node lat="59.79335555381148" lon="10.63527500249662" id="-11487">
		<tag k="name" v="Fjellhagen" />
		<tag k="place" v="locality" />
		<tag k="ssr:stedsnr" v="645148" />
	</node>
	<node lat="59.79513889110439" lon="10.62335276945748" id="-11488">
		<tag k="name" v="Nyborg" />
		<tag k="place" v="farm" />
		<tag k="ssr:stedsnr" v="645150" />
	</node>
	<node lat="59.787697218980426" lon="10.690091662202624" id="-11489">
		<tag k="name" v="Hesteskoen" />
		<tag k="place" v="isolated_dwelling" />
		<tag k="ssr:stedsnr" v="645165" />
	</node>
	<node lat="59.762680552981" lon="10.590172213985534" id="-11491">
		<tag k="name" v="Torghagendammen" />
		<tag k="natural" v="water" />
		<tag k="ssr:stedsnr" v="645334" />
	</node>
	<node lat="59.84604444595203" lon="10.646427784223155" id="-11492">
		<tag k="man_made" v="quay" />
		<tag k="name" v="Kavringstrand brygge" />
		<tag k="place" v="locality" />
		<tag k="ssr:stedsnr" v="645621" />
	</node>
	<node lat="59.815236109689266" lon="10.68073333595108" id="-11493">
		<tag k="name" v="Altenborg" />
		<tag k="place" v="locality" />
		<tag k="ssr:stedsnr" v="645820" />
	</node>
	<node lat="59.82916111052646" lon="10.666216673702342" id="-11494">
		<tag k="name" v="Vamyra" />
		<tag k="natural" v="wetland" />
		<tag k="ssr:stedsnr" v="645845" />
	</node>
	<node lat="59.78609444834053" lon="10.639180552340372" id="-11495">
		<tag k="loc_name" v="Nordre Granerud" />
		<tag k="name" v="Granerud nordre" />
		<tag k="place" v="farm" />
		<tag k="ssr:stedsnr" v="647413" />
	</node>
	<node lat="59.781219445511915" lon="10.705530553084413" id="-11496">
		<tag k="name" v="Grøstadbråten" />
		<tag k="place" v="farm" />
		<tag k="ssr:stedsnr" v="647417" />
	</node>
	<node lat="59.7766888908732" lon="10.62931389054108" id="-11497">
		<tag k="fixme" v="consider natural=peak for the most distinct mountains in the district" />
		<tag k="name" v="Plankefjell" />
		<tag k="natural" v="hill" />
		<tag k="place" v="locality" />
		<tag k="ssr:stedsnr" v="647445" />
	</node>
	<node lat="59.83603838319478" lon="10.675538552517418" id="-11498">
		<tag k="leisure" v="pitch" />
		<tag k="name" v="Berger idrettspark" />
		<tag k="ssr:stedsnr" v="663070" />
	</node>
	<node lat="59.81886944119418" lon="10.598127779367939" id="-11499">
		<tag k="name" v="Fyrsteilegrunnen" />
		<tag k="natural" v="shoal" />
		<tag k="place" v="locality" />
		<tag k="ssr:stedsnr" v="664626" />
	</node>
	<node lat="59.87526666649548" lon="10.72798054998397" id="-11500">
		<tag k="name" v="Nordre Langøyrabbane" />
		<tag k="natural" v="shoal" />
		<tag k="place" v="locality" />
		<tag k="ssr:stedsnr" v="664456" />
	</node>
	<node lat="59.776030553142604" lon="10.701811104054446" id="-11501">
		<tag k="alt_name" v="Bløylagdammen" />
		<tag k="name" v="Blylagdammen" />
		<tag k="natural" v="water" />
		<tag k="ssr:stedsnr" v="724736" />
	</node>
	<node lat="59.8602361150905" lon="10.665611115783499" id="-11502">
		<tag k="building" v="commercial" />
		<tag k="name" v="Granholt" />
		<tag k="ssr:stedsnr" v="724244" />
	</node>
	<node lat="59.8067098843398" lon="10.680238414248512" id="-11503">
		<tag k="fixme" v="consider place=hamlet" />
		<tag k="name" v="Løs" />
		<tag k="place" v="farm" />
		<tag k="ssr:stedsnr" v="733673" />
	</node>
	<node lat="59.81795256594476" lon="10.690772751963669" id="-11504">
		<tag k="fixme" v="consider place=hamlet" />
		<tag k="name" v="Sørby" />
		<tag k="place" v="farm" />
		<tag k="ssr:stedsnr" v="733714" />
	</node>
	<node lat="59.7624555517625" lon="10.58362777552538" id="-11505">
		<tag k="alt_name" v="Spro" />
		<tag k="fixme" v="consider place=suburb, village or hamlet" />
		<tag k="name" v="Nordre Spro" />
		<tag k="place" v="quarter" />
		<tag k="ssr:stedsnr" v="733601" />
	</node>
	<node lat="59.76597500411194" lon="10.616058335119666" id="-11506">
		<tag k="name" v="Tjernsbråtan" />
		<tag k="old_name" v="Tjernsbråten" />
		<tag k="place" v="isolated_dwelling" />
		<tag k="ssr:stedsnr" v="733602" />
	</node>
	<node lat="59.843925814937705" lon="10.63608891083154" id="-11507">
		<tag k="name" v="Ildjernet" />
		<tag k="place" v="island" />
		<tag k="ssr:stedsnr" v="733749" />
	</node>
	<node lat="59.76514999715685" lon="10.592391666155349" id="-11508">
		<tag k="name" v="Holtet" />
		<tag k="place" v="farm" />
		<tag k="ssr:stedsnr" v="753136" />
	</node>
	<node lat="59.850122222189114" lon="10.647236102509487" id="-11509">
		<tag k="alt_name" v="Kirkeskjærene" />
		<tag k="name" v="Kirkeskjæra" />
		<tag k="place" v="islet" />
		<tag k="ssr:stedsnr" v="753294" />
	</node>
	<node lat="59.76357500114071" lon="10.58300555311563" id="-11510">
		<tag k="man_made" v="quay" />
		<tag k="name" v="Nordre Spro brygge" />
		<tag k="place" v="locality" />
		<tag k="ssr:stedsnr" v="767353" />
	</node>
	<node lat="59.819638889447674" lon="10.64425000873849" id="-11511">
		<tag k="name" v="Sylta" />
		<tag k="place" v="locality" />
		<tag k="ssr:stedsnr" v="767799" />
	</node>
	<node lat="59.81573055220543" lon="10.634302780582585" id="-11512">
		<tag k="name" v="Langeleina" />
		<tag k="natural" v="valley" />
		<tag k="place" v="locality" />
		<tag k="ssr:stedsnr" v="767801" />
	</node>
	<node lat="59.81701388757852" lon="10.622758333671188" id="-11513">
		<tag k="name" v="Lalien" />
		<tag k="place" v="farm" />
		<tag k="ssr:stedsnr" v="767802" />
	</node>
	<node lat="59.78182500261229" lon="10.623630563787959" id="-11514">
		<tag k="name" v="Spirebakke" />
		<tag k="place" v="locality" />
		<tag k="ssr:stedsnr" v="769443" />
	</node>
	<node lat="59.86420277705343" lon="10.665183334897431" id="-11515">
		<tag k="name" v="Hattløkka" />
		<tag k="place" v="locality" />
		<tag k="ssr:stedsnr" v="769479" />
	</node>
	<node lat="59.8600361107422" lon="10.71270833615588" id="-11516">
		<tag k="name" v="Husbergøyflua" />
		<tag k="natural" v="shoal" />
		<tag k="place" v="locality" />
		<tag k="ssr:stedsnr" v="784408" />
	</node>
	<node lat="59.74536762592718" lon="10.632233605505869" id="-11517">
		<tag k="fixme" v="consider place=hamlet" />
		<tag k="name" v="Munkerud" />
		<tag k="place" v="farm" />
		<tag k="ssr:stedsnr" v="792933" />
	</node>
	<node lat="59.742980016153886" lon="10.612671054839714" id="-11518">
		<tag k="fixme" v="consider place=hamlet" />
		<tag k="name" v="Myklerud" />
		<tag k="place" v="farm" />
		<tag k="ssr:stedsnr" v="792936" />
	</node>
	<node lat="59.80256388837605" lon="10.66802777465646" id="-11519">
		<tag k="name" v="Slabråtan" />
		<tag k="old_name" v="Slabråten" />
		<tag k="place" v="farm" />
		<tag k="ssr:stedsnr" v="793732" />
	</node>
	<node lat="59.81636154268637" lon="10.666397604572854" id="-11520">
		<tag k="fixme" v="consider natural=peak for the most distinct mountains in the district" />
		<tag k="name" v="Haukåsen" />
		<tag k="natural" v="hill" />
		<tag k="place" v="locality" />
		<tag k="ssr:stedsnr" v="794731" />
	</node>
	<node lat="59.80673055758951" lon="10.622186109655976" id="-11521">
		<tag k="name" v="Ellingstadåsen" />
		<tag k="place" v="quarter" />
		<tag k="ssr:stedsnr" v="794743" />
	</node>
	<node lat="59.74142500021996" lon="10.581869446486374" id="-11522">
		<tag k="alt_name" v="Solbakken" />
		<tag k="name" v="Solbakke" />
		<tag k="place" v="isolated_dwelling" />
		<tag k="ssr:stedsnr" v="814158" />
	</node>
	<node lat="59.84938333443084" lon="10.724530547103903" id="-11523">
		<tag k="name" v="Vestre Skjælholmflua" />
		<tag k="natural" v="shoal" />
		<tag k="place" v="locality" />
		<tag k="ssr:stedsnr" v="814377" />
	</node>
	<node lat="59.80306944439843" lon="10.653561113677444" id="-11524">
		<tag k="name" v="Løkke" />
		<tag k="place" v="farm" />
		<tag k="ssr:stedsnr" v="828139" />
	</node>
	<node lat="59.80516388633652" lon="10.682561106670438" id="-11525">
		<tag k="alt_name" v="Løes søndre;Søndre Løes" />
		<tag k="name" v="Søndre Løs" />
		<tag k="place" v="farm" />
		<tag k="ssr:stedsnr" v="828101" />
	</node>
	<node lat="59.74214444482634" lon="10.612613894175547" id="-11526">
		<tag k="name" v="Søndre Myklerud" />
		<tag k="place" v="farm" />
		<tag k="ssr:stedsnr" v="828344" />
	</node>
	<node lat="59.76147777935651" lon="10.590044438399175" id="-11527">
		<tag k="name" v="Temsen" />
		<tag k="natural" v="water" />
		<tag k="ssr:stedsnr" v="828351" />
	</node>
	<node lat="59.81872260013585" lon="10.603392815582872" id="-11528">
		<tag k="fixme" v="consider boundary=protected_area and relevant protect_class if not nature reserve" />
		<tag k="leisure" v="nature_reserve" />
		<tag k="name" v="Knerten naturreservat" />
		<tag k="ssr:stedsnr" v="828782" />
	</node>
	<node lat="59.814144441516774" lon="10.6254527781132" id="-11529">
		<tag k="fixme" v="consider natural=peak for the most distinct mountains in the district" />
		<tag k="name" v="Korpåsen" />
		<tag k="natural" v="hill" />
		<tag k="place" v="locality" />
		<tag k="ssr:stedsnr" v="828749" />
	</node>
	<node lat="59.81295555556802" lon="10.627908330747795" id="-11530">
		<tag k="loc_name" v="Flatebybråtan" />
		<tag k="name" v="Flatebybråten" />
		<tag k="place" v="locality" />
		<tag k="ssr:stedsnr" v="828751" />
	</node>
	<node lat="59.82056388996282" lon="10.676363882326124" id="-11531">
		<tag k="name" v="Solbergbråten" />
		<tag k="place" v="farm" />
		<tag k="ssr:stedsnr" v="828834" />
	</node>
	<node lat="59.82614166690656" lon="10.685458338192783" id="-11532">
		<tag k="name" v="Luserudbråten" />
		<tag k="place" v="locality" />
		<tag k="ssr:stedsnr" v="828842" />
	</node>
	<node lat="59.827782232075506" lon="10.679588207327829" id="-11533">
		<tag k="alt_name" v="Flateby nordre" />
		<tag k="name" v="Nordre Flateby" />
		<tag k="place" v="farm" />
		<tag k="ssr:stedsnr" v="828843" />
	</node>
	<node lat="59.77925278020612" lon="10.709616662142933" id="-11534">
		<tag k="man_made" v="quay" />
		<tag k="name" v="Blylaget brygge" />
		<tag k="old_name" v="Bløylaget brygge" />
		<tag k="place" v="locality" />
		<tag k="ssr:stedsnr" v="830394" />
	</node>
	<node lat="59.78344444173614" lon="10.61376943803959" id="-11535">
		<tag k="name" v="Nylenna" />
		<tag k="place" v="farm" />
		<tag k="ssr:stedsnr" v="830416" />
	</node>
	<node lat="59.7757777742587" lon="10.624513883548138" id="-11536">
		<tag k="name" v="Storemåsan" />
		<tag k="natural" v="wetland" />
		<tag k="ssr:stedsnr" v="830418" />
	</node>
	<node lat="59.845772220009174" lon="10.691375007848352" id="-11537">
		<tag k="fixme" v="consider boundary=protected_area and relevant protect_class if not nature reserve" />
		<tag k="leisure" v="nature_reserve" />
		<tag k="name" v="Hellvik gamle brygge naturreservat" />
		<tag k="ssr:stedsnr" v="830489" />
	</node>
	<node lat="59.84283333382627" lon="10.6632055521072" id="-11538">
		<tag k="name" v="Kallestad" />
		<tag k="place" v="locality" />
		<tag k="ssr:stedsnr" v="830493" />
	</node>
	<node lat="59.83764999844177" lon="10.642569441714704" id="-11539">
		<tag k="amenity" v="nursing_home" />
		<tag k="name" v="Nesoddtunet" />
		<tag k="ssr:stedsnr" v="889873" />
	</node>
	<node lat="59.840525002425295" lon="10.642622226311977" id="-11540">
		<tag k="name" v="Håkonkastet" />
		<tag k="place" v="locality" />
		<tag k="ssr:stedsnr" v="889874" />
	</node>
	<node lat="59.7920250018063" lon="10.695638897009264" id="-11541">
		<tag k="alt_name" v="Østeråt" />
		<tag k="name" v="Østrått" />
		<tag k="place" v="isolated_dwelling" />
		<tag k="ssr:stedsnr" v="847338" />
	</node>
	<node lat="59.79948889221825" lon="10.704736116023488" id="-11542">
		<tag k="fixme" v="consider seamark:type=rock or natural=shoal" />
		<tag k="name" v="Kammerskjæret" />
		<tag k="place" v="islet" />
		<tag k="ssr:stedsnr" v="847339" />
	</node>
	<node lat="59.817486108185044" lon="10.695008334178056" id="-11543">
		<tag k="name" v="Sørbybekken" />
		<tag k="ssr:stedsnr" v="847343" />
		<tag k="waterway" v="stream" />
	</node>
	<node lat="59.791422219254585" lon="10.572058339366015" id="-11544">
		<tag k="name" v="Østre Krøklegrunnen" />
		<tag k="natural" v="shoal" />
		<tag k="place" v="locality" />
		<tag k="ssr:stedsnr" v="854623" />
	</node>
	<node lat="59.794425003078366" lon="10.620661115301933" id="-11545">
		<tag k="name" v="Nyborgdammene" />
		<tag k="natural" v="water" />
		<tag k="ssr:stedsnr" v="854624" />
	</node>
	<node lat="59.82616570081771" lon="10.674831047531084" id="-11546">
		<tag k="fixme" v="consider place=hamlet" />
		<tag k="name" v="Sandaker" />
		<tag k="place" v="farm" />
		<tag k="ssr:stedsnr" v="854699" />
	</node>
	<node lat="59.86293055710321" lon="10.67535277549817" id="-11547">
		<tag k="name" v="Vestre Oksvalflua" />
		<tag k="natural" v="shoal" />
		<tag k="place" v="locality" />
		<tag k="ssr:stedsnr" v="854783" />
	</node>
	<node lat="59.766639446730686" lon="10.65611939970778" id="-11548">
		<tag k="fixme" v="consider place=hamlet" />
		<tag k="name" v="Fundingrud" />
		<tag k="place" v="farm" />
		<tag k="ssr:stedsnr" v="855659" />
	</node>
	<node lat="59.81054810731989" lon="10.678880058400498" id="-11549">
		<tag k="alt_name" v="Røertjernet;Røertjern" />
		<tag k="name" v="Rørtjernet" />
		<tag k="natural" v="water" />
		<tag k="ssr:stedsnr" v="855717" />
	</node>
	<node lat="59.82288747568995" lon="10.654919404025174" id="-11550">
		<tag k="fixme" v="consider place=hamlet" />
		<tag k="name" v="To" />
		<tag k="place" v="farm" />
		<tag k="ssr:stedsnr" v="855754" />
	</node>
	<node lat="59.820930559217665" lon="10.6277805628473" id="-11551">
		<tag k="fixme" v="consider place=suburb, village or hamlet" />
		<tag k="name" v="Alværn" />
		<tag k="place" v="quarter" />
		<tag k="ssr:stedsnr" v="855756" />
	</node>
	<node lat="59.797966663211746" lon="10.663608336352087" id="-11552">
		<tag k="fixme" v="consider natural=peak for the most distinct mountains in the district" />
		<tag k="name" v="Naverudåsen" />
		<tag k="natural" v="hill" />
		<tag k="place" v="locality" />
		<tag k="ssr:stedsnr" v="873227" />
	</node>
	<node lat="59.846427774709035" lon="10.64533888260793" id="-11553">
		<tag k="fixme" v="consider seamark:type=rock or natural=shoal" />
		<tag k="name" v="Kavringen" />
		<tag k="place" v="islet" />
		<tag k="ssr:stedsnr" v="873228" />
	</node>
	<node lat="59.78564999838805" lon="10.70795000358853" id="-11554">
		<tag k="name" v="Smørhella" />
		<tag k="natural" v="cape" />
		<tag k="ssr:stedsnr" v="875207" />
	</node>
	<node lat="59.783238892670035" lon="10.693838889231904" id="-11555">
		<tag k="alt_name" v="Grøstad søndre" />
		<tag k="name" v="Søndre Grøstad" />
		<tag k="place" v="farm" />
		<tag k="ssr:stedsnr" v="888193" />
	</node>
	<node lat="59.79085555173534" lon="10.637666664571144" id="-11556">
		<tag k="name" v="Lunner" />
		<tag k="place" v="hamlet" />
		<tag k="ssr:stedsnr" v="888132" />
	</node>
	<node lat="59.79544166438218" lon="10.632188885006432" id="-11557">
		<tag k="name" v="Dammyra" />
		<tag k="place" v="locality" />
		<tag k="ssr:stedsnr" v="888141" />
	</node>
	<node lat="59.80460277529871" lon="10.623491657777834" id="-11558">
		<tag k="name" v="Holentjern" />
		<tag k="natural" v="water" />
		<tag k="ssr:stedsnr" v="949140" />
	</node>
	<node lat="59.80093055499465" lon="10.609552774031894" id="-11559">
		<tag k="name" v="Oreklova" />
		<tag k="natural" v="valley" />
		<tag k="place" v="locality" />
		<tag k="ssr:stedsnr" v="949146" />
	</node>
	<node lat="59.80915278158606" lon="10.691588897755095" id="-11560">
		<tag k="name" v="Kirkeåsen" />
		<tag k="place" v="hamlet" />
		<tag k="ssr:stedsnr" v="949035" />
	</node>
	<node lat="59.744644445398606" lon="10.61823333532681" id="-11561">
		<tag k="name" v="Torehølet" />
		<tag k="place" v="locality" />
		<tag k="ssr:stedsnr" v="949312" />
	</node>
	<node lat="59.7437611072268" lon="10.612638881608735" id="-11562">
		<tag k="name" v="Nordre Myklerud" />
		<tag k="place" v="farm" />
		<tag k="ssr:stedsnr" v="949313" />
	</node>
	<node lat="59.76866944239933" lon="10.633533326587362" id="-11564">
		<tag k="name" v="Høybråtaløkka" />
		<tag k="place" v="locality" />
		<tag k="ssr:stedsnr" v="949374" />
	</node>
	<node lat="59.78543333647297" lon="10.597277769266332" id="-11565">
		<tag k="name" v="Sørstrand" />
		<tag k="place" v="locality" />
		<tag k="ssr:stedsnr" v="949444" />
	</node>
	<node lat="59.7761583351041" lon="10.592044438470937" id="-11566">
		<tag k="man_made" v="quay" />
		<tag k="name" v="Svestad brygge" />
		<tag k="place" v="locality" />
		<tag k="ssr:stedsnr" v="949459" />
	</node>
	<node lat="59.77207520352276" lon="10.593082976816518" id="-11567">
		<tag k="name" v="Engsdammen" />
		<tag k="natural" v="water" />
		<tag k="ssr:stedsnr" v="949462" />
	</node>
	<node lat="59.76608055701556" lon="10.6487388903257" id="-11568">
		<tag k="name" v="Fundingrudhaugen" />
		<tag k="place" v="locality" />
		<tag k="ssr:stedsnr" v="949542" />
	</node>
	<node lat="59.77718611461344" lon="10.700675000239645" id="-11569">
		<tag k="name" v="Holmen" />
		<tag k="place" v="farm" />
		<tag k="ssr:stedsnr" v="951415" />
	</node>
	<node lat="59.8590083298179" lon="10.651944440806256" id="-11570">
		<tag k="name" v="Fiskeskjær" />
		<tag k="natural" v="beach" />
		<tag k="ssr:stedsnr" v="951450" />
	</node>
	<node lat="59.857858329228726" lon="10.677402773494334" id="-11571">
		<tag k="name" v="Raskekvartelet" />
		<tag k="natural" v="beach" />
		<tag k="ssr:stedsnr" v="951476" />
	</node>
	<node lat="59.835046108682626" lon="10.674290852800093" id="-11572">
		<tag k="leisure" v="pitch" />
		<tag k="name" v="Berger idrettspark vestre" />
		<tag k="ssr:stedsnr" v="966061" />
	</node>
	<node lat="59.84170833285144" lon="10.63264999217954" id="-11573">
		<tag k="name" v="Vestodden" />
		<tag k="natural" v="cape" />
		<tag k="ssr:stedsnr" v="966260" />
	</node>
	<node lat="59.85101944747485" lon="10.655866668550907" id="-11574">
		<tag k="name" v="Øvre Flaskebekk" />
		<tag k="place" v="isolated_dwelling" />
		<tag k="ssr:stedsnr" v="966263" />
	</node>
	<node lat="59.741457646039464" lon="10.58106373723196" id="-11576">
		<tag k="name" v="Solbakkodden" />
		<tag k="natural" v="cape" />
		<tag k="ssr:stedsnr" v="985689" />
	</node>
	<node lat="59.815500374050465" lon="10.692752005349114" id="-11578">
		<tag k="fixme" v="consider boundary=protected_area and relevant protect_class if not nature reserve" />
		<tag k="leisure" v="nature_reserve" />
		<tag k="name" v="Sørbyskogen naturreservat" />
		<tag k="ssr:stedsnr" v="1074755" />
	</node>
	<node lat="59.845198185259534" lon="10.639893039538816" id="-11582">
		<tag k="fixme" v="consider place=hamlet" />
		<tag k="name" v="Ildjernet" />
		<tag k="place" v="farm" />
		<tag k="ssr:stedsnr" v="1081449" />
	</node>
	<node lat="59.858840507990074" lon="10.66342316708211" id="-11589">
		<tag k="name" v="Nesoddtangen" />
		<tag k="place" v="village" />
		<tag k="ssr:stedsnr" v="1081977" />
	</node>
</osm>
