<?xml version="1.0" encoding="UTF-8"?>
<<<<<<< HEAD
<osm version="0.6" generator="osmapis">
	<node lat="59.792561109446034" lon="10.704969443062215" id="-10982">
		<tag k="name" v="Torskeskjær" />
		<tag k="place" v="locality" />
		<tag k="ssr:stedsnr" v="99112" />
	</node>
	<node lat="59.7781138862508" lon="10.655030550044234" id="-11003">
		<tag k="name" v="Hokholtmåsan" />
=======
<osm generator="osmapis" version="0.6">
	<node id="-247039" lat="59.8267611101" lon="10.6551805542">
		<tag k="name" v="Treskomyra" />
		<tag k="natural" v="wetland" />
		<tag k="ssr:stedsnr" v="464833" />
	</node>
	<node id="-247226" lat="59.8042361117" lon="10.6152916687">
		<tag k="name" v="Signalmyra" />
		<tag k="natural" v="wetland" />
		<tag k="ssr:stedsnr" v="888107" />
	</node>
	<node id="-247539" lat="59.8386277755" lon="10.6648888926">
		<tag k="name" v="Haukemyr" />
		<tag k="natural" v="wetland" />
		<tag k="ssr:stedsnr" v="951487" />
	</node>
	<node id="-246931" lat="59.8131805573" lon="10.6472305495">
		<tag k="name" v="Haukemåsan" />
		<tag k="natural" v="wetland" />
		<tag k="ssr:stedsnr" v="221757" />
	</node>
	<node id="-247406" lat="59.7859333338" lon="10.622530555">
		<tag k="name" v="Trommeskinnmyra" />
>>>>>>> e1d4bc35ff8a6074a6f2e91616a996b547c36f15
		<tag k="natural" v="wetland" />
		<tag k="ssr:stedsnr" v="266227" />
	</node>
<<<<<<< HEAD
	<node lat="59.802283334256224" lon="10.632397213842744" id="-11009">
		<tag k="name" v="Mastemyr" />
=======
	<node id="-247148" lat="59.7944138904" lon="10.6674972223">
		<tag k="name" v="Grøstadmåsan" />
>>>>>>> e1d4bc35ff8a6074a6f2e91616a996b547c36f15
		<tag k="natural" v="wetland" />
		<tag k="ssr:stedsnr" v="221122" />
	</node>
<<<<<<< HEAD
	<node lat="59.83149721544531" lon="10.632666693022953" id="-11016">
		<tag k="name" v="Bonden" />
		<tag k="natural" v="stone" />
		<tag k="ssr:stedsnr" v="450342" />
	</node>
	<node lat="59.82676111007562" lon="10.655180554206012" id="-11052">
		<tag k="name" v="Treskomyra" />
=======
	<node id="-247010" lat="59.8379916642" lon="10.6569166629">
		<tag k="name" v="Kjerringgravmyr" />
		<tag k="natural" v="wetland" />
		<tag k="ssr:stedsnr" v="282614" />
	</node>
	<node id="-247136" lat="59.824030557" lon="10.6328555569">
		<tag k="name" v="Brenningmyr" />
>>>>>>> e1d4bc35ff8a6074a6f2e91616a996b547c36f15
		<tag k="natural" v="wetland" />
		<tag k="ssr:stedsnr" v="464833" />
	</node>
<<<<<<< HEAD
	<node lat="59.81831110821562" lon="10.663463885181903" id="-11055">
		<tag k="name" v="Moltemyr" />
=======
	<node id="-247519" lat="59.7757777743" lon="10.6245138835">
		<tag k="name" v="Storemåsan" />
>>>>>>> e1d4bc35ff8a6074a6f2e91616a996b547c36f15
		<tag k="natural" v="wetland" />
		<tag k="ssr:stedsnr" v="464850" />
	</node>
<<<<<<< HEAD
	<node lat="59.812141665035156" lon="10.673463896029189" id="-11056">
		<tag k="landuse" v="meadow" />
		<tag k="name" v="Linenga" />
		<tag k="ssr:stedsnr" v="464852" />
	</node>
	<node lat="59.79325000003675" lon="10.666636106940624" id="-11062">
		<tag k="name" v="Viborgløkka" />
=======
	<node id="-247133" lat="59.8010861137" lon="10.6845861081">
		<tag k="name" v="Enebøl" />
		<tag k="place" v="locality" />
		<tag k="ssr:stedsnr" v="707048" />
	</node>
	<node id="-247515" lat="59.7736416636" lon="10.6730138895">
		<tag k="name" v="Stupinn" />
>>>>>>> e1d4bc35ff8a6074a6f2e91616a996b547c36f15
		<tag k="place" v="locality" />
		<tag k="ssr:stedsnr" v="342113" />
	</node>
<<<<<<< HEAD
	<node lat="59.784558329857454" lon="10.679224992273191" id="-11081">
		<tag k="name" v="Blankemyr" />
=======
	<node id="-246995" lat="59.8064499998" lon="10.6382361197">
		<tag k="name" v="Springdalsmyr" />
>>>>>>> e1d4bc35ff8a6074a6f2e91616a996b547c36f15
		<tag k="natural" v="wetland" />
		<tag k="ssr:stedsnr" v="403170" />
	</node>
	<node lat="59.826158335089914" lon="10.644338880878752" id="-11123">
		<tag k="name" v="Tomåsan" />
		<tag k="natural" v="wetland" />
		<tag k="ssr:stedsnr" v="490727" />
	</node>
<<<<<<< HEAD
	<node lat="59.77401944764298" lon="10.642505556625975" id="-11131">
=======
	<node id="-247118" lat="59.7740194476" lon="10.6425055566">
>>>>>>> e1d4bc35ff8a6074a6f2e91616a996b547c36f15
		<tag k="name" v="Lusetjern" />
		<tag k="natural" v="wetland" />
		<tag k="ssr:stedsnr" v="526418" />
	</node>
<<<<<<< HEAD
	<node lat="59.79441389036382" lon="10.66749722226478" id="-11142">
		<tag k="name" v="Grøstadmåsan" />
=======
	<node id="-247498" lat="59.8094833308" lon="10.6405416754">
		<tag k="name" v="Oremyr" />
>>>>>>> e1d4bc35ff8a6074a6f2e91616a996b547c36f15
		<tag k="natural" v="wetland" />
		<tag k="ssr:stedsnr" v="584118" />
	</node>
<<<<<<< HEAD
	<node lat="59.81289444887374" lon="10.670041669006418" id="-11145">
		<tag k="name" v="Bjørnestein" />
		<tag k="natural" v="stone" />
		<tag k="ssr:stedsnr" v="585812" />
	</node>
	<node lat="59.795400001856386" lon="10.652074997415808" id="-11153">
		<tag k="name" v="Svennemåsan" />
=======
	<node id="-247095" lat="59.812141665" lon="10.673463896">
		<tag k="landuse" v="meadow" />
		<tag k="name" v="Linenga" />
		<tag k="ssr:stedsnr" v="464852" />
	</node>
	<node id="-246984" lat="59.7781138863" lon="10.65503055">
		<tag k="name" v="Hokholtmåsan" />
>>>>>>> e1d4bc35ff8a6074a6f2e91616a996b547c36f15
		<tag k="natural" v="wetland" />
		<tag k="ssr:stedsnr" v="611710" />
	</node>
<<<<<<< HEAD
	<node lat="59.80108611368547" lon="10.684586108060593" id="-11176">
		<tag k="name" v="Enebøl" />
=======
	<node id="-246975" lat="59.7925611094" lon="10.7049694431">
		<tag k="name" v="Torskeskjær" />
>>>>>>> e1d4bc35ff8a6074a6f2e91616a996b547c36f15
		<tag k="place" v="locality" />
		<tag k="ssr:stedsnr" v="707048" />
	</node>
<<<<<<< HEAD
	<node lat="59.82403055699329" lon="10.632855556872968" id="-11180">
		<tag k="name" v="Brenningmyr" />
=======
	<node id="-247357" lat="59.7770916711" lon="10.6632111042">
		<tag k="name" v="Langemyr" />
>>>>>>> e1d4bc35ff8a6074a6f2e91616a996b547c36f15
		<tag k="natural" v="wetland" />
		<tag k="ssr:stedsnr" v="707834" />
	</node>
	<node lat="59.815894443556445" lon="10.662219444080808" id="-11211">
		<tag k="name" v="Rugbråtemyr" />
		<tag k="natural" v="wetland" />
		<tag k="ssr:stedsnr" v="767841" />
	</node>
<<<<<<< HEAD
	<node lat="59.78611388684312" lon="10.616730562332506" id="-11213">
=======
	<node id="-247484" lat="59.7861138868" lon="10.6167305623">
>>>>>>> e1d4bc35ff8a6074a6f2e91616a996b547c36f15
		<tag k="name" v="Lauvåsmyra" />
		<tag k="natural" v="wetland" />
		<tag k="ssr:stedsnr" v="769402" />
	</node>
<<<<<<< HEAD
	<node lat="59.80948333084773" lon="10.640541675355456" id="-11227">
		<tag k="name" v="Oremyr" />
		<tag k="natural" v="wetland" />
		<tag k="ssr:stedsnr" v="828120" />
	</node>
	<node lat="59.773641663643524" lon="10.67301388950367" id="-11238">
		<tag k="name" v="Stupinn" />
		<tag k="place" v="locality" />
		<tag k="ssr:stedsnr" v="830387" />
	</node>
	<node lat="59.7662472245808" lon="10.586497230773737" id="-11246">
=======
	<node id="-247482" lat="59.8158944436" lon="10.6622194441">
		<tag k="name" v="Rugbråtemyr" />
		<tag k="natural" v="wetland" />
		<tag k="ssr:stedsnr" v="767841" />
	</node>
	<node id="-247351" lat="59.79325" lon="10.6666361069">
		<tag k="name" v="Viborgløkka" />
		<tag k="place" v="locality" />
		<tag k="ssr:stedsnr" v="342113" />
	</node>
	<node id="-247344" lat="59.7540250002" lon="10.6151277704">
		<tag k="alt_name" v="Gjøfjellmåsan" />
		<tag k="name" v="Gjøfjellsmåsan" />
		<tag k="natural" v="wetland" />
		<tag k="ssr:stedsnr" v="308626" />
	</node>
	<node id="-247465" lat="59.8291611105" lon="10.6662166737">
		<tag k="name" v="Vamyra" />
		<tag k="natural" v="wetland" />
		<tag k="ssr:stedsnr" v="645845" />
	</node>
	<node id="-247208" lat="59.7662472246" lon="10.5864972308">
>>>>>>> e1d4bc35ff8a6074a6f2e91616a996b547c36f15
		<tag k="landuse" v="quarry" />
		<tag k="loc_name" v="Spro Stenknuseri" />
		<tag k="name" v="Gruva" />
		<tag k="ssr:stedsnr" v="935152" />
	</node>
<<<<<<< HEAD
	<node lat="59.8042361116573" lon="10.615291668675319" id="-11248">
		<tag k="name" v="Signalmyra" />
=======
	<node id="-247077" lat="59.7845583299" lon="10.6792249923">
		<tag k="name" v="Blankemyr" />
>>>>>>> e1d4bc35ff8a6074a6f2e91616a996b547c36f15
		<tag k="natural" v="wetland" />
		<tag k="ssr:stedsnr" v="888107" />
	</node>
	<node lat="59.83862777548453" lon="10.664888892562235" id="-11266">
		<tag k="name" v="Haukemyr" />
		<tag k="natural" v="wetland" />
		<tag k="ssr:stedsnr" v="951487" />
	</node>
	<node lat="59.730736114952634" lon="10.634708336429219" id="-11333">
		<tag k="name" v="Agnormåsan" />
		<tag k="natural" v="wetland" />
		<tag k="ssr:stedsnr" v="160420" />
	</node>
<<<<<<< HEAD
	<node lat="59.8131805572622" lon="10.647230549539607" id="-11364">
		<tag k="name" v="Haukemåsan" />
		<tag k="natural" v="wetland" />
		<tag k="ssr:stedsnr" v="221757" />
	</node>
	<node lat="59.806449999821446" lon="10.638236119683153" id="-11373">
		<tag k="name" v="Springdalsmyr" />
=======
	<node id="-247452" lat="59.7933555538" lon="10.6352750025">
		<tag k="name" v="Fjellhagen" />
		<tag k="place" v="locality" />
		<tag k="ssr:stedsnr" v="645148" />
	</node>
	<node id="-247065" lat="59.8261583351" lon="10.6443388809">
		<tag k="name" v="Tomåsan" />
>>>>>>> e1d4bc35ff8a6074a6f2e91616a996b547c36f15
		<tag k="natural" v="wetland" />
		<tag k="ssr:stedsnr" v="282137" />
	</node>
<<<<<<< HEAD
	<node lat="59.83799166421914" lon="10.656916662877974" id="-11376">
		<tag k="name" v="Kjerringgravmyr" />
=======
	<node id="-247317" lat="59.730736115" lon="10.6347083364">
		<tag k="name" v="Agnormåsan" />
>>>>>>> e1d4bc35ff8a6074a6f2e91616a996b547c36f15
		<tag k="natural" v="wetland" />
		<tag k="ssr:stedsnr" v="282614" />
	</node>
<<<<<<< HEAD
	<node lat="59.75402500018456" lon="10.615127770396013" id="-11386">
		<tag k="alt_name" v="Gjøfjellmåsan" />
		<tag k="name" v="Gjøfjellsmåsan" />
=======
	<node id="-247443" lat="59.7954000019" lon="10.6520749974">
		<tag k="name" v="Svennemåsan" />
>>>>>>> e1d4bc35ff8a6074a6f2e91616a996b547c36f15
		<tag k="natural" v="wetland" />
		<tag k="ssr:stedsnr" v="308626" />
	</node>
<<<<<<< HEAD
	<node lat="59.77709167111765" lon="10.663211104176614" id="-11395">
		<tag k="name" v="Langemyr" />
		<tag k="natural" v="wetland" />
		<tag k="ssr:stedsnr" v="342187" />
	</node>
	<node lat="59.78593333384446" lon="10.622530555016084" id="-11446">
		<tag k="name" v="Trommeskinnmyra" />
=======
	<node id="-247042" lat="59.8183111082" lon="10.6634638852">
		<tag k="name" v="Moltemyr" />
		<tag k="natural" v="wetland" />
		<tag k="ssr:stedsnr" v="464850" />
	</node>
	<node id="-246919" lat="59.8022833343" lon="10.6323972138">
		<tag k="name" v="Mastemyr" />
>>>>>>> e1d4bc35ff8a6074a6f2e91616a996b547c36f15
		<tag k="natural" v="wetland" />
		<tag k="ssr:stedsnr" v="526391" />
	</node>
<<<<<<< HEAD
	<node lat="59.78585277721849" lon="10.642052775467251" id="-11470">
=======
	<node id="-247430" lat="59.7858527772" lon="10.6420527755">
>>>>>>> e1d4bc35ff8a6074a6f2e91616a996b547c36f15
		<tag k="name" v="Bjønnhølet" />
		<tag k="natural" v="wetland" />
		<tag k="ssr:stedsnr" v="586386" />
	</node>
<<<<<<< HEAD
	<node lat="59.79335555381148" lon="10.63527500249662" id="-11487">
		<tag k="name" v="Fjellhagen" />
		<tag k="place" v="locality" />
		<tag k="ssr:stedsnr" v="645148" />
	</node>
	<node lat="59.82916111052646" lon="10.666216673702342" id="-11494">
		<tag k="name" v="Vamyra" />
		<tag k="natural" v="wetland" />
		<tag k="ssr:stedsnr" v="645845" />
	</node>
	<node lat="59.7757777742587" lon="10.624513883548138" id="-11536">
		<tag k="name" v="Storemåsan" />
		<tag k="natural" v="wetland" />
		<tag k="ssr:stedsnr" v="830418" />
	</node>
=======
	<node id="-247426" lat="59.8128944489" lon="10.670041669">
		<tag k="name" v="Bjørnestein" />
		<tag k="natural" v="stone" />
		<tag k="ssr:stedsnr" v="585812" />
	</node>
>>>>>>> e1d4bc35ff8a6074a6f2e91616a996b547c36f15
</osm>
