<?xml version="1.0" encoding="UTF-8"?>
<osm version="0.6" generator="osmapis">
	<node lat="69.47701571588424" lon="25.523992406987187" id="-105731">
		<tag k="name" v="Oalgejotguolbba" />
		<tag k="name:se" v="Oalgejotguolbba" />
		<tag k="ssr:date" v="2019-12-27" />
		<tag k="ssr:gruppe" v="veg" />
		<tag k="ssr:hovedgruppe" v="infrastruktur" />
		<tag k="ssr:stedsnr" v="1055321" />
		<tag k="ssr:type" v="adressenavn" />
	</node>
	<node lat="69.45688543571691" lon="25.511557910407646" id="-105751">
		<tag k="name" v="Gaskavuovdi" />
		<tag k="name:se" v="Gaskavuovdi" />
		<tag k="ssr:date" v="2019-12-27" />
		<tag k="ssr:gruppe" v="veg" />
		<tag k="ssr:hovedgruppe" v="infrastruktur" />
		<tag k="ssr:stedsnr" v="1055435" />
		<tag k="ssr:type" v="adressenavn" />
	</node>
	<node lat="69.0860812606311" lon="25.31742170062234" id="-105837">
		<tag k="name" v="Čalbmebealskáidi" />
		<tag k="name:se" v="Čalbmebealskáidi" />
		<tag k="ssr:date" v="2021-03-29" />
		<tag k="ssr:gruppe" v="veg" />
		<tag k="ssr:hovedgruppe" v="infrastruktur" />
		<tag k="ssr:stedsnr" v="1080674" />
		<tag k="ssr:type" v="adressenavn" />
	</node>
	<node lat="69.2725134867857" lon="25.08364118541237" id="-105838">
		<tag k="name" v="Buortnavárjeaggi" />
		<tag k="name:se" v="Buortnavárjeaggi" />
		<tag k="ssr:date" v="2021-03-29" />
		<tag k="ssr:gruppe" v="veg" />
		<tag k="ssr:hovedgruppe" v="infrastruktur" />
		<tag k="ssr:stedsnr" v="1080675" />
		<tag k="ssr:type" v="adressenavn" />
	</node>
	<node lat="69.00850596683502" lon="25.503554147696896" id="-105839">
		<tag k="name" v="Ássuorčielgi" />
		<tag k="name:se" v="Ássuorčielgi" />
		<tag k="ssr:date" v="2021-04-30" />
		<tag k="ssr:gruppe" v="veg" />
		<tag k="ssr:hovedgruppe" v="infrastruktur" />
		<tag k="ssr:stedsnr" v="1081063" />
		<tag k="ssr:type" v="adressenavn" />
	</node>
	<node lat="69.15723041392252" lon="25.462227799939313" id="-105840">
		<tag k="name" v="Mássuorbmi" />
		<tag k="name:se" v="Mássuorbmi" />
		<tag k="ssr:date" v="2021-07-07" />
		<tag k="ssr:gruppe" v="veg" />
		<tag k="ssr:hovedgruppe" v="infrastruktur" />
		<tag k="ssr:stedsnr" v="1081780" />
		<tag k="ssr:type" v="adressenavn" />
	</node>
</osm>
