<?xml version="1.0" encoding="UTF-8"?>
<osm generator="osmapis" version="0.6">
	<node id="-32509" lat="60.6596499971" lon="11.3495166754">
		<tag k="amenity" v="community_centre" />
		<tag k="name" v="Foss" />
		<tag k="ssr:stedsnr" v="831292" />
	</node>
	<node id="-32246" lat="60.7589888885" lon="11.079744447">
		<tag k="name" v="Atlungstad brenneri" />
		<tag k="old_name" v="Stange brenneri" />
		<tag k="ssr:stedsnr" v="587553" />
		<tag k="tourism" v="museum" />
	</node>
	<node id="-31220" lat="60.7829333375" lon="11.1145888926">
		<tag k="amenity" v="community_centre" />
		<tag k="name" v="Kjonerud" />
		<tag k="ssr:stedsnr" v="907100" />
	</node>
	<node id="-30589" lat="60.5797805562" lon="11.274219436">
		<tag k="amenity" v="community_centre" />
		<tag k="name" v="Nordvang" />
		<tag k="ssr:stedsnr" v="301367" />
	</node>
	<node id="-30444" lat="60.7526861149" lon="11.1559972226">
		<tag k="amenity" v="community_centre" />
		<tag k="name" v="Kløfta" />
		<tag k="ssr:stedsnr" v="163225" />
	</node>
	<node id="-31849" lat="60.7516611122" lon="11.2612944536">
		<tag k="amenity" v="place_of_worship" />
		<tag k="denomination" v="lutheran" />
		<tag k="name" v="Romedal kirke" />
		<tag k="religion" v="christian" />
		<tag k="ssr:stedsnr" v="191972" />
	</node>
	<node id="-31847" lat="60.7573388879" lon="11.1447111129">
		<tag k="amenity" v="place_of_worship" />
		<tag k="denomination" v="lutheran" />
		<tag k="name" v="Ottestad kirke" />
		<tag k="religion" v="christian" />
		<tag k="ssr:stedsnr" v="191940" />
	</node>
	<node id="-31718" lat="60.7521583317" lon="11.2665249929">
		<tag k="amenity" v="community_centre" />
		<tag k="name" v="Herredsvang" />
		<tag k="ssr:stedsnr" v="130981" />
	</node>
	<node id="-30949" lat="60.7002777747" lon="11.326174999">
		<tag k="amenity" v="community_centre" />
		<tag k="name" v="Egerom" />
		<tag k="ssr:stedsnr" v="709510" />
	</node>
	<node id="-31324" lat="60.7097888917" lon="11.1358388818">
		<tag k="amenity" v="place_of_worship" />
		<tag k="denomination" v="lutheran" />
		<tag k="name" v="Stange kirke" />
		<tag k="religion" v="christian" />
		<tag k="ssr:stedsnr" v="856567" />
	</node>
	<node id="-32471" lat="60.7573083373" lon="11.3798277746">
		<tag k="name" v="Brunstadkoia" />
		<tag k="place" v="locality" />
		<tag k="ssr:stedsnr" v="798952" />
	</node>
	<node id="-31169" lat="60.6780333319" lon="11.345063884">
		<tag k="amenity" v="community_centre" />
		<tag k="name" v="Folkets hus" />
		<tag k="ssr:stedsnr" v="891480" />
	</node>
	<node id="-30656" lat="60.7887527787" lon="11.1211972159">
		<tag k="amenity" v="place_of_worship" />
		<tag k="denomination" v="lutheran" />
		<tag k="name" v="Utvandrerkirken" />
		<tag k="religion" v="christian" />
		<tag k="ssr:stedsnr" v="359706" />
	</node>
	<node id="-30653" lat="60.6829833375" lon="11.169005557">
		<tag k="name" v="Balberg" />
		<tag k="ssr:stedsnr" v="359064" />
		<tag k="tourism" v="museum" />
	</node>
	<node id="-31035" lat="60.7796638897" lon="11.1593722216">
		<tag k="amenity" v="place_of_worship" />
		<tag k="denomination" v="lutheran" />
		<tag k="name" v="Sanderud kapell" />
		<tag k="religion" v="christian" />
		<tag k="ssr:stedsnr" v="723685" />
	</node>
	<node id="-31418" lat="60.5137305579" lon="11.2475527854">
		<tag k="amenity" v="place_of_worship" />
		<tag k="denomination" v="lutheran" />
		<tag k="name" v="Strandlykkja kirke" />
		<tag k="religion" v="christian" />
		<tag k="ssr:stedsnr" v="6531" />
	</node>
	<node id="-31537" lat="60.7170722193" lon="11.1900777696">
		<tag k="amenity" v="community_centre" />
		<tag k="name" v="Tingvoll" />
		<tag k="ssr:stedsnr" v="59636" />
	</node>
	<node id="-31519" lat="60.7394444463" lon="11.3648416705">
		<tag k="amenity" v="community_centre" />
		<tag k="name" v="Folkets hus" />
		<tag k="ssr:stedsnr" v="57373" />
	</node>
	<node id="-31774" lat="60.787997222" lon="11.1221833259">
		<tag k="name" v="Norsk Utvandrermuseum" />
		<tag k="ssr:stedsnr" v="179101" />
		<tag k="tourism" v="museum" />
	</node>
	<node id="-32261" lat="60.5111694403" lon="11.2487916609">
		<tag k="amenity" v="community_centre" />
		<tag k="name" v="Mostue" />
		<tag k="ssr:stedsnr" v="600266" />
	</node>
	<node id="-32410" lat="60.7409472179" lon="11.3663361029">
		<tag k="alt_name" v="Hekne skolekapell" />
		<tag k="amenity" v="place_of_worship" />
		<tag k="denomination" v="lutheran" />
		<tag k="name" v="Åsbygda kapell" />
		<tag k="religion" v="christian" />
		<tag k="ssr:stedsnr" v="783693" />
	</node>
	<node id="-32280" lat="60.6692972206" lon="11.2995833338">
		<tag k="amenity" v="community_centre" />
		<tag k="name" v="Håkenrud" />
		<tag k="ssr:stedsnr" v="604513" />
	</node>
	<node id="-30608" lat="60.7147444441" lon="11.1915861154">
		<tag k="amenity" v="place_of_worship" />
		<tag k="fixme" v="specify religion=*, denomination=*, building=* etc" />
		<tag k="name" v="Vollbo menighetssenter" />
		<tag k="ssr:stedsnr" v="480706" />
	</node>
	<node id="-30338" lat="60.7012250039" lon="11.3285777795">
		<tag k="amenity" v="place_of_worship" />
		<tag k="denomination" v="lutheran" />
		<tag k="name" v="Vallset kirke" />
		<tag k="religion" v="christian" />
		<tag k="ssr:stedsnr" v="68522" />
	</node>
	<node id="-32265" lat="60.6179166656" lon="11.2646083272">
		<tag k="amenity" v="place_of_worship" />
		<tag k="denomination" v="lutheran" />
		<tag k="name" v="Tangen kirke" />
		<tag k="religion" v="christian" />
		<tag k="ssr:stedsnr" v="600678" />
	</node>
	<node id="-31493" lat="60.4953722207" lon="11.3191944466">
		<tag k="amenity" v="community_centre" />
		<tag k="name" v="Spitalen velhus" />
		<tag k="ssr:stedsnr" v="41966" />
	</node>
	<node id="-30466" lat="60.7097583369" lon="11.3755500065">
		<tag k="amenity" v="community_centre" />
		<tag k="name" v="Åsen" />
		<tag k="ssr:stedsnr" v="283247" />
	</node>
</osm>
