<?xml version="1.0" encoding="UTF-8"?>
<osm version="0.6" generator="osmapis">
	<node lat="60.61570278077312" lon="11.29269166422574" id="-23870">
		<tag k="name" v="Korpberget" />
		<tag k="natural" v="hill" />
		<tag k="place" v="locality" />
		<tag k="ssr:stedsnr" v="40441" />
	</node>
	<node lat="60.612083337341815" lon="11.29708332502476" id="-23871">
		<tag k="name" v="Dønnumsberget" />
		<tag k="natural" v="hill" />
		<tag k="place" v="locality" />
		<tag k="ssr:stedsnr" v="40444" />
	</node>
	<node lat="60.50474722598689" lon="11.303752781271788" id="-23912">
		<tag k="name" v="Nedre Hagalia" />
		<tag k="natural" v="slope" />
		<tag k="place" v="locality" />
		<tag k="ssr:stedsnr" v="240956" />
	</node>
	<node lat="60.49652499566282" lon="11.24698056390981" id="-23919">
		<tag k="name" v="Budalen" />
		<tag k="natural" v="valley" />
		<tag k="place" v="locality" />
		<tag k="ssr:stedsnr" v="67418" />
	</node>
	<node lat="60.58596666372788" lon="11.56913055202506" id="-23941">
		<tag k="name" v="Styggdalen" />
		<tag k="natural" v="valley" />
		<tag k="place" v="locality" />
		<tag k="ssr:stedsnr" v="99724" />
	</node>
	<node lat="60.6073638902854" lon="11.288291658441933" id="-23947">
		<tag k="fixme" v="consider natural=peak for the most distinct mountains in the district" />
		<tag k="name" v="Korsødegårdsberget" />
		<tag k="natural" v="hill" />
		<tag k="place" v="locality" />
		<tag k="ssr:stedsnr" v="101418" />
	</node>
	<node lat="60.49678611259546" lon="11.314016670891668" id="-23961">
		<tag k="name" v="Spitalslia" />
		<tag k="natural" v="slope" />
		<tag k="place" v="locality" />
		<tag k="ssr:stedsnr" v="102972" />
	</node>
	<node lat="60.491797219540516" lon="11.341486114806784" id="-23962">
		<tag k="name" v="Raskerudlia" />
		<tag k="natural" v="slope" />
		<tag k="place" v="locality" />
		<tag k="ssr:stedsnr" v="102980" />
	</node>
	<node lat="60.61778889290569" lon="11.533127784654758" id="-23964">
		<tag k="name" v="Nordrumsdalen" />
		<tag k="natural" v="valley" />
		<tag k="place" v="locality" />
		<tag k="ssr:stedsnr" v="103696" />
	</node>
	<node lat="60.53937777485273" lon="11.427808324622072" id="-24001">
		<tag k="name" v="Eltonhøgberget" />
		<tag k="natural" v="hill" />
		<tag k="place" v="locality" />
		<tag k="ssr:stedsnr" v="116625" />
	</node>
	<node lat="60.60440277388395" lon="11.452958333395857" id="-24015">
		<tag k="name" v="Sutterberget" />
		<tag k="natural" v="hill" />
		<tag k="place" v="locality" />
		<tag k="ssr:stedsnr" v="119710" />
	</node>
	<node lat="60.57616666955474" lon="11.444211103722838" id="-24016">
		<tag k="name" v="Spillmannsberget" />
		<tag k="natural" v="hill" />
		<tag k="place" v="locality" />
		<tag k="ssr:stedsnr" v="119718" />
	</node>
	<node lat="60.549452779691414" lon="11.475919451297305" id="-24023">
		<tag k="fixme" v="multiple name tags, choose one and add the other to alt_name" />
		<tag k="name" v="Tronshatten;Trauberget" />
		<tag k="natural" v="hill" />
		<tag k="place" v="locality" />
		<tag k="ssr:stedsnr" v="128100" />
	</node>
	<node lat="60.559950000509964" lon="11.326380550392482" id="-24087">
		<tag k="fixme" v="consider natural=peak for the most distinct mountains in the district" />
		<tag k="name" v="Gransjøhøgda" />
		<tag k="natural" v="hill" />
		<tag k="place" v="locality" />
		<tag k="ssr:stedsnr" v="189364" />
	</node>
	<node lat="60.61156666320241" lon="11.419911107179042" id="-24090">
		<tag k="name" v="Skoberget" />
		<tag k="natural" v="hill" />
		<tag k="place" v="locality" />
		<tag k="ssr:stedsnr" v="189395" />
	</node>
	<node lat="60.644130559986756" lon="11.610591663088536" id="-24095">
		<tag k="fixme" v="multiple name tags, choose one and add the other to alt_name" />
		<tag k="name" v="Gransjøberget;Hølsjøberget" />
		<tag k="natural" v="hill" />
		<tag k="place" v="locality" />
		<tag k="ssr:stedsnr" v="189290" />
	</node>
	<node lat="60.54125555416823" lon="11.330772227263152" id="-24110">
		<tag k="name" v="Søthølslia" />
		<tag k="natural" v="slope" />
		<tag k="place" v="locality" />
		<tag k="ssr:stedsnr" v="222176" />
	</node>
	<node lat="60.59476944109802" lon="11.369958330450151" id="-24119">
		<tag k="name" v="Koieberget" />
		<tag k="natural" v="hill" />
		<tag k="place" v="locality" />
		<tag k="ssr:stedsnr" v="223188" />
	</node>
	<node lat="60.68929444868268" lon="11.545341669147374" id="-24121">
		<tag k="name" v="Skallberget" />
		<tag k="natural" v="slope" />
		<tag k="place" v="locality" />
		<tag k="ssr:stedsnr" v="224202" />
	</node>
	<node lat="60.543513890354156" lon="11.41091667570041" id="-24124">
		<tag k="name" v="Dopskytterberget" />
		<tag k="natural" v="hill" />
		<tag k="place" v="locality" />
		<tag k="ssr:stedsnr" v="224248" />
	</node>
	<node lat="60.51488889289765" lon="11.485497230153147" id="-24129">
		<tag k="name" v="Krafshølslia" />
		<tag k="natural" v="slope" />
		<tag k="place" v="locality" />
		<tag k="ssr:stedsnr" v="237595" />
	</node>
	<node lat="60.639941667988545" lon="11.37391667322372" id="-24139">
		<tag k="name" v="Muggerudsberget" />
		<tag k="natural" v="hill" />
		<tag k="place" v="locality" />
		<tag k="ssr:stedsnr" v="241282" />
	</node>
	<node lat="60.52821944014567" lon="11.488627772623305" id="-24158">
		<tag k="name" v="Nordre Rasaberget" />
		<tag k="natural" v="slope" />
		<tag k="place" v="locality" />
		<tag k="ssr:stedsnr" v="281188" />
	</node>
	<node lat="60.662852775978486" lon="11.440694446095945" id="-24174">
		<tag k="name" v="Svartkulplia" />
		<tag k="natural" v="slope" />
		<tag k="place" v="locality" />
		<tag k="ssr:stedsnr" v="284889" />
	</node>
	<node lat="60.598316670540406" lon="11.547497225940848" id="-24177">
		<tag k="fixme" v="consider natural=peak for the most distinct mountains in the district" />
		<tag k="name" v="Kerstiberget" />
		<tag k="natural" v="hill" />
		<tag k="place" v="locality" />
		<tag k="ssr:stedsnr" v="285977" />
	</node>
	<node lat="60.558036112444675" lon="11.525069452614115" id="-24179">
		<tag k="fixme" v="consider natural=peak for the most distinct mountains in the district" />
		<tag k="name" v="Ormtjennsberget" />
		<tag k="natural" v="hill" />
		<tag k="place" v="locality" />
		<tag k="ssr:stedsnr" v="298574" />
	</node>
	<node lat="60.60873055428374" lon="11.35391388773249" id="-24190">
		<tag k="name" v="Storsveberget" />
		<tag k="natural" v="hill" />
		<tag k="place" v="locality" />
		<tag k="ssr:stedsnr" v="300400" />
	</node>
	<node lat="60.5813000009302" lon="11.567150002786255" id="-24201">
		<tag k="name" v="Helveteslia" />
		<tag k="natural" v="slope" />
		<tag k="place" v="locality" />
		<tag k="ssr:stedsnr" v="301787" />
	</node>
	<node lat="60.658011111062685" lon="11.172424991086647" id="-24206">
		<tag k="name" v="Ingvaldhaugen" />
		<tag k="natural" v="hill" />
		<tag k="place" v="locality" />
		<tag k="ssr:stedsnr" v="464046" />
	</node>
	<node lat="60.49875555508402" lon="11.250244446091385" id="-24210">
		<tag k="name" v="Nedre Fallhøgda" />
		<tag k="natural" v="hill" />
		<tag k="place" v="locality" />
		<tag k="ssr:stedsnr" v="464279" />
	</node>
	<node lat="60.518258331170316" lon="11.35090555631595" id="-24225">
		<tag k="alt_name" v="Kjernlikampen" />
		<tag k="name" v="Tjernlikampen" />
		<tag k="natural" v="hill" />
		<tag k="place" v="locality" />
		<tag k="ssr:stedsnr" v="310495" />
	</node>
	<node lat="60.57602222031716" lon="11.364074999848516" id="-24242">
		<tag k="name" v="Svartputtlia" />
		<tag k="natural" v="slope" />
		<tag k="place" v="locality" />
		<tag k="ssr:stedsnr" v="466139" />
	</node>
	<node lat="60.657833329667035" lon="11.595155559797337" id="-24263">
		<tag k="name" v="Maurberget" />
		<tag k="natural" v="hill" />
		<tag k="place" v="locality" />
		<tag k="ssr:stedsnr" v="466919" />
	</node>
	<node lat="60.66157499951241" lon="11.499722216379244" id="-24280">
		<tag k="name" v="Vestre Holmtjennsberget" />
		<tag k="natural" v="hill" />
		<tag k="place" v="locality" />
		<tag k="ssr:stedsnr" v="345623" />
	</node>
	<node lat="60.60319721778228" lon="11.538988897583653" id="-24281">
		<tag k="name" v="Kerstitjennberget" />
		<tag k="natural" v="hill" />
		<tag k="place" v="locality" />
		<tag k="ssr:stedsnr" v="345965" />
	</node>
	<node lat="60.60634722079632" lon="11.397119438285868" id="-24291">
		<tag k="name" v="Bjørnryggen" />
		<tag k="natural" v="hill" />
		<tag k="place" v="locality" />
		<tag k="ssr:stedsnr" v="360325" />
	</node>
	<node lat="60.518488887716835" lon="11.245316666010421" id="-24297">
		<tag k="name" v="Strandlykkjeberget" />
		<tag k="natural" v="slope" />
		<tag k="place" v="locality" />
		<tag k="ssr:stedsnr" v="479252" />
	</node>
	<node lat="60.59117499790546" lon="11.319886105161109" id="-24300">
		<tag k="name" v="Rundhaugen" />
		<tag k="natural" v="hill" />
		<tag k="place" v="locality" />
		<tag k="ssr:stedsnr" v="371363" />
	</node>
	<node lat="60.554950003344025" lon="11.34885833571322" id="-24303">
		<tag k="name" v="Fugleleikhøgda" />
		<tag k="natural" v="hill" />
		<tag k="place" v="locality" />
		<tag k="ssr:stedsnr" v="371380" />
	</node>
	<node lat="60.52625277688409" lon="11.49164721945768" id="-24309">
		<tag k="name" v="Brattberget" />
		<tag k="place" v="locality" />
		<tag k="ssr:stedsnr" v="479579" />
	</node>
	<node lat="60.66371110685352" lon="11.264349995523741" id="-24328">
		<tag k="fixme" v="consider natural=peak for the most distinct mountains in the district" />
		<tag k="name" v="Halvorstuberget" />
		<tag k="natural" v="hill" />
		<tag k="place" v="locality" />
		<tag k="ssr:stedsnr" v="483538" />
	</node>
	<node lat="60.70624444451834" lon="11.422505558068773" id="-24343">
		<tag k="name" v="Purkryggen" />
		<tag k="natural" v="hill" />
		<tag k="place" v="locality" />
		<tag k="ssr:stedsnr" v="404289" />
	</node>
	<node lat="60.580966665601984" lon="11.46324721364046" id="-24345">
		<tag k="name" v="Bøverfallslia" />
		<tag k="natural" v="slope" />
		<tag k="place" v="locality" />
		<tag k="ssr:stedsnr" v="404690" />
	</node>
	<node lat="60.598491666554246" lon="11.410316663204407" id="-24350">
		<tag k="fixme" v="consider natural=peak for the most distinct mountains in the district" />
		<tag k="name" v="Granåsen" />
		<tag k="natural" v="hill" />
		<tag k="place" v="locality" />
		<tag k="ssr:stedsnr" v="405348" />
	</node>
	<node lat="60.69550555233883" lon="11.487355563454257" id="-24356">
		<tag k="name" v="Fagerlia" />
		<tag k="natural" v="slope" />
		<tag k="place" v="locality" />
		<tag k="ssr:stedsnr" v="406872" />
	</node>
	<node lat="60.51943333150736" lon="11.45190555088879" id="-24361">
		<tag k="name" v="Vestre Rønevanglia" />
		<tag k="natural" v="slope" />
		<tag k="place" v="locality" />
		<tag k="ssr:stedsnr" v="419602" />
	</node>
	<node lat="60.722683329591035" lon="11.396480546127018" id="-24382">
		<tag k="name" v="Bygdeberget" />
		<tag k="natural" v="hill" />
		<tag k="place" v="locality" />
		<tag k="ssr:stedsnr" v="431746" />
	</node>
	<node lat="60.49618055847883" lon="11.25975833334582" id="-24383">
		<tag k="name" v="Fallhøgda" />
		<tag k="natural" v="hill" />
		<tag k="place" v="locality" />
		<tag k="ssr:stedsnr" v="491425" />
	</node>
	<node lat="60.68217500286359" lon="11.495074999265572" id="-24403">
		<tag k="fixme" v="consider natural=peak for the most distinct mountains in the district" />
		<tag k="name" v="Sildtjennsberget" />
		<tag k="natural" v="hill" />
		<tag k="place" v="locality" />
		<tag k="ssr:stedsnr" v="492341" />
	</node>
	<node lat="60.58895277368621" lon="11.359963887391821" id="-24426">
		<tag k="fixme" v="consider natural=peak for the most distinct mountains in the district" />
		<tag k="name" v="Gjertrudkampen" />
		<tag k="natural" v="hill" />
		<tag k="place" v="locality" />
		<tag k="ssr:stedsnr" v="674363" />
	</node>
	<node lat="60.48056389304103" lon="11.301049993953146" id="-24433">
		<tag k="name" v="Styggberget" />
		<tag k="natural" v="hill" />
		<tag k="place" v="locality" />
		<tag k="ssr:stedsnr" v="464277" />
	</node>
	<node lat="60.63730555772541" lon="11.35041666569649" id="-24434">
		<tag k="name" v="Kuruddalen" />
		<tag k="natural" v="valley" />
		<tag k="place" v="locality" />
		<tag k="ssr:stedsnr" v="464360" />
	</node>
	<node lat="60.66305833587293" lon="11.359461106327533" id="-24457">
		<tag k="name" v="Kongsrudberget" />
		<tag k="natural" v="slope" />
		<tag k="place" v="locality" />
		<tag k="ssr:stedsnr" v="466322" />
	</node>
	<node lat="60.60625833159977" lon="11.372005550208662" id="-24458">
		<tag k="name" v="Nordre Saudalshøgda" />
		<tag k="natural" v="hill" />
		<tag k="place" v="locality" />
		<tag k="ssr:stedsnr" v="466374" />
	</node>
	<node lat="60.68936944678193" lon="11.527002778182922" id="-24464">
		<tag k="name" v="Granhaugen" />
		<tag k="natural" v="hill" />
		<tag k="place" v="locality" />
		<tag k="ssr:stedsnr" v="466876" />
	</node>
	<node lat="60.680786106712716" lon="11.442052783466083" id="-24469">
		<tag k="name" v="Gaustadsæterberget" />
		<tag k="natural" v="hill" />
		<tag k="place" v="locality" />
		<tag k="ssr:stedsnr" v="675613" />
	</node>
	<node lat="60.51817221784867" lon="11.363094447791717" id="-24480">
		<tag k="name" v="Søndre Tempellia" />
		<tag k="natural" v="slope" />
		<tag k="place" v="locality" />
		<tag k="ssr:stedsnr" v="482108" />
	</node>
	<node lat="60.610405551520465" lon="11.396947223049697" id="-24481">
		<tag k="name" v="Hagaberget" />
		<tag k="natural" v="hill" />
		<tag k="place" v="locality" />
		<tag k="ssr:stedsnr" v="482360" />
	</node>
	<node lat="60.5227638889177" lon="11.54171389335628" id="-24488">
		<tag k="name" v="Øktberget" />
		<tag k="natural" v="hill" />
		<tag k="place" v="locality" />
		<tag k="ssr:stedsnr" v="492202" />
	</node>
	<node lat="60.61301944206288" lon="11.23017499156435" id="-24518">
		<tag k="name" v="Topphøgda" />
		<tag k="natural" v="hill" />
		<tag k="place" v="locality" />
		<tag k="ssr:stedsnr" v="526385" />
	</node>
	<node lat="60.66739444630281" lon="11.400902778672009" id="-24520">
		<tag k="fixme" v="consider natural=peak for the most distinct mountains in the district" />
		<tag k="name" v="Starberget" />
		<tag k="natural" v="hill" />
		<tag k="place" v="locality" />
		<tag k="ssr:stedsnr" v="527272" />
	</node>
	<node lat="60.70992222173545" lon="11.416358339489255" id="-24571">
		<tag k="fixme" v="consider natural=peak for the most distinct mountains in the district" />
		<tag k="name" v="Djupdalsberget" />
		<tag k="natural" v="hill" />
		<tag k="place" v="locality" />
		<tag k="ssr:stedsnr" v="586315" />
	</node>
	<node lat="60.61615833434453" lon="11.505711118939724" id="-24581">
		<tag k="name" v="Veltsæterbrenna" />
		<tag k="natural" v="slope" />
		<tag k="place" v="locality" />
		<tag k="ssr:stedsnr" v="588162" />
	</node>
	<node lat="60.477877775408984" lon="11.328902770584516" id="-24597">
		<tag k="name" v="Ottvanghøgda" />
		<tag k="natural" v="hill" />
		<tag k="place" v="locality" />
		<tag k="ssr:stedsnr" v="604904" />
	</node>
	<node lat="60.62032221855387" lon="11.559486117939421" id="-24615">
		<tag k="name" v="Målåvassberget" />
		<tag k="natural" v="hill" />
		<tag k="place" v="locality" />
		<tag k="ssr:stedsnr" v="705304" />
	</node>
	<node lat="60.52433333102341" lon="11.47932500004578" id="-24617">
		<tag k="name" v="Vestre Rasaberget" />
		<tag k="natural" v="slope" />
		<tag k="place" v="locality" />
		<tag k="ssr:stedsnr" v="706147" />
	</node>
	<node lat="60.54427777783129" lon="11.519480557574502" id="-24619">
		<tag k="name" v="Østre Rasalia" />
		<tag k="natural" v="slope" />
		<tag k="place" v="locality" />
		<tag k="ssr:stedsnr" v="706150" />
	</node>
	<node lat="60.63379722356456" lon="11.156024992526998" id="-24621">
		<tag k="name" v="Sutterhella" />
		<tag k="place" v="locality" />
		<tag k="ssr:stedsnr" v="646044" />
	</node>
	<node lat="60.67452499874395" lon="11.402002777389189" id="-24623">
		<tag k="name" v="Festningsberget" />
		<tag k="natural" v="hill" />
		<tag k="place" v="locality" />
		<tag k="ssr:stedsnr" v="646303" />
	</node>
	<node lat="60.54770555312049" lon="11.335174993113444" id="-24625">
		<tag k="name" v="Gullhaugen" />
		<tag k="natural" v="hill" />
		<tag k="place" v="locality" />
		<tag k="ssr:stedsnr" v="646232" />
	</node>
	<node lat="60.496308332756115" lon="11.272541674889805" id="-24626">
		<tag k="name" v="Djupdalen" />
		<tag k="natural" v="valley" />
		<tag k="place" v="locality" />
		<tag k="ssr:stedsnr" v="646278" />
	</node>
	<node lat="60.56878055202151" lon="11.4280111026789" id="-24650">
		<tag k="name" v="Bjertingstadmota" />
		<tag k="natural" v="hill" />
		<tag k="place" v="locality" />
		<tag k="ssr:stedsnr" v="707733" />
	</node>
	<node lat="60.67891110959007" lon="11.221838887890312" id="-24654">
		<tag k="name" v="Korpberget" />
		<tag k="natural" v="slope" />
		<tag k="place" v="locality" />
		<tag k="ssr:stedsnr" v="708548" />
	</node>
	<node lat="60.604741668688206" lon="11.323716665356637" id="-24663">
		<tag k="name" v="Sagberget" />
		<tag k="natural" v="slope" />
		<tag k="place" v="locality" />
		<tag k="ssr:stedsnr" v="709193" />
	</node>
	<node lat="60.59569166568034" lon="11.36504999182842" id="-24664">
		<tag k="name" v="Nykjudalen" />
		<tag k="natural" v="valley" />
		<tag k="place" v="locality" />
		<tag k="ssr:stedsnr" v="709194" />
	</node>
	<node lat="60.59590278208767" lon="11.305263898017763" id="-24666">
		<tag k="name" v="Krokbakkberget" />
		<tag k="natural" v="hill" />
		<tag k="place" v="locality" />
		<tag k="ssr:stedsnr" v="709213" />
	</node>
	<node lat="60.73891388685596" lon="11.308313896482623" id="-24670">
		<tag k="name" v="Brattvollsberget" />
		<tag k="natural" v="hill" />
		<tag k="place" v="locality" />
		<tag k="ssr:stedsnr" v="663402" />
	</node>
	<node lat="60.630241668719414" lon="11.532747229234129" id="-24683">
		<tag k="name" v="Vestre Skoroberget" />
		<tag k="natural" v="hill" />
		<tag k="place" v="locality" />
		<tag k="ssr:stedsnr" v="709645" />
	</node>
	<node lat="60.5460305563314" lon="11.27710555826828" id="-24687">
		<tag k="name" v="Rundtomhaugen" />
		<tag k="natural" v="hill" />
		<tag k="place" v="locality" />
		<tag k="ssr:stedsnr" v="665388" />
	</node>
	<node lat="60.604211114565786" lon="11.598527770791057" id="-24688">
		<tag k="name" v="Rottjennsdalen" />
		<tag k="natural" v="valley" />
		<tag k="place" v="locality" />
		<tag k="ssr:stedsnr" v="709743" />
	</node>
	<node lat="60.62318055376732" lon="11.263652785663334" id="-24699">
		<tag k="name" v="Gjellberget" />
		<tag k="natural" v="hill" />
		<tag k="place" v="locality" />
		<tag k="ssr:stedsnr" v="890442" />
	</node>
	<node lat="60.57853333632558" lon="11.459983333025008" id="-24700">
		<tag k="name" v="Galgumsæterberget" />
		<tag k="natural" v="hill" />
		<tag k="place" v="locality" />
		<tag k="ssr:stedsnr" v="890738" />
	</node>
	<node lat="60.602827778261954" lon="11.359925002540734" id="-24715">
		<tag k="fixme" v="consider natural=peak for the most distinct mountains in the district" />
		<tag k="name" v="Sønsterudberget" />
		<tag k="natural" v="hill" />
		<tag k="place" v="locality" />
		<tag k="ssr:stedsnr" v="891215" />
	</node>
	<node lat="60.4882277804166" lon="11.34449445058337" id="-24733">
		<tag k="name" v="Gullihøgda" />
		<tag k="natural" v="hill" />
		<tag k="place" v="locality" />
		<tag k="ssr:stedsnr" v="891978" />
	</node>
	<node lat="60.623430559313846" lon="11.488097223182622" id="-24734">
		<tag k="name" v="Granbergsmyrdalen" />
		<tag k="natural" v="valley" />
		<tag k="place" v="locality" />
		<tag k="ssr:stedsnr" v="892692" />
	</node>
	<node lat="60.54098889300468" lon="11.351391662988958" id="-24747">
		<tag k="name" v="Nordre Bergsjølia" />
		<tag k="natural" v="slope" />
		<tag k="place" v="locality" />
		<tag k="ssr:stedsnr" v="707214" />
	</node>
	<node lat="60.53459721918" lon="11.340375001433456" id="-24748">
		<tag k="name" v="Fjellsbekklia" />
		<tag k="natural" v="slope" />
		<tag k="place" v="locality" />
		<tag k="ssr:stedsnr" v="707217" />
	</node>
	<node lat="60.52396388556896" lon="11.33188611509324" id="-24749">
		<tag k="name" v="Knappen" />
		<tag k="natural" v="hill" />
		<tag k="place" v="locality" />
		<tag k="ssr:stedsnr" v="707227" />
	</node>
	<node lat="60.52383055321255" lon="11.341333329133791" id="-24750">
		<tag k="name" v="Vangshøgda" />
		<tag k="natural" v="hill" />
		<tag k="place" v="locality" />
		<tag k="ssr:stedsnr" v="707228" />
	</node>
	<node lat="60.56952222274047" lon="11.333966672632066" id="-24752">
		<tag k="name" v="Nordre Knuklia" />
		<tag k="natural" v="slope" />
		<tag k="place" v="locality" />
		<tag k="ssr:stedsnr" v="707173" />
	</node>
	<node lat="60.662580558454195" lon="11.571819445032173" id="-24761">
		<tag k="name" v="Engekoiedalen" />
		<tag k="natural" v="valley" />
		<tag k="place" v="locality" />
		<tag k="ssr:stedsnr" v="709916" />
	</node>
	<node lat="60.57981110867454" lon="11.506747217065524" id="-24765">
		<tag k="name" v="Stygghølet" />
		<tag k="natural" v="valley" />
		<tag k="place" v="locality" />
		<tag k="ssr:stedsnr" v="722610" />
	</node>
	<node lat="60.62747222133171" lon="11.202105554444218" id="-24804">
		<tag k="name" v="Vardebergshaugen" />
		<tag k="natural" v="hill" />
		<tag k="place" v="locality" />
		<tag k="ssr:stedsnr" v="768347" />
	</node>
	<node lat="60.64602777742757" lon="11.297011110981604" id="-24827">
		<tag k="name" v="Solvangsberget" />
		<tag k="natural" v="hill" />
		<tag k="place" v="locality" />
		<tag k="ssr:stedsnr" v="908533" />
	</node>
	<node lat="60.531905552724844" lon="11.423402770779079" id="-24844">
		<tag k="name" v="Høgbergsdalen" />
		<tag k="natural" v="valley" />
		<tag k="place" v="locality" />
		<tag k="ssr:stedsnr" v="783612" />
	</node>
	<node lat="60.74122777682638" lon="11.371019437210094" id="-24849">
		<tag k="name" v="Bottenfjellet" />
		<tag k="natural" v="hill" />
		<tag k="place" v="locality" />
		<tag k="ssr:stedsnr" v="785355" />
	</node>
	<node lat="60.59280833403463" lon="11.451183328276354" id="-24857">
		<tag k="name" v="Kvernhusberget" />
		<tag k="natural" v="hill" />
		<tag k="place" v="locality" />
		<tag k="ssr:stedsnr" v="786723" />
	</node>
	<node lat="60.66665555552301" lon="11.18754167330724" id="-24866">
		<tag k="fixme" v="consider natural=peak for the most distinct mountains in the district" />
		<tag k="name" v="Bjørsrudåsen" />
		<tag k="natural" v="hill" />
		<tag k="place" v="locality" />
		<tag k="ssr:stedsnr" v="795618" />
	</node>
	<node lat="60.59013888743041" lon="11.588622216314235" id="-24881">
		<tag k="name" v="Torthaugen" />
		<tag k="natural" v="hill" />
		<tag k="place" v="locality" />
		<tag k="ssr:stedsnr" v="917129" />
	</node>
	<node lat="60.60662500275889" lon="11.443644446874384" id="-24892">
		<tag k="name" v="Skjesæterberget" />
		<tag k="natural" v="hill" />
		<tag k="place" v="locality" />
		<tag k="ssr:stedsnr" v="917380" />
	</node>
	<node lat="60.56793889098246" lon="11.321194452854547" id="-24912">
		<tag k="name" v="Torsfallhøgda" />
		<tag k="natural" v="hill" />
		<tag k="place" v="locality" />
		<tag k="ssr:stedsnr" v="829164" />
	</node>
	<node lat="60.68194166928957" lon="11.59547221670603" id="-24927">
		<tag k="name" v="Sortknappen" />
		<tag k="natural" v="hill" />
		<tag k="place" v="locality" />
		<tag k="ssr:stedsnr" v="831895" />
	</node>
	<node lat="60.66171666356931" lon="11.5503805482158" id="-24928">
		<tag k="name" v="Kutjennsberget" />
		<tag k="natural" v="hill" />
		<tag k="place" v="locality" />
		<tag k="ssr:stedsnr" v="831899" />
	</node>
	<node lat="60.52528888891926" lon="11.45583889548971" id="-24933">
		<tag k="name" v="Nordre Rønevanglia" />
		<tag k="natural" v="slope" />
		<tag k="place" v="locality" />
		<tag k="ssr:stedsnr" v="844623" />
	</node>
	<node lat="60.63316111148437" lon="11.207505551675983" id="-24938">
		<tag k="name" v="Kvernhusberget" />
		<tag k="natural" v="hill" />
		<tag k="place" v="locality" />
		<tag k="ssr:stedsnr" v="848486" />
	</node>
	<node lat="60.468963886651565" lon="11.321838894042902" id="-24941">
		<tag k="name" v="Vesleaugberget" />
		<tag k="natural" v="hill" />
		<tag k="place" v="locality" />
		<tag k="ssr:stedsnr" v="848887" />
	</node>
	<node lat="60.620536112343736" lon="11.53835277517772" id="-24956">
		<tag k="name" v="Målåvassknappen" />
		<tag k="natural" v="hill" />
		<tag k="place" v="locality" />
		<tag k="ssr:stedsnr" v="888718" />
	</node>
	<node lat="60.64793333160763" lon="11.161297227345463" id="-24957">
		<tag k="name" v="Dalsruddalen" />
		<tag k="natural" v="valley" />
		<tag k="place" v="locality" />
		<tag k="ssr:stedsnr" v="889053" />
	</node>
	<node lat="60.55755833275607" lon="11.333702783492566" id="-24958">
		<tag k="name" v="Fotbydalen" />
		<tag k="natural" v="valley" />
		<tag k="place" v="locality" />
		<tag k="ssr:stedsnr" v="889220" />
	</node>
	<node lat="60.585741668970584" lon="11.466494437701861" id="-24979">
		<tag k="name" v="Vestre Båntjennslia" />
		<tag k="natural" v="slope" />
		<tag k="place" v="locality" />
		<tag k="ssr:stedsnr" v="892106" />
	</node>
	<node lat="60.716705553310746" lon="11.411138892867228" id="-24987">
		<tag k="name" v="Styggberget" />
		<tag k="natural" v="hill" />
		<tag k="place" v="locality" />
		<tag k="ssr:stedsnr" v="906403" />
	</node>
	<node lat="60.63706111145815" lon="11.366972214546179" id="-24990">
		<tag k="name" v="Grasberget" />
		<tag k="natural" v="hill" />
		<tag k="place" v="locality" />
		<tag k="ssr:stedsnr" v="908300" />
	</node>
	<node lat="60.59491389159663" lon="11.584349995890568" id="-24994">
		<tag k="name" v="Østre Lauvhaugen" />
		<tag k="natural" v="hill" />
		<tag k="place" v="locality" />
		<tag k="ssr:stedsnr" v="908825" />
	</node>
	<node lat="60.51305278174783" lon="11.304902776599029" id="-24997">
		<tag k="name" v="Hagalia" />
		<tag k="natural" v="slope" />
		<tag k="place" v="locality" />
		<tag k="ssr:stedsnr" v="908972" />
	</node>
	<node lat="60.47820833646367" lon="11.29381388918836" id="-24998">
		<tag k="name" v="Lysjøsæterhøgda" />
		<tag k="natural" v="hill" />
		<tag k="place" v="locality" />
		<tag k="ssr:stedsnr" v="916409" />
	</node>
	<node lat="60.47919999838022" lon="11.347774998372039" id="-24999">
		<tag k="name" v="Neskonghøgda" />
		<tag k="natural" v="hill" />
		<tag k="place" v="locality" />
		<tag k="ssr:stedsnr" v="916412" />
	</node>
	<node lat="60.573450001714576" lon="11.415563887775063" id="-25036">
		<tag k="name" v="Puttskjæra" />
		<tag k="natural" v="slope" />
		<tag k="place" v="locality" />
		<tag k="ssr:stedsnr" v="951134" />
	</node>
	<node lat="60.5992277740625" lon="11.419083339034158" id="-25040">
		<tag k="name" v="Styggberget" />
		<tag k="place" v="locality" />
		<tag k="ssr:stedsnr" v="951337" />
	</node>
	<node lat="60.682552773626114" lon="11.260769438336064" id="-25043">
		<tag k="name" v="Sætermyrberget" />
		<tag k="natural" v="hill" />
		<tag k="place" v="locality" />
		<tag k="ssr:stedsnr" v="951597" />
	</node>
	<node lat="60.64156944607183" lon="11.53250833340975" id="-25045">
		<tag k="name" v="Østre Skoroberget" />
		<tag k="natural" v="hill" />
		<tag k="place" v="locality" />
		<tag k="ssr:stedsnr" v="952621" />
	</node>
	<node lat="60.67709167100224" lon="11.150202772051488" id="-25055">
		<tag k="name" v="Rådalen" />
		<tag k="natural" v="valley" />
		<tag k="place" v="locality" />
		<tag k="ssr:stedsnr" v="966040" />
	</node>
	<node lat="60.57872222185884" lon="11.30127221438957" id="-25077">
		<tag k="name" v="Vardehøgda" />
		<tag k="natural" v="hill" />
		<tag k="place" v="locality" />
		<tag k="ssr:stedsnr" v="7373" />
	</node>
	<node lat="60.56530277386493" lon="11.436636102669365" id="-25078">
		<tag k="name" v="Gråskallen" />
		<tag k="natural" v="hill" />
		<tag k="place" v="locality" />
		<tag k="ssr:stedsnr" v="7378" />
	</node>
	<node lat="60.53744444211641" lon="11.288733334028338" id="-25082">
		<tag k="name" v="Badstuberget" />
		<tag k="natural" v="hill" />
		<tag k="place" v="locality" />
		<tag k="ssr:stedsnr" v="7470" />
	</node>
	<node lat="60.51298611166238" lon="11.310619445301773" id="-25084">
		<tag k="name" v="Fuglehøgda" />
		<tag k="natural" v="hill" />
		<tag k="place" v="locality" />
		<tag k="ssr:stedsnr" v="7477" />
	</node>
	<node lat="60.56183889163375" lon="11.343902782776375" id="-25096">
		<tag k="name" v="Søndre Knuklia" />
		<tag k="natural" v="slope" />
		<tag k="place" v="locality" />
		<tag k="ssr:stedsnr" v="39166" />
	</node>
	<node lat="60.492180555468224" lon="11.276602778070671" id="-25101">
		<tag k="name" v="Djupdalshøgda" />
		<tag k="natural" v="hill" />
		<tag k="place" v="locality" />
		<tag k="ssr:stedsnr" v="39224" />
	</node>
	<node lat="60.52773611101708" lon="11.538141659450524" id="-25118">
		<tag k="fixme" v="consider natural=peak for the most distinct mountains in the district" />
		<tag k="name" v="Kirkeberget" />
		<tag k="natural" v="hill" />
		<tag k="place" v="locality" />
		<tag k="ssr:stedsnr" v="40799" />
	</node>
	<node lat="60.65949166890069" lon="11.581597227885235" id="-25127">
		<tag k="name" v="Svartknappen" />
		<tag k="natural" v="hill" />
		<tag k="place" v="locality" />
		<tag k="ssr:stedsnr" v="41897" />
	</node>
	<node lat="60.65592222503422" lon="11.524797230098972" id="-25130">
		<tag k="name" v="Østre Kampåsen" />
		<tag k="natural" v="hill" />
		<tag k="place" v="locality" />
		<tag k="ssr:stedsnr" v="41652" />
	</node>
	<node lat="60.57509722102068" lon="11.639580561292968" id="-25141">
		<tag k="name" v="Myrerhaugen" />
		<tag k="natural" v="hill" />
		<tag k="place" v="locality" />
		<tag k="ssr:stedsnr" v="42716" />
	</node>
	<node lat="60.72128611136463" lon="11.43800555882545" id="-25146">
		<tag k="name" v="Stutberget" />
		<tag k="natural" v="hill" />
		<tag k="place" v="locality" />
		<tag k="ssr:stedsnr" v="42749" />
	</node>
	<node lat="60.57850277740539" lon="11.51242500440695" id="-25151">
		<tag k="name" v="Bjønnåtlia" />
		<tag k="natural" v="slope" />
		<tag k="place" v="locality" />
		<tag k="ssr:stedsnr" v="55562" />
	</node>
	<node lat="60.59317500239218" lon="11.565816673180288" id="-25171">
		<tag k="name" v="Fjøsberget" />
		<tag k="natural" v="hill" />
		<tag k="place" v="locality" />
		<tag k="ssr:stedsnr" v="59765" />
	</node>
	<node lat="60.50064999812228" lon="11.324897224840651" id="-25173">
		<tag k="name" v="Gutubakken" />
		<tag k="natural" v="hill" />
		<tag k="place" v="locality" />
		<tag k="ssr:stedsnr" v="59939" />
	</node>
	<node lat="60.547638888171065" lon="11.397652774954485" id="-25202">
		<tag k="fixme" v="consider natural=peak for the most distinct mountains in the district" />
		<tag k="name" v="Grautmyrhøgda" />
		<tag k="natural" v="hill" />
		<tag k="place" v="locality" />
		<tag k="ssr:stedsnr" v="81977" />
	</node>
	<node lat="60.55979166374873" lon="11.338441668327157" id="-25206">
		<tag k="name" v="Knukhøgda" />
		<tag k="natural" v="hill" />
		<tag k="place" v="locality" />
		<tag k="ssr:stedsnr" v="100196" />
	</node>
	<node lat="60.553583334359814" lon="11.331913896878039" id="-25207">
		<tag k="name" v="Fotbydalslia" />
		<tag k="natural" v="slope" />
		<tag k="place" v="locality" />
		<tag k="ssr:stedsnr" v="100197" />
	</node>
	<node lat="60.634713890151446" lon="11.342180549131793" id="-25210">
		<tag k="name" v="Lillehovsberget" />
		<tag k="natural" v="slope" />
		<tag k="place" v="locality" />
		<tag k="ssr:stedsnr" v="100332" />
	</node>
	<node lat="60.69341944594287" lon="11.374374992054305" id="-25218">
		<tag k="fixme" v="consider natural=peak for the most distinct mountains in the district" />
		<tag k="name" v="Ormåsen" />
		<tag k="natural" v="hill" />
		<tag k="place" v="locality" />
		<tag k="ssr:stedsnr" v="101269" />
	</node>
	<node lat="60.65701944580441" lon="11.570177778715705" id="-25234">
		<tag k="fixme" v="consider natural=peak for the most distinct mountains in the district" />
		<tag k="name" v="Østre Stentjennsberget" />
		<tag k="natural" v="hill" />
		<tag k="place" v="locality" />
		<tag k="ssr:stedsnr" v="103282" />
	</node>
	<node lat="60.59486111320024" lon="11.616908342040265" id="-25235">
		<tag k="name" v="Nordre Fjellsjøhøgda" />
		<tag k="natural" v="hill" />
		<tag k="place" v="locality" />
		<tag k="ssr:stedsnr" v="103737" />
	</node>
	<node lat="60.58270277611277" lon="11.50023056363795" id="-25244">
		<tag k="name" v="Malungslia" />
		<tag k="natural" v="slope" />
		<tag k="place" v="locality" />
		<tag k="ssr:stedsnr" v="116595" />
	</node>
	<node lat="60.67916389138006" lon="11.124797215978957" id="-25245">
		<tag k="name" v="Ilesveberget" />
		<tag k="natural" v="hill" />
		<tag k="place" v="locality" />
		<tag k="ssr:stedsnr" v="117059" />
	</node>
	<node lat="60.59232222046476" lon="11.526541666837904" id="-25267">
		<tag k="fixme" v="consider natural=peak for the most distinct mountains in the district" />
		<tag k="name" v="Villberget" />
		<tag k="natural" v="hill" />
		<tag k="place" v="locality" />
		<tag k="ssr:stedsnr" v="128131" />
	</node>
	<node lat="60.72035000337346" lon="11.427602787010121" id="-25297">
		<tag k="alt_name" v="Godhavnsberget" />
		<tag k="name" v="Godhamnsberget" />
		<tag k="natural" v="hill" />
		<tag k="place" v="locality" />
		<tag k="ssr:stedsnr" v="128723" />
	</node>
	<node lat="60.78092221824734" lon="11.301355560305177" id="-25330">
		<tag k="name" v="Brynsåsen" />
		<tag k="natural" v="hill" />
		<tag k="place" v="locality" />
		<tag k="ssr:stedsnr" v="162840" />
	</node>
	<node lat="60.51908888774863" lon="11.440694442046667" id="-25349">
		<tag k="name" v="Hestkampen" />
		<tag k="natural" v="hill" />
		<tag k="place" v="locality" />
		<tag k="ssr:stedsnr" v="176578" />
	</node>
	<node lat="60.58208333321785" lon="11.329430564510519" id="-25384">
		<tag k="name" v="Svenskerudhøgda" />
		<tag k="natural" v="hill" />
		<tag k="place" v="locality" />
		<tag k="ssr:stedsnr" v="189353" />
	</node>
	<node lat="60.673194447719155" lon="11.401377786182117" id="-25396">
		<tag k="alt_name" v="Starberget" />
		<tag k="name" v="Starrberget" />
		<tag k="natural" v="hill" />
		<tag k="place" v="locality" />
		<tag k="ssr:stedsnr" v="189558" />
	</node>
	<node lat="60.490286109018236" lon="11.285666658534064" id="-25412">
		<tag k="name" v="Jutsæterlia" />
		<tag k="natural" v="slope" />
		<tag k="place" v="locality" />
		<tag k="ssr:stedsnr" v="221243" />
	</node>
	<node lat="60.57407222544497" lon="11.460244443324303" id="-25418">
		<tag k="name" v="Syljusetberget" />
		<tag k="natural" v="hill" />
		<tag k="place" v="locality" />
		<tag k="ssr:stedsnr" v="222699" />
	</node>
	<node lat="60.63254722507319" lon="11.543275006369868" id="-25445">
		<tag k="name" v="Østre Skoroberget" />
		<tag k="natural" v="hill" />
		<tag k="place" v="locality" />
		<tag k="ssr:stedsnr" v="282944" />
	</node>
	<node lat="60.56704444453531" lon="11.445588881784861" id="-25454">
		<tag k="name" v="Huldertjennsberget" />
		<tag k="natural" v="hill" />
		<tag k="place" v="locality" />
		<tag k="ssr:stedsnr" v="283738" />
	</node>
	<node lat="60.6617999973429" lon="11.508283326908524" id="-25464">
		<tag k="name" v="Østre Holmtjennsberget" />
		<tag k="natural" v="hill" />
		<tag k="place" v="locality" />
		<tag k="ssr:stedsnr" v="284667" />
	</node>
	<node lat="60.56221666833662" lon="11.40077499434759" id="-25466">
		<tag k="name" v="Sæterskoiedalen" />
		<tag k="natural" v="valley" />
		<tag k="place" v="locality" />
		<tag k="ssr:stedsnr" v="285159" />
	</node>
	<node lat="60.631786111076735" lon="11.57042499712454" id="-25467">
		<tag k="name" v="Grasberget" />
		<tag k="natural" v="hill" />
		<tag k="place" v="locality" />
		<tag k="ssr:stedsnr" v="285754" />
	</node>
	<node lat="60.57858933164543" lon="11.278421384163602" id="-25482">
		<tag k="name" v="Labbdalen" />
		<tag k="natural" v="valley" />
		<tag k="place" v="locality" />
		<tag k="ssr:stedsnr" v="301364" />
	</node>
	<node lat="60.57762222252537" lon="11.42258611688827" id="-25496">
		<tag k="name" v="Skollknappen" />
		<tag k="natural" v="hill" />
		<tag k="place" v="locality" />
		<tag k="ssr:stedsnr" v="301709" />
	</node>
	<node lat="60.62869444286375" lon="11.507011117499035" id="-25503">
		<tag k="name" v="Kvitberget" />
		<tag k="natural" v="hill" />
		<tag k="place" v="locality" />
		<tag k="ssr:stedsnr" v="310342" />
	</node>
	<node lat="60.49917777930609" lon="11.246022216665141" id="-25532">
		<tag k="name" v="Solheimsberget" />
		<tag k="natural" v="hill" />
		<tag k="place" v="locality" />
		<tag k="ssr:stedsnr" v="342219" />
	</node>
	<node lat="60.53978889326946" lon="11.301411112121745" id="-25538">
		<tag k="name" v="Filiphaugen" />
		<tag k="natural" v="hill" />
		<tag k="place" v="locality" />
		<tag k="ssr:stedsnr" v="343198" />
	</node>
	<node lat="60.58887222458596" lon="11.531636106100375" id="-25551">
		<tag k="name" v="Grevlingberget" />
		<tag k="natural" v="hill" />
		<tag k="place" v="locality" />
		<tag k="ssr:stedsnr" v="345696" />
	</node>
	<node lat="60.59893611158802" lon="11.426441673665526" id="-25582">
		<tag k="name" v="Sløbekklia" />
		<tag k="natural" v="slope" />
		<tag k="place" v="locality" />
		<tag k="ssr:stedsnr" v="362717" />
	</node>
	<node lat="60.46814444595027" lon="11.314494437284704" id="-25586">
		<tag k="name" v="Lågfalldalen" />
		<tag k="natural" v="valley" />
		<tag k="place" v="locality" />
		<tag k="ssr:stedsnr" v="362893" />
	</node>
	<node lat="60.50613055355668" lon="11.317608333086284" id="-25588">
		<tag k="name" v="Halvorstudalen" />
		<tag k="natural" v="valley" />
		<tag k="place" v="locality" />
		<tag k="ssr:stedsnr" v="362942" />
	</node>
	<node lat="60.5171472177098" lon="11.306525004154464" id="-25589">
		<tag k="name" v="Søndre Romsæterlia" />
		<tag k="natural" v="slope" />
		<tag k="old_name" v="Søndre Romsæterkoia" />
		<tag k="place" v="locality" />
		<tag k="ssr:stedsnr" v="362944" />
	</node>
	<node lat="60.69949999628954" lon="11.384880559542985" id="-25607">
		<tag k="name" v="Tjennsåsberget" />
		<tag k="natural" v="hill" />
		<tag k="place" v="locality" />
		<tag k="ssr:stedsnr" v="371533" />
	</node>
	<node lat="60.63760555320558" lon="11.279349995896293" id="-25616">
		<tag k="name" v="Linnberget" />
		<tag k="natural" v="hill" />
		<tag k="place" v="locality" />
		<tag k="ssr:stedsnr" v="384967" />
	</node>
	<node lat="60.549733335991064" lon="11.424716659066961" id="-25635">
		<tag k="fixme" v="consider natural=peak for the most distinct mountains in the district" />
		<tag k="name" v="Nysæterhøgda" />
		<tag k="natural" v="hill" />
		<tag k="place" v="locality" />
		<tag k="ssr:stedsnr" v="405654" />
	</node>
	<node lat="60.65861110888575" lon="11.522341668364472" id="-25636">
		<tag k="name" v="Vestre Kampåsen" />
		<tag k="natural" v="hill" />
		<tag k="place" v="locality" />
		<tag k="ssr:stedsnr" v="405677" />
	</node>
	<node lat="60.61199444763014" lon="11.6022083415447" id="-25644">
		<tag k="name" v="Midtberget" />
		<tag k="natural" v="hill" />
		<tag k="place" v="locality" />
		<tag k="ssr:stedsnr" v="406764" />
	</node>
	<node lat="60.672397221775746" lon="11.121547222836938" id="-25650">
		<tag k="name" v="Sotberget" />
		<tag k="natural" v="hill" />
		<tag k="place" v="locality" />
		<tag k="ssr:stedsnr" v="420058" />
	</node>
	<node lat="60.58229722518979" lon="11.223380563839381" id="-25662">
		<tag k="name" v="Brattvelta" />
		<tag k="natural" v="slope" />
		<tag k="place" v="locality" />
		<tag k="ssr:stedsnr" v="423420" />
	</node>
	<node lat="60.50800833181096" lon="11.453016657681921" id="-25692">
		<tag k="name" v="Svartkjølen" />
		<tag k="natural" v="hill" />
		<tag k="place" v="locality" />
		<tag k="ssr:stedsnr" v="506990" />
	</node>
	<node lat="60.5257444430709" lon="11.441388896197823" id="-25693">
		<tag k="fixme" v="consider natural=peak for the most distinct mountains in the district" />
		<tag k="name" v="Gruveberget" />
		<tag k="natural" v="hill" />
		<tag k="place" v="locality" />
		<tag k="ssr:stedsnr" v="506991" />
	</node>
	<node lat="60.52153332947747" lon="11.484977770684772" id="-25695">
		<tag k="alt_name" v="Rasaberget" />
		<tag k="fixme" v="consider natural=peak for the most distinct mountains in the district" />
		<tag k="name" v="Svartåsen" />
		<tag k="natural" v="hill" />
		<tag k="place" v="locality" />
		<tag k="ssr:stedsnr" v="524142" />
	</node>
	<node lat="60.522867648337744" lon="11.31653445854699" id="-25696">
		<tag k="name" v="Søndre Romsæterberget" />
		<tag k="natural" v="hill" />
		<tag k="place" v="locality" />
		<tag k="ssr:stedsnr" v="525234" />
	</node>
	<node lat="60.643380552338435" lon="11.164597213136231" id="-25697">
		<tag k="fixme" v="consider natural=peak for the most distinct mountains in the district" />
		<tag k="name" v="Port Arthur" />
		<tag k="natural" v="hill" />
		<tag k="place" v="locality" />
		<tag k="ssr:stedsnr" v="525045" />
	</node>
	<node lat="60.49838611451722" lon="11.278072228202573" id="-25704">
		<tag k="name" v="Brurhaugen" />
		<tag k="natural" v="hill" />
		<tag k="place" v="locality" />
		<tag k="ssr:stedsnr" v="525300" />
	</node>
	<node lat="60.641969442623285" lon="11.602641671566667" id="-25707">
		<tag k="name" v="Gransjølia" />
		<tag k="natural" v="slope" />
		<tag k="place" v="locality" />
		<tag k="ssr:stedsnr" v="525933" />
	</node>
	<node lat="60.67928888711333" lon="11.2376222156862" id="-25719">
		<tag k="name" v="Sagberget" />
		<tag k="natural" v="hill" />
		<tag k="place" v="locality" />
		<tag k="ssr:stedsnr" v="526570" />
	</node>
	<node lat="60.61712777425542" lon="11.276152783741646" id="-25721">
		<tag k="name" v="Moberget" />
		<tag k="natural" v="hill" />
		<tag k="place" v="locality" />
		<tag k="ssr:stedsnr" v="526428" />
	</node>
	<node lat="60.59773055738756" lon="11.607916658672883" id="-25735">
		<tag k="name" v="Karihaugen" />
		<tag k="natural" v="hill" />
		<tag k="place" v="locality" />
		<tag k="ssr:stedsnr" v="527766" />
	</node>
	<node lat="60.590777775046575" lon="11.472616671915196" id="-25738">
		<tag k="name" v="Østre Båntjennslia" />
		<tag k="natural" v="slope" />
		<tag k="place" v="locality" />
		<tag k="ssr:stedsnr" v="528109" />
	</node>
	<node lat="60.685738892878014" lon="11.461488889092017" id="-25748">
		<tag k="alt_name" v="Knavleberget" />
		<tag k="name" v="Knavlberget" />
		<tag k="natural" v="hill" />
		<tag k="place" v="locality" />
		<tag k="ssr:stedsnr" v="542538" />
	</node>
	<node lat="60.63931944453058" lon="11.464058331239517" id="-25749">
		<tag k="name" v="Kumyrberget" />
		<tag k="natural" v="slope" />
		<tag k="place" v="locality" />
		<tag k="ssr:stedsnr" v="542650" />
	</node>
	<node lat="60.595041664345615" lon="11.57874999342856" id="-25759">
		<tag k="name" v="Vestre Lauvhaugen" />
		<tag k="natural" v="hill" />
		<tag k="place" v="locality" />
		<tag k="ssr:stedsnr" v="544780" />
	</node>
	<node lat="60.50826944218113" lon="11.34658888635339" id="-25761">
		<tag k="name" v="Pershaugen" />
		<tag k="natural" v="hill" />
		<tag k="place" v="locality" />
		<tag k="ssr:stedsnr" v="544954" />
	</node>
	<node lat="60.58740277721509" lon="11.48363332863608" id="-25768">
		<tag k="name" v="Pinnerudkampen" />
		<tag k="natural" v="hill" />
		<tag k="place" v="locality" />
		<tag k="ssr:stedsnr" v="552172" />
	</node>
	<node lat="60.4714749981145" lon="11.316850000812513" id="-25773">
		<tag k="fixme" v="multiple name tags, choose one and add the other to alt_name" />
		<tag k="name" v="Finnhøgda;Lågfalldalshøgda" />
		<tag k="natural" v="hill" />
		<tag k="place" v="locality" />
		<tag k="ssr:stedsnr" v="552494" />
	</node>
	<node lat="60.553397221791336" lon="11.291683331675333" id="-25781">
		<tag k="alt_name" v="Nordre Høgberget;Søndre Høgberget" />
		<tag k="name" v="Høgberget" />
		<tag k="natural" v="ridge" />
		<tag k="place" v="locality" />
		<tag k="ssr:stedsnr" v="553394" />
	</node>
	<node lat="60.520455553781446" lon="11.269252778841603" id="-25794">
		<tag k="fixme" v="consider natural=peak for the most distinct mountains in the district" />
		<tag k="name" v="Busterudkampen" />
		<tag k="natural" v="hill" />
		<tag k="place" v="locality" />
		<tag k="ssr:stedsnr" v="566988" />
	</node>
	<node lat="60.5583083349326" lon="11.4531777699855" id="-25795">
		<tag k="fixme" v="consider natural=peak for the most distinct mountains in the district" />
		<tag k="name" v="Sørensberget" />
		<tag k="natural" v="hill" />
		<tag k="place" v="locality" />
		<tag k="ssr:stedsnr" v="566991" />
	</node>
	<node lat="60.52668055970132" lon="11.347908333644277" id="-25800">
		<tag k="name" v="Tempellia" />
		<tag k="natural" v="slope" />
		<tag k="place" v="locality" />
		<tag k="ssr:stedsnr" v="585188" />
	</node>
	<node lat="60.52761389190691" lon="11.31430556356533" id="-25802">
		<tag k="name" v="Nordre Romsæterlia" />
		<tag k="natural" v="slope" />
		<tag k="place" v="locality" />
		<tag k="ssr:stedsnr" v="585193" />
	</node>
	<node lat="60.64302500166553" lon="11.184552773405942" id="-25803">
		<tag k="name" v="Nordløkken" />
		<tag k="place" v="locality" />
		<tag k="ssr:stedsnr" v="585058" />
	</node>
	<node lat="60.61340277622232" lon="11.204069444892983" id="-25812">
		<tag k="name" v="Offenåsen" />
		<tag k="natural" v="hill" />
		<tag k="place" v="locality" />
		<tag k="ssr:stedsnr" v="586381" />
	</node>
	<node lat="60.684099997911225" lon="11.325469451265734" id="-25820">
		<tag k="name" v="Slindvedberget" />
		<tag k="natural" v="hill" />
		<tag k="place" v="locality" />
		<tag k="ssr:stedsnr" v="587471" />
	</node>
	<node lat="60.68437777804338" lon="11.510408332316306" id="-25835">
		<tag k="name" v="Bjørnryggen" />
		<tag k="natural" v="slope" />
		<tag k="place" v="locality" />
		<tag k="ssr:stedsnr" v="588877" />
	</node>
	<node lat="60.65282499603404" lon="11.541094439732605" id="-25837">
		<tag k="fixme" v="consider natural=peak for the most distinct mountains in the district" />
		<tag k="name" v="Vestre Stentjennsberget" />
		<tag k="natural" v="hill" />
		<tag k="place" v="locality" />
		<tag k="ssr:stedsnr" v="588092" />
	</node>
	<node lat="60.566499998527455" lon="11.522141664992677" id="-25838">
		<tag k="name" v="Fjæstadsæterlia" />
		<tag k="natural" v="slope" />
		<tag k="place" v="locality" />
		<tag k="ssr:stedsnr" v="588099" />
	</node>
	<node lat="60.623938886293146" lon="11.563661104600909" id="-25841">
		<tag k="name" v="Kråkhornberget" />
		<tag k="natural" v="hill" />
		<tag k="place" v="locality" />
		<tag k="ssr:stedsnr" v="588774" />
	</node>
	<node lat="60.645111109526155" lon="11.453644436709052" id="-25854">
		<tag k="name" v="Kjernliberget" />
		<tag k="natural" v="slope" />
		<tag k="place" v="locality" />
		<tag k="ssr:stedsnr" v="602669" />
	</node>
	<node lat="60.631386112892116" lon="11.366727778495745" id="-25861">
		<tag k="name" v="Blakkmyrshøgda" />
		<tag k="natural" v="hill" />
		<tag k="place" v="locality" />
		<tag k="ssr:stedsnr" v="604387" />
	</node>
	<node lat="60.59712222069042" lon="11.428355549661928" id="-25863">
		<tag k="loc_name" v="Badstuberget" />
		<tag k="name" v="Bastuberget" />
		<tag k="natural" v="hill" />
		<tag k="place" v="locality" />
		<tag k="ssr:stedsnr" v="604726" />
	</node>
	<node lat="60.50517777587946" lon="11.313841665782721" id="-25865">
		<tag k="name" v="Hagalia" />
		<tag k="natural" v="slope" />
		<tag k="place" v="locality" />
		<tag k="ssr:stedsnr" v="604959" />
	</node>
	<node lat="60.46751944207133" lon="11.303719443065642" id="-25867">
		<tag k="name" v="Storvasaberget" />
		<tag k="natural" v="slope" />
		<tag k="place" v="locality" />
		<tag k="ssr:stedsnr" v="604899" />
	</node>
	<node lat="60.658474996261226" lon="11.463300007365307" id="-25870">
		<tag k="name" v="Gammelsæterberget" />
		<tag k="natural" v="hill" />
		<tag k="place" v="locality" />
		<tag k="ssr:stedsnr" v="613557" />
	</node>
	<node lat="60.73837500088127" lon="11.32136388959294" id="-25882">
		<tag k="fixme" v="consider natural=peak for the most distinct mountains in the district" />
		<tag k="name" v="Brynsåsen" />
		<tag k="natural" v="hill" />
		<tag k="old_name" v="Brynåsen" />
		<tag k="place" v="locality" />
		<tag k="ssr:stedsnr" v="613681" />
	</node>
	<node lat="60.5406138904327" lon="11.309533338586398" id="-25899">
		<tag k="name" v="Korpberget" />
		<tag k="natural" v="hill" />
		<tag k="place" v="locality" />
		<tag k="ssr:stedsnr" v="646209" />
	</node>
	<node lat="60.57982778075167" lon="11.317816664137052" id="-25902">
		<tag k="name" v="Hemstadvangdalen" />
		<tag k="natural" v="valley" />
		<tag k="place" v="locality" />
		<tag k="ssr:stedsnr" v="646153" />
	</node>
	<node lat="60.59303888697414" lon="11.319283332574265" id="-25922">
		<tag k="name" v="Rundhauglia" />
		<tag k="natural" v="slope" />
		<tag k="place" v="locality" />
		<tag k="ssr:stedsnr" v="648223" />
	</node>
	<node lat="60.569224997878315" lon="11.362900003215925" id="-25927">
		<tag k="name" v="Svartdalen" />
		<tag k="natural" v="valley" />
		<tag k="place" v="locality" />
		<tag k="ssr:stedsnr" v="648176" />
	</node>
	<node lat="60.5830999989939" lon="11.413563888323806" id="-25928">
		<tag k="name" v="Kniperuddalen" />
		<tag k="natural" v="valley" />
		<tag k="place" v="locality" />
		<tag k="ssr:stedsnr" v="648185" />
	</node>
	<node lat="60.67721944123816" lon="11.324700001202528" id="-25932">
		<tag k="name" v="Gråskallen" />
		<tag k="natural" v="hill" />
		<tag k="place" v="locality" />
		<tag k="ssr:stedsnr" v="648462" />
	</node>
	<node lat="60.50181666709493" lon="11.269086113486303" id="-25938">
		<tag k="name" v="Lihøgda" />
		<tag k="natural" v="hill" />
		<tag k="place" v="locality" />
		<tag k="ssr:stedsnr" v="661251" />
	</node>
	<node lat="60.56713610887942" lon="11.479525006433027" id="-25940">
		<tag k="fixme" v="consider natural=peak for the most distinct mountains in the district" />
		<tag k="name" v="Kjelkberget" />
		<tag k="natural" v="hill" />
		<tag k="place" v="locality" />
		<tag k="ssr:stedsnr" v="661551" />
	</node>
	<node lat="60.520027774188314" lon="11.473836106365924" id="-25941">
		<tag k="name" v="Møkkadalslia" />
		<tag k="natural" v="slope" />
		<tag k="place" v="locality" />
		<tag k="ssr:stedsnr" v="661565" />
	</node>
	<node lat="60.63434166285713" lon="11.472913896485226" id="-25948">
		<tag k="name" v="Jørnsmyrberget" />
		<tag k="natural" v="slope" />
		<tag k="place" v="locality" />
		<tag k="ssr:stedsnr" v="663659" />
	</node>
	<node lat="60.61191666333847" lon="11.365316669408395" id="-25949">
		<tag k="name" v="Krokmyrberget" />
		<tag k="natural" v="hill" />
		<tag k="place" v="locality" />
		<tag k="ssr:stedsnr" v="664340" />
	</node>
	<node lat="60.4650194482624" lon="11.310602782950788" id="-25958">
		<tag k="name" v="Finnberget" />
		<tag k="natural" v="hill" />
		<tag k="place" v="locality" />
		<tag k="ssr:stedsnr" v="665915" />
	</node>
	<node lat="60.46374166411722" lon="11.329483325821027" id="-25959">
		<tag k="name" v="Ottlia" />
		<tag k="natural" v="slope" />
		<tag k="place" v="locality" />
		<tag k="ssr:stedsnr" v="665916" />
	</node>
	<node lat="60.52540832993098" lon="11.291047221766954" id="-25966">
		<tag k="name" v="Ørbekkdalen" />
		<tag k="natural" v="valley" />
		<tag k="place" v="locality" />
		<tag k="ssr:stedsnr" v="666273" />
	</node>
	<node lat="60.55221111312042" lon="11.478758336902708" id="-25974">
		<tag k="fixme" v="consider natural=peak for the most distinct mountains in the district" />
		<tag k="name" v="Vardeberget" />
		<tag k="natural" v="hill" />
		<tag k="place" v="locality" />
		<tag k="ssr:stedsnr" v="722602" />
	</node>
	<node lat="60.612469445378" lon="11.453597220059505" id="-25989">
		<tag k="name" v="Styggdalen" />
		<tag k="natural" v="valley" />
		<tag k="place" v="locality" />
		<tag k="ssr:stedsnr" v="724650" />
	</node>
	<node lat="60.57460832936912" lon="11.43063610503775" id="-25999">
		<tag k="name" v="Bjertingstadberget" />
		<tag k="natural" v="hill" />
		<tag k="place" v="locality" />
		<tag k="ssr:stedsnr" v="726727" />
	</node>
	<node lat="60.573280555154376" lon="11.473266663958627" id="-26010">
		<tag k="name" v="Svartkampen" />
		<tag k="natural" v="hill" />
		<tag k="place" v="locality" />
		<tag k="ssr:stedsnr" v="735140" />
	</node>
	<node lat="60.52800119649867" lon="11.321956049479232" id="-26014">
		<tag k="name" v="Romsæterberget" />
		<tag k="natural" v="hill" />
		<tag k="place" v="locality" />
		<tag k="ssr:stedsnr" v="735462" />
	</node>
	<node lat="60.53222500107894" lon="11.327102775628466" id="-26015">
		<tag k="name" v="Grasberget" />
		<tag k="natural" v="hill" />
		<tag k="place" v="locality" />
		<tag k="ssr:stedsnr" v="735466" />
	</node>
	<node lat="60.51698888873537" lon="11.299494445169335" id="-26016">
		<tag k="name" v="Klingerhaugen" />
		<tag k="natural" v="hill" />
		<tag k="place" v="locality" />
		<tag k="ssr:stedsnr" v="735470" />
	</node>
	<node lat="60.59591389215329" lon="11.38033055553019" id="-26036">
		<tag k="loc_name" v="Myssmørbakklia" />
		<tag k="name" v="Møsmørbakklia" />
		<tag k="natural" v="slope" />
		<tag k="place" v="locality" />
		<tag k="ssr:stedsnr" v="769172" />
	</node>
	<node lat="60.60023611227825" lon="11.380963894639294" id="-26039">
		<tag k="name" v="Søndre Saudalshøgda" />
		<tag k="natural" v="hill" />
		<tag k="place" v="locality" />
		<tag k="ssr:stedsnr" v="769346" />
	</node>
	<node lat="60.6836555544109" lon="11.35186943973833" id="-26040">
		<tag k="name" v="Hvalslia" />
		<tag k="natural" v="slope" />
		<tag k="place" v="locality" />
		<tag k="ssr:stedsnr" v="769457" />
	</node>
	<node lat="60.58788889266443" lon="11.631533331516653" id="-26047">
		<tag k="name" v="Merradalen" />
		<tag k="natural" v="valley" />
		<tag k="place" v="locality" />
		<tag k="ssr:stedsnr" v="770746" />
	</node>
	<node lat="60.57925555294422" lon="11.425869435781944" id="-26069">
		<tag k="name" v="Puttberget" />
		<tag k="natural" v="hill" />
		<tag k="place" v="locality" />
		<tag k="ssr:stedsnr" v="786736" />
	</node>
	<node lat="60.52969722097948" lon="11.289830546827794" id="-26071">
		<tag k="name" v="Kølbotndalen" />
		<tag k="natural" v="valley" />
		<tag k="place" v="locality" />
		<tag k="ssr:stedsnr" v="787336" />
	</node>
	<node lat="60.606013886170004" lon="11.54769444449178" id="-26081">
		<tag k="name" v="Buberget" />
		<tag k="natural" v="hill" />
		<tag k="place" v="locality" />
		<tag k="ssr:stedsnr" v="787764" />
	</node>
	<node lat="60.67162777843873" lon="11.569236103738358" id="-26084">
		<tag k="name" v="Høgfallet" />
		<tag k="natural" v="hill" />
		<tag k="place" v="locality" />
		<tag k="ssr:stedsnr" v="795398" />
	</node>
	<node lat="60.584816667384814" lon="11.632638890143701" id="-26092">
		<tag k="alt_name" v="Bringebærhaugen" />
		<tag k="name" v="Bringebærberget" />
		<tag k="natural" v="hill" />
		<tag k="place" v="locality" />
		<tag k="ssr:stedsnr" v="796171" />
	</node>
	<node lat="60.56360555428494" lon="11.366905548224034" id="-26093">
		<tag k="name" v="Knukberget" />
		<tag k="natural" v="hill" />
		<tag k="place" v="locality" />
		<tag k="ssr:stedsnr" v="796394" />
	</node>
	<node lat="60.568955557310645" lon="11.421924998916515" id="-26111">
		<tag k="name" v="Linnerudsberget" />
		<tag k="natural" v="hill" />
		<tag k="place" v="locality" />
		<tag k="ssr:stedsnr" v="829737" />
	</node>
	<node lat="60.59169444136957" lon="11.61019721457219" id="-26129">
		<tag k="name" v="Søndre Fjellsjøhøgda" />
		<tag k="natural" v="hill" />
		<tag k="place" v="locality" />
		<tag k="ssr:stedsnr" v="831716" />
	</node>
	<node lat="60.512397226009845" lon="11.260272221662442" id="-26138">
		<tag k="name" v="Slåttvanglia" />
		<tag k="natural" v="slope" />
		<tag k="place" v="locality" />
		<tag k="ssr:stedsnr" v="844248" />
	</node>
	<node lat="60.61067777826658" lon="11.35581667409418" id="-26145">
		<tag k="name" v="Tjennsmyrdalen" />
		<tag k="natural" v="valley" />
		<tag k="place" v="locality" />
		<tag k="ssr:stedsnr" v="846360" />
	</node>
	<node lat="60.71626111337025" lon="11.352194437937143" id="-26149">
		<tag k="name" v="Jølstadberget" />
		<tag k="natural" v="hill" />
		<tag k="place" v="locality" />
		<tag k="ssr:stedsnr" v="846469" />
	</node>
	<node lat="60.64239444016738" lon="11.393322214523032" id="-26156">
		<tag k="name" v="Haraberget" />
		<tag k="natural" v="hill" />
		<tag k="place" v="locality" />
		<tag k="ssr:stedsnr" v="848311" />
	</node>
	<node lat="60.642949996039945" lon="11.415941667647534" id="-26159">
		<tag k="name" v="Sundberget" />
		<tag k="natural" v="hill" />
		<tag k="place" v="locality" />
		<tag k="ssr:stedsnr" v="848317" />
	</node>
	<node lat="60.56392500332842" lon="11.497133324542439" id="-26179">
		<tag k="name" v="Middagsberget" />
		<tag k="natural" v="hill" />
		<tag k="place" v="locality" />
		<tag k="ssr:stedsnr" v="857168" />
	</node>
	<node lat="60.68348333489434" lon="11.396558341524225" id="-26181">
		<tag k="alt_name" v="Bålåsberget" />
		<tag k="name" v="Bolåsberget" />
		<tag k="natural" v="hill" />
		<tag k="place" v="locality" />
		<tag k="ssr:stedsnr" v="857551" />
	</node>
	<node lat="60.68609167002657" lon="11.388399999013261" id="-26182">
		<tag k="alt_name" v="Josvaberget" />
		<tag k="name" v="Josveberget" />
		<tag k="natural" v="hill" />
		<tag k="place" v="locality" />
		<tag k="ssr:stedsnr" v="857560" />
	</node>
	<node lat="60.67589166823903" lon="11.24737777478958" id="-26185">
		<tag k="name" v="Kolomoen" />
		<tag k="place" v="locality" />
		<tag k="ssr:stedsnr" v="857581" />
	</node>
	<node lat="60.51684166633197" lon="11.491452769194158" id="-26198">
		<tag k="name" v="Søndre Rasaberget" />
		<tag k="natural" v="slope" />
		<tag k="place" v="locality" />
		<tag k="ssr:stedsnr" v="949162" />
	</node>
	<node lat="60.5151527754421" lon="11.409222219370362" id="-26200">
		<tag k="name" v="Muslivanglia" />
		<tag k="natural" v="slope" />
		<tag k="place" v="locality" />
		<tag k="ssr:stedsnr" v="950142" />
	</node>
	<node lat="60.524655557259486" lon="11.53868334140897" id="-26208">
		<tag k="name" v="Hansmyrdalen" />
		<tag k="natural" v="valley" />
		<tag k="place" v="locality" />
		<tag k="ssr:stedsnr" v="950747" />
	</node>
	<node lat="60.55720833498105" lon="11.404169448148444" id="-26214">
		<tag k="fixme" v="consider natural=peak for the most distinct mountains in the district" />
		<tag k="name" v="Remmenvanghøgda" />
		<tag k="natural" v="hill" />
		<tag k="place" v="locality" />
		<tag k="ssr:stedsnr" v="952165" />
	</node>
	<node lat="60.546480556494146" lon="11.364783329000481" id="-26225">
		<tag k="name" v="Navarhaugen" />
		<tag k="natural" v="hill" />
		<tag k="place" v="locality" />
		<tag k="ssr:stedsnr" v="965236" />
	</node>
	<node lat="60.73852499563549" lon="11.371183339890727" id="-26233">
		<tag k="name" v="Nordsveberget" />
		<tag k="natural" v="hill" />
		<tag k="place" v="locality" />
		<tag k="ssr:stedsnr" v="967362" />
	</node>
	<node lat="60.616758334253426" lon="11.377191669741746" id="-26237">
		<tag k="name" v="Nygardshøgda" />
		<tag k="natural" v="hill" />
		<tag k="place" v="locality" />
		<tag k="ssr:stedsnr" v="967326" />
	</node>
	<node lat="60.62211110991499" lon="11.369574999799566" id="-26238">
		<tag k="name" v="Veslehøgda" />
		<tag k="natural" v="hill" />
		<tag k="place" v="locality" />
		<tag k="ssr:stedsnr" v="967330" />
	</node>
	<node lat="60.647744447783616" lon="11.475602781377638" id="-26243">
		<tag k="name" v="Sponholsberget" />
		<tag k="natural" v="hill" />
		<tag k="place" v="locality" />
		<tag k="ssr:stedsnr" v="967643" />
	</node>
	<node lat="60.53961388827028" lon="11.300369452876755" id="-26250">
		<tag k="fixme" v="consider natural=peak for the most distinct mountains in the district" />
		<tag k="name" v="Filiphaugen" />
		<tag k="natural" v="hill" />
		<tag k="place" v="locality" />
		<tag k="ssr:stedsnr" v="968329" />
	</node>
	<node lat="60.528285460301035" lon="11.32167311022014" id="-26334">
		<tag k="name" v="Nordre Romsæterberget" />
		<tag k="natural" v="hill" />
		<tag k="place" v="locality" />
		<tag k="ssr:stedsnr" v="1080852" />
	</node>
</osm>
