<?xml version="1.0" encoding="UTF-8"?>
<osm version="0.6" generator="osmapis">
	<node lat="60.767602777816116" lon="11.076402780533947" id="-39459">
		<tag k="alt_name" v="Nordsveholmen" />
		<tag k="landuse" v="recreation_ground" />
		<tag k="name" v="Nordsveodden friluftsområde" />
		<tag k="ssr:stedsnr" v="965253" />
	</node>
	<node lat="60.5753118252144" lon="11.280732583094185" id="-39794">
		<tag k="fixme" v="consider boundary=protected_area and relevant protect_class if not nature reserve" />
		<tag k="leisure" v="nature_reserve" />
		<tag k="name" v="Labbdalen naturreservat" />
		<tag k="ssr:stedsnr" v="1081101" />
	</node>
	<node lat="60.5226302774778" lon="11.311948305811542" id="-39795">
		<tag k="fixme" v="consider boundary=protected_area and relevant protect_class if not nature reserve" />
		<tag k="leisure" v="nature_reserve" />
		<tag k="name" v="Romsæterberget naturreservat" />
		<tag k="ssr:stedsnr" v="1081107" />
	</node>
	<node lat="60.516372077398906" lon="11.2985678558939" id="-39796">
		<tag k="fixme" v="consider boundary=protected_area and relevant protect_class if not nature reserve" />
		<tag k="leisure" v="nature_reserve" />
		<tag k="name" v="Klingerhaugen naturreservat" />
		<tag k="ssr:stedsnr" v="1081821" />
	</node>
	<node lat="60.564315522717216" lon="11.49854425254617" id="-39798">
		<tag k="fixme" v="consider boundary=protected_area and relevant protect_class if not nature reserve" />
		<tag k="leisure" v="nature_reserve" />
		<tag k="name" v="Middagsberget naturreservat" />
		<tag k="ssr:stedsnr" v="1083341" />
	</node>
</osm>
