<?xml version="1.0" encoding="UTF-8"?>
<<<<<<< HEAD
<osm version="0.6" generator="osmapis">
	<node lat="60.70687500045777" lon="11.219216670765027" id="-19378">
		<tag k="name" v="Våletjennet" />
		<tag k="natural" v="water" />
		<tag k="ssr:stedsnr" v="7504" />
	</node>
	<node lat="60.47102499914489" lon="11.296555551743893" id="-19387">
		<tag k="name" v="Tangfallodden" />
		<tag k="natural" v="cape" />
		<tag k="ssr:stedsnr" v="39216" />
	</node>
	<node lat="60.62048611520948" lon="11.30079443917876" id="-19397">
		<tag k="name" v="Nykjua" />
		<tag k="ssr:stedsnr" v="40438" />
		<tag k="waterway" v="stream" />
	</node>
	<node lat="60.51584722561977" lon="11.293955562495864" id="-19400">
		<tag k="name" v="Vestre Klingerhaugbekken" />
		<tag k="ssr:stedsnr" v="237245" />
		<tag k="waterway" v="stream" />
	</node>
	<node lat="60.68632777470648" lon="11.529619443637165" id="-19410">
		<tag k="name" v="Granhaugbekken" />
		<tag k="ssr:stedsnr" v="42830" />
		<tag k="waterway" v="stream" />
	</node>
	<node lat="60.625366663644684" lon="11.35860556104956" id="-19416">
		<tag k="alt_name" v="Sjølibekken" />
		<tag k="name" v="Sørlibekken" />
		<tag k="ssr:stedsnr" v="239359" />
		<tag k="waterway" v="stream" />
	</node>
	<node lat="60.631441669246136" lon="11.437016673850776" id="-19424">
		<tag k="name" v="Opptjennstøvika" />
		<tag k="natural" v="bay" />
		<tag k="ssr:stedsnr" v="239665" />
	</node>
	<node lat="60.530661114015345" lon="11.453283327379403" id="-19427">
		<tag k="name" v="Stentjennet" />
		<tag k="natural" v="water" />
		<tag k="ssr:stedsnr" v="55575" />
		<tag k="water" v="pond" />
	</node>
	<node lat="60.66723333683653" lon="11.143161103809126" id="-19428">
		<tag k="name" v="Hvitbergsåa" />
		<tag k="ssr:stedsnr" v="55919" />
		<tag k="waterway" v="stream" />
	</node>
	<node lat="60.61801111041828" lon="11.39261388834801" id="-19429">
		<tag k="name" v="Nordre Bjørnbekken" />
		<tag k="ssr:stedsnr" v="57326" />
		<tag k="waterway" v="stream" />
	</node>
	<node lat="60.52420000269199" lon="11.25141944546959" id="-19435">
		<tag k="name" v="Ekebekken" />
		<tag k="ssr:stedsnr" v="59273" />
		<tag k="waterway" v="stream" />
	</node>
	<node lat="60.463255553722206" lon="11.341669436327527" id="-19437">
		<tag k="name" v="Alisholmen" />
		<tag k="place" v="islet" />
		<tag k="ssr:stedsnr" v="59891" />
	</node>
	<node lat="60.709755555877464" lon="11.189136102924184" id="-19445">
		<tag k="name" v="Fagerhaugen" />
		<tag k="ssr:stedsnr" v="241561" />
		<tag k="waterway" v="stream" />
	</node>
	<node lat="60.61143333114274" lon="11.432477772509264" id="-19448">
		<tag k="name" v="Butjennet" />
		<tag k="natural" v="water" />
		<tag k="ssr:stedsnr" v="67433" />
	</node>
	<node lat="60.5889583377037" lon="11.517388882527175" id="-19449">
		<tag k="name" v="Villbekken" />
		<tag k="ssr:stedsnr" v="67192" />
		<tag k="waterway" v="stream" />
	</node>
	<node lat="60.585736114252136" lon="11.475236108257572" id="-19450">
		<tag k="name" v="Båntjennet" />
		<tag k="natural" v="water" />
		<tag k="ssr:stedsnr" v="67195" />
	</node>
	<node lat="60.49165278118385" lon="11.29773334224035" id="-19451">
		<tag k="name" v="Jutsætertjennet" />
		<tag k="natural" v="water" />
		<tag k="ssr:stedsnr" v="67398" />
	</node>
	<node lat="60.665430556014925" lon="11.506425005889087" id="-19452">
		<tag k="name" v="Holmtjennet" />
		<tag k="natural" v="water" />
		<tag k="ssr:stedsnr" v="68387" />
	</node>
	<node lat="60.576538887678765" lon="11.368900001942494" id="-19454">
		<tag k="name" v="Svartputten" />
		<tag k="natural" v="water" />
		<tag k="ssr:stedsnr" v="68405" />
	</node>
	<node lat="60.54192222385678" lon="11.466838892565237" id="-19459">
		<tag k="name" v="Bjørnstadfløyta" />
		<tag k="natural" v="water" />
		<tag k="ssr:stedsnr" v="68486" />
		<tag k="water" v="lake" />
	</node>
	<node lat="60.53864166895479" lon="11.344502780833174" id="-19460">
		<tag k="name" v="Bergsjøen" />
		<tag k="natural" v="water" />
		<tag k="ssr:stedsnr" v="68488" />
	</node>
	<node lat="60.54724444442114" lon="11.372536114408401" id="-19461">
		<tag k="alt_name" v="Lalumsåa" />
		<tag k="name" v="Lalumselva" />
		<tag k="ssr:stedsnr" v="68489" />
		<tag k="waterway" v="stream" />
	</node>
	<node lat="60.7691611107716" lon="11.074455553887121" id="-19463">
		<tag k="name" v="Nordsveodden" />
		<tag k="natural" v="cape" />
		<tag k="ssr:stedsnr" v="70478" />
	</node>
	<node lat="60.70755555376784" lon="11.472369449241393" id="-19474">
		<tag k="name" v="Barkliselva" />
		<tag k="ssr:stedsnr" v="100803" />
		<tag k="waterway" v="stream" />
	</node>
	<node lat="60.63493333509401" lon="11.51075277477932" id="-19484">
		<tag k="name" v="Haratjennet" />
		<tag k="natural" v="water" />
		<tag k="ssr:stedsnr" v="102705" />
	</node>
	<node lat="60.547830556405735" lon="11.445122227632426" id="-19486">
		<tag k="name" v="Eltondammen" />
		<tag k="ssr:stedsnr" v="102678" />
		<tag k="waterway" v="dam" />
	</node>
	<node lat="60.690836113538374" lon="11.554405549096245" id="-19488">
		<tag k="name" v="Kutjennet" />
		<tag k="natural" v="water" />
		<tag k="ssr:stedsnr" v="102907" />
	</node>
	<node lat="60.61730000417086" lon="11.629069451884364" id="-19494">
		<tag k="name" v="Oppsangtjennet" />
		<tag k="natural" v="water" />
		<tag k="ssr:stedsnr" v="249165" />
	</node>
	<node lat="60.68770277819158" lon="11.568047218712636" id="-19495">
		<tag k="name" v="Starrtjenna" />
		<tag k="natural" v="water" />
		<tag k="ssr:stedsnr" v="249359" />
		<tag k="water" v="lake" />
	</node>
	<node lat="60.70726111442137" lon="11.288063890972957" id="-19505">
		<tag k="name" v="Melstjennet" />
		<tag k="natural" v="water" />
		<tag k="ssr:stedsnr" v="249516" />
	</node>
	<node lat="60.62948889107478" lon="11.629755549581423" id="-19516">
		<tag k="name" v="Solungtjennet" />
		<tag k="natural" v="water" />
		<tag k="ssr:stedsnr" v="250337" />
	</node>
	<node lat="60.69717499862876" lon="11.425141670210522" id="-19521">
		<tag k="alt_name" v="Yksen, vesle;Veltyksna" />
		<tag k="name" v="Vesle Yksen" />
		<tag k="natural" v="water" />
		<tag k="ssr:stedsnr" v="250542" />
	</node>
	<node lat="60.69648055275463" lon="11.407333327696524" id="-19522">
		<tag k="alt_name" v="Yksen, store;Storyksna" />
		<tag k="name" v="Store Yksen" />
		<tag k="natural" v="water" />
		<tag k="ssr:stedsnr" v="250543" />
	</node>
	<node lat="60.68934999616956" lon="11.419583333834852" id="-19523">
		<tag k="name" v="Lomtjennet" />
		<tag k="natural" v="water" />
		<tag k="ssr:stedsnr" v="250524" />
	</node>
	<node lat="60.58645833270989" lon="11.211897219099606" id="-19539">
		<tag k="name" v="Storsand" />
		<tag k="natural" v="beach" />
		<tag k="ssr:stedsnr" v="119380" />
	</node>
	<node lat="60.58427499974663" lon="11.227133335921174" id="-19540">
		<tag k="name" v="Søndre Engvika" />
		<tag k="natural" v="bay" />
		<tag k="ssr:stedsnr" v="119384" />
	</node>
	<node lat="60.53010833765549" lon="11.29603056072777" id="-19545">
		<tag k="name" v="Østre Tømmerholbekken" />
		<tag k="ssr:stedsnr" v="120320" />
		<tag k="waterway" v="stream" />
	</node>
	<node lat="60.61548906443542" lon="11.552968697860463" id="-19547">
		<tag k="name" v="Målåvatna" />
		<tag k="natural" v="water" />
		<tag k="ssr:stedsnr" v="128144" />
		<tag k="water" v="lake" />
	</node>
	<node lat="60.670044444308644" lon="11.517258342141968" id="-19550">
		<tag k="name" v="Sildtjenna" />
		<tag k="natural" v="water" />
		<tag k="ssr:stedsnr" v="128343" />
		<tag k="water" v="lake" />
	</node>
	<node lat="60.65903888812087" lon="11.623088895496501" id="-19552">
		<tag k="alt_name" v="Sorten, vesle" />
		<tag k="name" v="Vesle Sorten" />
		<tag k="natural" v="water" />
		<tag k="ssr:stedsnr" v="128292" />
	</node>
	<node lat="60.62699444527883" lon="11.556663893303691" id="-19553">
		<tag k="name" v="Kråkhorntjennet" />
		<tag k="natural" v="water" />
		<tag k="ssr:stedsnr" v="128299" />
	</node>
	<node lat="60.59913333517899" lon="11.196044441111042" id="-19554">
		<tag k="name" v="Geitholmen" />
		<tag k="place" v="islet" />
		<tag k="ssr:stedsnr" v="128409" />
	</node>
	<node lat="60.601230559079724" lon="11.325894437062974" id="-19555">
		<tag k="name" v="Nykjua" />
		<tag k="ssr:stedsnr" v="128412" />
		<tag k="waterway" v="stream" />
	</node>
	<node lat="60.48251944235698" lon="11.323141660688636" id="-19582">
		<tag k="name" v="Haugertjennet" />
		<tag k="natural" v="water" />
		<tag k="ssr:stedsnr" v="162970" />
	</node>
	<node lat="60.66104166373542" lon="11.496688885995201" id="-19585">
		<tag k="name" v="Holmtjennsbekken" />
		<tag k="ssr:stedsnr" v="163626" />
		<tag k="waterway" v="stream" />
	</node>
	<node lat="60.58314721897863" lon="11.479372213858289" id="-19586">
		<tag k="name" v="Båntjennsdammen" />
		<tag k="ssr:stedsnr" v="164116" />
		<tag k="waterway" v="dam" />
	</node>
	<node lat="60.53974166763894" lon="11.499508338415595" id="-19588">
		<tag k="name" v="Grønvika" />
		<tag k="natural" v="bay" />
		<tag k="ssr:stedsnr" v="176553" />
	</node>
	<node lat="60.58774166862606" lon="11.229105550145459" id="-19603">
		<tag k="name" v="Nordre Engvika" />
		<tag k="natural" v="bay" />
		<tag k="ssr:stedsnr" v="180371" />
	</node>
	<node lat="60.52350555932687" lon="11.261369443791992" id="-19608">
		<tag k="name" v="Busterudbekken" />
		<tag k="ssr:stedsnr" v="181269" />
		<tag k="waterway" v="stream" />
	</node>
	<node lat="60.63988055971762" lon="11.59741666976651" id="-19612">
		<tag k="alt_name" v="Store Gransjøen" />
		<tag k="name" v="Gransjøen" />
		<tag k="natural" v="water" />
		<tag k="ssr:stedsnr" v="189321" />
	</node>
	<node lat="60.7094833345581" lon="11.439922213604284" id="-19644">
		<tag k="name" v="Bjørktjennsbekken" />
		<tag k="ssr:stedsnr" v="222822" />
		<tag k="waterway" v="stream" />
	</node>
	<node lat="60.513100002718005" lon="11.241716670608334" id="-19665">
		<tag k="name" v="Meise" />
		<tag k="natural" v="beach" />
		<tag k="ssr:stedsnr" v="240328" />
	</node>
	<node lat="60.531891665280575" lon="11.339338897154107" id="-19691">
		<tag k="name" v="Fjellsbekken" />
		<tag k="ssr:stedsnr" v="283181" />
		<tag k="waterway" v="stream" />
	</node>
	<node lat="60.59561944760661" lon="11.507349995388836" id="-19704">
		<tag k="name" v="Fløtdammen" />
		<tag k="ssr:stedsnr" v="285186" />
		<tag k="waterway" v="dam" />
	</node>
	<node lat="60.57318889323028" lon="11.521869452660125" id="-19709">
		<tag k="name" v="Vakkermyrbekken" />
		<tag k="ssr:stedsnr" v="298580" />
		<tag k="waterway" v="stream" />
	</node>
	<node lat="60.60351944187814" lon="11.612455564451547" id="-19721">
		<tag k="name" v="Søndre Rottjennet" />
		<tag k="natural" v="water" />
		<tag k="ssr:stedsnr" v="300448" />
	</node>
	<node lat="60.7366444442275" lon="11.088250001189015" id="-19722">
		<tag k="name" v="Ringnesvika" />
		<tag k="natural" v="bay" />
		<tag k="ssr:stedsnr" v="301216" />
	</node>
	<node lat="60.60412778006632" lon="11.590511113919655" id="-19728">
		<tag k="name" v="Hemtjennsbekken" />
		<tag k="ssr:stedsnr" v="301783" />
		<tag k="waterway" v="stream" />
	</node>
	<node lat="60.52165555592047" lon="11.381461105709969" id="-19730">
		<tag k="name" v="Hersjødammen" />
		<tag k="ssr:stedsnr" v="464001" />
		<tag k="waterway" v="dam" />
	</node>
	<node lat="60.53376111324651" lon="11.2920861078122" id="-19731">
		<tag k="name" v="Vestre Tømmerholbekken" />
		<tag k="ssr:stedsnr" v="302303" />
		<tag k="waterway" v="stream" />
	</node>
	<node lat="60.63976667063105" lon="11.542580563537438" id="-19740">
		<tag k="name" v="Nordre Mjøvatnet" />
		<tag k="natural" v="water" />
		<tag k="ssr:stedsnr" v="464937" />
	</node>
	<node lat="60.68242777641257" lon="11.230866674879227" id="-19746">
		<tag k="name" v="Rotbekken" />
		<tag k="ssr:stedsnr" v="465528" />
		<tag k="waterway" v="stream" />
	</node>
	<node lat="60.62932777664586" lon="11.408097214111443" id="-19755">
		<tag k="name" v="Sundåa" />
		<tag k="ssr:stedsnr" v="310611" />
		<tag k="waterway" v="stream" />
	</node>
	<node lat="60.655936110932686" lon="11.558744452219186" id="-19759">
		<tag k="name" v="Stentjennet" />
		<tag k="natural" v="water" />
		<tag k="ssr:stedsnr" v="310331" />
	</node>
	<node lat="60.65651111130386" lon="11.491716672900704" id="-19760">
		<tag k="name" v="Pottsæteråa" />
		<tag k="ssr:stedsnr" v="310334" />
		<tag k="waterway" v="stream" />
	</node>
	<node lat="60.58850277695081" lon="11.40109443734685" id="-19762">
		<tag k="name" v="Gaukilsjøen" />
		<tag k="natural" v="water" />
		<tag k="ssr:stedsnr" v="310384" />
	</node>
	<node lat="60.716299996393495" lon="11.274186107771722" id="-19766">
		<tag k="name" v="Brynitjennet" />
		<tag k="natural" v="water" />
		<tag k="ssr:stedsnr" v="310534" />
	</node>
	<node lat="60.66534999765741" lon="11.139402771220324" id="-19767">
		<tag k="name" v="Gjøvika" />
		<tag k="natural" v="bay" />
		<tag k="ssr:stedsnr" v="310584" />
	</node>
	<node lat="60.551866668775716" lon="11.402655559056141" id="-19771">
		<tag k="name" v="Remmentjennet" />
		<tag k="natural" v="water" />
		<tag k="ssr:stedsnr" v="466141" />
	</node>
	<node lat="60.73380277747478" lon="11.166774999019985" id="-19772">
		<tag k="name" v="Brenneribekken" />
		<tag k="ssr:stedsnr" v="466245" />
		<tag k="waterway" v="stream" />
	</node>
	<node lat="60.66234722276115" lon="11.138469453272108" id="-19797">
		<tag k="name" v="Vethammerodden" />
		<tag k="natural" v="cape" />
		<tag k="ssr:stedsnr" v="343043" />
	</node>
	<node lat="60.670105557664996" lon="11.508347218344122" id="-19811">
		<tag k="name" v="Kalvtjennet" />
		<tag k="natural" v="water" />
		<tag k="ssr:stedsnr" v="345858" />
	</node>
	<node lat="60.49324999901497" lon="11.311008328681114" id="-19822">
		<tag k="alt_name" v="Spitalsjøen" />
		<tag k="name" v="Spetalsjøen" />
		<tag k="natural" v="water" />
		<tag k="ssr:stedsnr" v="370428" />
		<tag k="water" v="lake" />
	</node>
	<node lat="60.53887777694637" lon="11.504819444087254" id="-19826">
		<tag k="name" v="Rasasjøen" />
		<tag k="natural" v="water" />
		<tag k="ssr:stedsnr" v="371227" />
		<tag k="water" v="lake" />
	</node>
	<node lat="60.641336111379054" lon="11.55262500832765" id="-19827">
		<tag k="alt_name" v="Sverkjen" />
		<tag k="name" v="Sverkja" />
		<tag k="natural" v="water" />
		<tag k="ssr:stedsnr" v="371326" />
	</node>
	<node lat="60.55321666859216" lon="11.3199638807433" id="-19830">
		<tag k="name" v="Gransjøen" />
		<tag k="natural" v="water" />
		<tag k="ssr:stedsnr" v="371379" />
	</node>
	<node lat="60.5427694427694" lon="11.510077775390071" id="-19838">
		<tag k="name" v="Brattskjærvika" />
		<tag k="natural" v="bay" />
		<tag k="ssr:stedsnr" v="479581" />
	</node>
	<node lat="60.60615555656728" lon="11.203138884943824" id="-19852">
		<tag k="name" v="Refsalbekken" />
		<tag k="ssr:stedsnr" v="483401" />
		<tag k="waterway" v="stream" />
	</node>
	<node lat="60.59620833414759" lon="11.441622217377612" id="-19858">
		<tag k="name" v="Opptjennet" />
		<tag k="natural" v="water" />
		<tag k="ssr:stedsnr" v="483728" />
	</node>
	<node lat="60.7270888846771" lon="11.09389721757892" id="-19862">
		<tag k="name" v="Nordre Staurodden" />
		<tag k="natural" v="cape" />
		<tag k="ssr:stedsnr" v="403165" />
	</node>
	<node lat="60.70909444015192" lon="11.153594440001841" id="-19867">
		<tag k="name" v="Osvollåa" />
		<tag k="ssr:stedsnr" v="404085" />
		<tag k="waterway" v="stream" />
	</node>
	<node lat="60.62420555125626" lon="11.25881110620206" id="-19872">
		<tag k="name" v="Viksbekken" />
		<tag k="ssr:stedsnr" v="404402" />
		<tag k="waterway" v="stream" />
	</node>
	<node lat="60.57011944528897" lon="11.471863880619413" id="-19874">
		<tag k="name" v="Svartkulpen" />
		<tag k="natural" v="water" />
		<tag k="ssr:stedsnr" v="404692" />
	</node>
	<node lat="60.54046111166278" lon="11.269866664348184" id="-19898">
		<tag k="name" v="Nordre Markbekken" />
		<tag k="ssr:stedsnr" v="422308" />
		<tag k="waterway" v="stream" />
	</node>
	<node lat="60.58146944217163" lon="11.58831666399991" id="-19903">
		<tag k="name" v="Skredderbekken" />
		<tag k="ssr:stedsnr" v="423808" />
		<tag k="waterway" v="stream" />
	</node>
	<node lat="60.480638891947294" lon="11.195405555401956" id="-19904">
		<tag k="name" v="Mjøsa" />
		<tag k="natural" v="water" />
		<tag k="ssr:stedsnr" v="431452" />
		<tag k="water" v="lake" />
	</node>
	<node lat="60.66988611439307" lon="11.465227771205603" id="-19906">
		<tag k="name" v="Jutsjøen" />
		<tag k="natural" v="water" />
		<tag k="ssr:stedsnr" v="431610" />
	</node>
	<node lat="60.55747500438287" lon="11.530099994609905" id="-19925">
		<tag k="name" v="Ormtjennet" />
		<tag k="natural" v="water" />
		<tag k="ssr:stedsnr" v="492100" />
	</node>
	<node lat="60.584136112552365" lon="11.42187777147351" id="-19932">
		<tag k="alt_name" v="Vesleputten" />
		<tag k="name" v="Veltputten" />
		<tag k="place" v="locality" />
		<tag k="ssr:stedsnr" v="492364" />
	</node>
	<node lat="60.572049998208406" lon="11.337266658780969" id="-19934">
		<tag k="alt_name" v="Lillereesjøen" />
		<tag k="name" v="Litleresjøen" />
=======
<osm generator="osmapis" version="0.6">
	<node id="-312320" lat="60.6292722187" lon="11.5312055521">
		<tag k="name" v="Korpkulpen" />
		<tag k="natural" v="water" />
		<tag k="ssr:stedsnr" v="587681" />
	</node>
	<node id="-313853" lat="60.6722944451" lon="11.4956972272">
		<tag k="name" v="Brenntjennet" />
		<tag k="natural" v="water" />
		<tag k="ssr:stedsnr" v="831832" />
	</node>
	<node id="-313852" lat="60.6731999973" lon="11.4591638935">
		<tag k="name" v="Helgåstjennet" />
		<tag k="natural" v="water" />
		<tag k="ssr:stedsnr" v="831824" />
	</node>
	<node id="-313851" lat="60.6853833362" lon="11.4437944436">
		<tag k="name" v="Gaustadsæterbekken" />
		<tag k="ssr:stedsnr" v="831817" />
		<tag k="waterway" v="stream" />
	</node>
	<node id="-311809" lat="60.5800638879" lon="11.6464972218">
		<tag k="name" v="Skjeggvolltjernet" />
		<tag k="natural" v="water" />
		<tag k="old_name" v="Gaardsvand mellom" />
		<tag k="ssr:stedsnr" v="283754" />
	</node>
	<node id="-313337" lat="60.6175861072" lon="11.5409166745">
		<tag k="name" v="Målåvassdammen" />
		<tag k="ssr:stedsnr" v="402300" />
		<tag k="waterway" v="dam" />
	</node>
	<node id="-312824" lat="60.5584694464" lon="11.4192000065">
		<tag k="name" v="Storfløtdammen" />
		<tag k="ssr:stedsnr" v="41636" />
		<tag k="waterway" v="dam" />
	</node>
	<node id="-312823" lat="60.5416388901" lon="11.47384723">
		<tag k="name" v="Skomakerfløta" />
		<tag k="natural" v="water" />
		<tag k="ssr:stedsnr" v="41629" />
		<tag k="water" v="lake" />
	</node>
	<node id="-312310" lat="60.6445611143" lon="11.54213611">
		<tag k="name" v="Sverkjedammen" />
		<tag k="ssr:stedsnr" v="585926" />
		<tag k="waterway" v="dam" />
	</node>
	<node id="-311796" lat="60.5318916653" lon="11.3393388972">
		<tag k="name" v="Fjellsbekken" />
		<tag k="ssr:stedsnr" v="283181" />
		<tag k="waterway" v="stream" />
	</node>
	<node id="-312817" lat="60.5678305512" lon="11.4491805532">
		<tag k="name" v="Nordre Huldertjennet" />
		<tag k="natural" v="water" />
		<tag k="ssr:stedsnr" v="40778" />
	</node>
	<node id="-312815" lat="60.6103833342" lon="11.2500000008">
		<tag k="name" v="Brenntjennet" />
		<tag k="natural" v="water" />
		<tag k="ssr:stedsnr" v="40390" />
	</node>
	<node id="-313325" lat="60.6195291796" lon="11.2134907081">
		<tag k="name" v="Refsaltjennet" />
		<tag k="natural" v="water" />
		<tag k="ssr:stedsnr" v="371592" />
	</node>
	<node id="-312300" lat="60.5579916663" lon="11.5052888827">
		<tag k="name" v="Fjæstaddammen" />
		<tag k="ssr:stedsnr" v="710083" />
		<tag k="waterway" v="dam" />
	</node>
	<node id="-311786" lat="60.497608331" lon="11.2437805569">
		<tag k="name" v="Budalsbekken" />
		<tag k="ssr:stedsnr" v="282214" />
		<tag k="waterway" v="stream" />
	</node>
	<node id="-312297" lat="60.6614305563" lon="11.5461305508">
		<tag k="name" v="Stentjennsbekken" />
		<tag k="ssr:stedsnr" v="709914" />
		<tag k="waterway" v="stream" />
	</node>
	<node id="-313340" lat="60.7090944402" lon="11.15359444">
		<tag k="name" v="Osvollåa" />
		<tag k="ssr:stedsnr" v="404085" />
		<tag k="waterway" v="stream" />
	</node>
	<node id="-312806" lat="60.5216277762" lon="11.3400166721">
		<tag k="name" v="Vangstjennet" />
		<tag k="natural" v="water" />
		<tag k="ssr:stedsnr" v="40229" />
	</node>
	<node id="-313317" lat="60.6413361114" lon="11.5526250083">
		<tag k="alt_name" v="Sverkjen" />
		<tag k="name" v="Sverkja" />
		<tag k="natural" v="water" />
		<tag k="ssr:stedsnr" v="371326" />
	</node>
	<node id="-313316" lat="60.5388777769" lon="11.5048194441">
		<tag k="name" v="Rasasjøen" />
		<tag k="natural" v="water" />
		<tag k="ssr:stedsnr" v="371227" />
		<tag k="water" v="lake" />
	</node>
	<node id="-312291" lat="60.5697888931" lon="11.6491333315">
		<tag k="name" v="Gåsvassåa" />
		<tag k="ssr:stedsnr" v="709746" />
		<tag k="waterway" v="stream" />
	</node>
	<node id="-311778" lat="60.4825194424" lon="11.3231416607">
		<tag k="name" v="Haugertjennet" />
		<tag k="natural" v="water" />
		<tag k="ssr:stedsnr" v="162970" />
	</node>
	<node id="-312059" lat="60.6242055513" lon="11.2588111062">
		<tag k="name" v="Viksbekken" />
		<tag k="ssr:stedsnr" v="404402" />
		<tag k="waterway" v="stream" />
	</node>
	<node id="-312288" lat="60.6397805555" lon="11.5118055572">
		<tag k="name" v="Haratjennsbekken" />
		<tag k="ssr:stedsnr" v="709643" />
		<tag k="waterway" v="stream" />
	</node>
	<node id="-311632" lat="60.6253666636" lon="11.358605561">
		<tag k="alt_name" v="Sjølibekken" />
		<tag k="name" v="Sørlibekken" />
		<tag k="ssr:stedsnr" v="239359" />
		<tag k="waterway" v="stream" />
	</node>
	<node id="-312798" lat="60.6429972178" lon="11.3249944519">
		<tag k="name" v="Kringlehullet" />
		<tag k="place" v="locality" />
		<tag k="ssr:stedsnr" v="39288" />
	</node>
	<node id="-313306" lat="60.493249999" lon="11.3110083287">
		<tag k="alt_name" v="Spitalsjøen" />
		<tag k="name" v="Spetalsjøen" />
		<tag k="natural" v="water" />
		<tag k="ssr:stedsnr" v="370428" />
		<tag k="water" v="lake" />
	</node>
	<node id="-312911" lat="60.5379222245" lon="11.2989916687">
		<tag k="name" v="Tømmermyrbekken" />
		<tag k="ssr:stedsnr" v="300339" />
		<tag k="waterway" v="stream" />
	</node>
	<node id="-313814" lat="60.6281944409" lon="11.5591694453">
		<tag k="name" v="Grastjennsbekken" />
		<tag k="ssr:stedsnr" v="828922" />
		<tag k="waterway" v="stream" />
	</node>
	<node id="-311764" lat="60.7321083341" lon="11.0926888812">
		<tag k="name" v="Fagerlivika" />
		<tag k="natural" v="bay" />
		<tag k="ssr:stedsnr" v="161202" />
	</node>
	<node id="-312995" lat="60.6016027742" lon="11.2734583419">
		<tag k="name" v="Viksvika" />
		<tag k="natural" v="bay" />
		<tag k="ssr:stedsnr" v="119458" />
	</node>
	<node id="-313296" lat="60.5966970912" lon="11.2016230035">
		<tag k="name" v="Tuvika" />
		<tag k="natural" v="bay" />
		<tag k="ssr:stedsnr" v="362391" />
	</node>
	<node id="-312779" lat="60.7068750005" lon="11.2192166708">
		<tag k="name" v="Våletjennet" />
		<tag k="natural" v="water" />
		<tag k="ssr:stedsnr" v="7504" />
	</node>
	<node id="-312776" lat="60.7048527756" lon="11.4408361024">
		<tag k="name" v="Bjørktjennet" />
		<tag k="natural" v="water" />
		<tag k="ssr:stedsnr" v="7489" />
	</node>
	<node id="-312775" lat="60.703944444" lon="11.4150916645">
		<tag k="name" v="Djupdalstjennet" />
		<tag k="natural" v="water" />
		<tag k="ssr:stedsnr" v="7487" />
	</node>
	<node id="-312965" lat="60.6082958913" lon="11.6095797854">
		<tag k="name" v="Nordre Rottjennet" />
		<tag k="natural" v="water" />
		<tag k="ssr:stedsnr" v="103750" />
	</node>
	<node id="-312956" lat="60.6908361135" lon="11.5544055491">
		<tag k="name" v="Kutjennet" />
		<tag k="natural" v="water" />
		<tag k="ssr:stedsnr" v="102907" />
	</node>
	<node id="-312259" lat="60.6978027785" lon="11.4166277806">
		<tag k="name" v="Yksenkanalen" />
		<tag k="ssr:stedsnr" v="707302" />
		<tag k="waterway" v="stream" />
	</node>
	<node id="-313791" lat="60.4724611142" lon="11.3336750034">
		<tag k="name" v="Svartputten" />
		<tag k="natural" v="water" />
		<tag k="ssr:stedsnr" v="795499" />
	</node>
	<node id="-311742" lat="60.5301083377" lon="11.2960305607">
		<tag k="name" v="Østre Tømmerholbekken" />
		<tag k="ssr:stedsnr" v="120320" />
		<tag k="waterway" v="stream" />
	</node>
	<node id="-311741" lat="60.5864583327" lon="11.2118972191">
		<tag k="name" v="Storsand" />
		<tag k="natural" v="beach" />
		<tag k="ssr:stedsnr" v="119380" />
	</node>
	<node id="-313787" lat="60.6691916692" lon="11.3928444459">
		<tag k="name" v="Øvre Mælumstjennet" />
		<tag k="natural" v="water" />
		<tag k="ssr:stedsnr" v="795625" />
	</node>
	<node id="-311738" lat="60.6769722202" lon="11.3569888939">
		<tag k="name" v="Katthølsbekken" />
		<tag k="ssr:stedsnr" v="102530" />
		<tag k="waterway" v="stream" />
	</node>
	<node id="-311967" lat="60.6701055577" lon="11.5083472183">
		<tag k="name" v="Kalvtjennet" />
		<tag k="natural" v="water" />
		<tag k="ssr:stedsnr" v="345858" />
	</node>
	<node id="-312760" lat="60.5920999971" lon="11.6163888914">
		<tag k="alt_name" v="Speltjennet" />
		<tag k="name" v="Fjellsjøen" />
		<tag k="natural" v="water" />
		<tag k="ssr:stedsnr" v="7173" />
	</node>
	<node id="-312247" lat="60.6661999972" lon="11.1353000088">
		<tag k="name" v="Nebbvika" />
		<tag k="natural" v="bay" />
		<tag k="ssr:stedsnr" v="707044" />
	</node>
	<node id="-313269" lat="60.5948111096" lon="11.3945055595">
		<tag k="name" v="Tjennbekken" />
		<tag k="ssr:stedsnr" v="344360" />
		<tag k="waterway" v="stream" />
	</node>
	<node id="-313779" lat="60.7225944444" lon="11.2371249975">
		<tag k="name" v="Vestre Starelva" />
		<tag k="ssr:stedsnr" v="787672" />
		<tag k="waterway" v="stream" />
	</node>
	<node id="-312845" lat="60.6863277747" lon="11.5296194436">
		<tag k="name" v="Granhaugbekken" />
		<tag k="ssr:stedsnr" v="42830" />
		<tag k="waterway" v="stream" />
	</node>
	<node id="-312752" lat="60.4667611113" lon="11.2981750016">
		<tag k="name" v="Lysjøen" />
		<tag k="natural" v="water" />
		<tag k="old_name" v="Lysjø" />
		<tag k="ssr:stedsnr" v="6440" />
		<tag k="water" v="lake" />
	</node>
	<node id="-311839" lat="60.5235055593" lon="11.2613694438">
		<tag k="name" v="Busterudbekken" />
		<tag k="ssr:stedsnr" v="181269" />
		<tag k="waterway" v="stream" />
	</node>
	<node id="-313771" lat="60.5899999966" lon="11.2300527822">
		<tag k="name" v="Silvika" />
		<tag k="natural" v="bay" />
		<tag k="ssr:stedsnr" v="787380" />
	</node>
	<node id="-312746" lat="60.5124027781" lon="11.3238944381">
		<tag k="name" v="Romsæterbekken" />
		<tag k="ssr:stedsnr" v="968964" />
		<tag k="waterway" v="stream" />
	</node>
	<node id="-313629" lat="60.6728611101" lon="11.5909777825">
		<tag k="name" v="Sortsæterstortjennet" />
		<tag k="natural" v="water" />
		<tag k="ssr:stedsnr" v="613347" />
	</node>
	<node id="-312248" lat="60.6491138879" lon="11.1545499948">
		<tag k="name" v="Rotlibekken" />
		<tag k="ssr:stedsnr" v="707046" />
		<tag k="waterway" v="stream" />
	</node>
	<node id="-312743" lat="60.4706749994" lon="11.3023055548">
		<tag k="name" v="Pinnfallodden" />
		<tag k="natural" v="cape" />
		<tag k="ssr:stedsnr" v="968909" />
	</node>
	<node id="-312742" lat="60.561049996" lon="11.2887749952">
		<tag k="name" v="Kølhusbekken" />
		<tag k="ssr:stedsnr" v="968419" />
		<tag k="waterway" v="stream" />
	</node>
	<node id="-311793" lat="60.6355472256" lon="11.5515388909">
		<tag k="name" v="Søndre Mjøvatnet" />
		<tag k="natural" v="water" />
		<tag k="ssr:stedsnr" v="282945" />
	</node>
	<node id="-313764" lat="60.469888891" lon="11.303563888">
		<tag k="name" v="Pinnfallvika" />
		<tag k="natural" v="bay" />
		<tag k="ssr:stedsnr" v="786914" />
	</node>
	<node id="-313251" lat="60.6623472228" lon="11.1384694533">
		<tag k="name" v="Vethammerodden" />
		<tag k="natural" v="cape" />
		<tag k="ssr:stedsnr" v="343043" />
	</node>
	<node id="-313248" lat="60.7225777776" lon="11.1173694427">
		<tag k="name" v="Kjemstadåa" />
		<tag k="ssr:stedsnr" v="342175" />
		<tag k="waterway" v="stream" />
	</node>
	<node id="-311711" lat="60.6964805528" lon="11.4073333277">
		<tag k="alt_name" v="Yksen, store;Storyksna" />
		<tag k="name" v="Store Yksen" />
		<tag k="natural" v="water" />
		<tag k="ssr:stedsnr" v="250543" />
	</node>
	<node id="-311710" lat="60.6971749986" lon="11.4251416702">
		<tag k="alt_name" v="Yksen, vesle;Veltyksna" />
		<tag k="name" v="Vesle Yksen" />
		<tag k="natural" v="water" />
		<tag k="ssr:stedsnr" v="250542" />
	</node>
	<node id="-313669" lat="60.5610361081" lon="11.457433325">
		<tag k="name" v="Søndre Huldertjennet" />
		<tag k="natural" v="water" />
		<tag k="ssr:stedsnr" v="647641" />
	</node>
	<node id="-311708" lat="60.6893499962" lon="11.4195833338">
		<tag k="name" v="Lomtjennet" />
		<tag k="natural" v="water" />
		<tag k="ssr:stedsnr" v="250524" />
	</node>
	<node id="-312474" lat="60.5574027794" lon="11.3573444491">
		<tag k="name" v="Knukdammen" />
		<tag k="ssr:stedsnr" v="889221" />
		<tag k="waterway" v="dam" />
	</node>
	<node id="-313241" lat="60.8020083296" lon="11.2898000001">
		<tag k="name" v="Fura" />
		<tag k="ssr:stedsnr" v="312850" />
		<tag k="waterway" v="river" />
	</node>
	<node id="-311703" lat="60.6294888911" lon="11.6297555496">
		<tag k="name" v="Solungtjennet" />
		<tag k="natural" v="water" />
		<tag k="ssr:stedsnr" v="250337" />
	</node>
	<node id="-312810" lat="60.6204861152" lon="11.3007944392">
		<tag k="name" v="Nykjua" />
		<tag k="ssr:stedsnr" v="40438" />
		<tag k="waterway" v="stream" />
	</node>
	<node id="-313749" lat="60.6171805563" lon="11.3992083309">
		<tag k="name" v="Søndre Bjørnbekken" />
		<tag k="ssr:stedsnr" v="785335" />
		<tag k="waterway" v="stream" />
	</node>
	<node id="-313748" lat="60.6725361106" lon="11.1172138889">
		<tag k="name" v="Sotodden" />
		<tag k="natural" v="cape" />
		<tag k="ssr:stedsnr" v="784069" />
	</node>
	<node id="-312899" lat="60.5472444444" lon="11.3725361144">
		<tag k="alt_name" v="Lalumsåa" />
		<tag k="name" v="Lalumselva" />
		<tag k="ssr:stedsnr" v="68489" />
		<tag k="waterway" v="stream" />
	</node>
	<node id="-313231" lat="60.6293277766" lon="11.4080972141">
		<tag k="name" v="Sundåa" />
		<tag k="ssr:stedsnr" v="310611" />
		<tag k="waterway" v="stream" />
	</node>
	<node id="-313740" lat="60.5814833368" lon="11.5093972262">
		<tag k="name" v="Fallåa" />
		<tag k="ssr:stedsnr" v="783598" />
		<tag k="waterway" v="stream" />
	</node>
	<node id="-313221" lat="60.6813750014" lon="11.1162055542">
		<tag k="name" v="Strand" />
		<tag k="natural" v="beach" />
		<tag k="ssr:stedsnr" v="310546" />
	</node>
	<node id="-313732" lat="60.7166722257" lon="11.4448444525">
		<tag k="name" v="Gråbekken" />
		<tag k="ssr:stedsnr" v="770774" />
		<tag k="waterway" v="stream" />
	</node>
	<node id="-313219" lat="60.7162999964" lon="11.2741861078">
		<tag k="name" v="Brynitjennet" />
		<tag k="natural" v="water" />
		<tag k="ssr:stedsnr" v="310534" />
	</node>
	<node id="-311682" lat="60.6173000042" lon="11.6290694519">
		<tag k="name" v="Oppsangtjennet" />
		<tag k="natural" v="water" />
		<tag k="ssr:stedsnr" v="249165" />
	</node>
	<node id="-313727" lat="60.6255472187" lon="11.4963138932">
		<tag k="name" v="Frysutbekken" />
		<tag k="ssr:stedsnr" v="770691" />
		<tag k="waterway" v="stream" />
	</node>
	<node id="-312469" lat="60.6118749999" lon="11.1709777804">
		<tag k="name" v="Svartnesodden" />
		<tag k="natural" v="cape" />
		<tag k="ssr:stedsnr" v="889023" />
	</node>
	<node id="-313322" lat="60.7104499988" lon="11.4601055552">
		<tag k="name" v="Lorttjennsmyra" />
		<tag k="natural" v="water" />
		<tag k="ssr:stedsnr" v="371498" />
	</node>
	<node id="-312186" lat="60.7232880216" lon="11.4663606984">
		<tag k="name" v="Gjetholmsjøen" />
		<tag k="natural" v="water" />
		<tag k="ssr:stedsnr" v="674739" />
		<tag k="water" v="lake" />
	</node>
	<node id="-312697" lat="60.4643567704" lon="11.335885052">
		<tag k="name" v="Kjeldvika" />
		<tag k="natural" v="bay" />
		<tag k="ssr:stedsnr" v="908928" />
	</node>
	<node id="-312695" lat="60.6589055567" lon="11.4858861074">
		<tag k="name" v="Stormyrbekken" />
		<tag k="ssr:stedsnr" v="908922" />
		<tag k="waterway" v="stream" />
	</node>
	<node id="-313205" lat="60.588502777" lon="11.4010944373">
		<tag k="name" v="Gaukilsjøen" />
>>>>>>> e1d4bc35ff8a6074a6f2e91616a996b547c36f15
		<tag k="natural" v="water" />
		<tag k="ssr:stedsnr" v="310384" />
	</node>
<<<<<<< HEAD
	<node lat="60.66694166778333" lon="11.390369447933361" id="-19945">
		<tag k="name" v="Nedre Mælumstjennet" />
		<tag k="natural" v="water" />
		<tag k="ssr:stedsnr" v="492546" />
	</node>
	<node lat="60.58160833423377" lon="11.577958329864307" id="-19950">
		<tag k="name" v="Helvetestjennet" />
		<tag k="natural" v="water" />
		<tag k="ssr:stedsnr" v="674168" />
	</node>
	<node lat="60.62045832950334" lon="11.423966673155482" id="-19968">
		<tag k="name" v="Øytjennet" />
		<tag k="natural" v="water" />
		<tag k="ssr:stedsnr" v="674588" />
	</node>
	<node lat="60.61993611405086" lon="11.274155558602159" id="-19976">
		<tag k="name" v="Dammen" />
		<tag k="natural" v="water" />
		<tag k="ssr:stedsnr" v="465412" />
	</node>
	<node lat="60.75616388576446" lon="11.40536110690264" id="-19977">
		<tag k="name" v="Boiebekken" />
		<tag k="ssr:stedsnr" v="465416" />
		<tag k="waterway" v="stream" />
	</node>
	<node lat="60.723288021641515" lon="11.46636069842552" id="-19982">
		<tag k="name" v="Gjetholmsjøen" />
		<tag k="natural" v="water" />
		<tag k="ssr:stedsnr" v="674739" />
		<tag k="water" v="lake" />
	</node>
	<node lat="60.48569444395768" lon="11.343008339659768" id="-19996">
		<tag k="name" v="Gullitjennet" />
		<tag k="natural" v="water" />
		<tag k="ssr:stedsnr" v="466971" />
	</node>
	<node lat="60.559577775165224" lon="11.35419166532137" id="-20021">
		<tag k="name" v="Knuksjøen" />
		<tag k="natural" v="water" />
		<tag k="ssr:stedsnr" v="492380" />
	</node>
	<node lat="60.53873610801885" lon="11.409994447813153" id="-20038">
		<tag k="name" v="Remmenbekken" />
		<tag k="ssr:stedsnr" v="525015" />
		<tag k="waterway" v="stream" />
	</node>
	<node lat="60.57388055663769" lon="11.300636112480921" id="-20064">
		<tag k="name" v="Svedammen" />
		<tag k="natural" v="water" />
		<tag k="ssr:stedsnr" v="544390" />
	</node>
	<node lat="60.592619444253714" lon="11.579983337228988" id="-20067">
		<tag k="name" v="Øvre Lauvtjennet" />
		<tag k="natural" v="water" />
		<tag k="ssr:stedsnr" v="544776" />
	</node>
	<node lat="60.601574997032266" lon="11.509125003343687" id="-20074">
		<tag k="name" v="Fallåa" />
		<tag k="ssr:stedsnr" v="552201" />
		<tag k="waterway" v="stream" />
	</node>
	<node lat="60.620475004097756" lon="11.289844439571503" id="-20077">
		<tag k="name" v="Vikselva" />
		<tag k="ssr:stedsnr" v="552448" />
		<tag k="waterway" v="stream" />
	</node>
	<node lat="60.70305000225817" lon="11.381502769441358" id="-20083">
		<tag k="name" v="Lundstjennet" />
		<tag k="natural" v="water" />
		<tag k="ssr:stedsnr" v="553499" />
	</node>
	<node lat="60.76405000091443" lon="11.233805550002025" id="-20088">
		<tag k="alt_name" v="Nordre Starelva" />
		<tag k="name" v="Starelva" />
		<tag k="ssr:stedsnr" v="555919" />
		<tag k="waterway" v="river" />
	</node>
	<node lat="60.56447500018695" lon="11.450708331791759" id="-20102">
		<tag k="name" v="Midtre Huldertjennet" />
		<tag k="natural" v="water" />
		<tag k="ssr:stedsnr" v="586750" />
	</node>
	<node lat="60.59090833320413" lon="11.504536105383457" id="-20111">
		<tag k="name" v="Langfossen" />
		<tag k="natural" v="waterfall" />
		<tag k="ssr:stedsnr" v="588712" />
	</node>
	<node lat="60.65301944148229" lon="11.29711667275219" id="-20121">
		<tag k="name" v="Kvernhusbekken" />
		<tag k="ssr:stedsnr" v="604511" />
		<tag k="waterway" v="stream" />
	</node>
	<node lat="60.70098332915101" lon="11.212886115116113" id="-20126">
		<tag k="name" v="Grytbekken" />
		<tag k="ssr:stedsnr" v="605565" />
		<tag k="waterway" v="stream" />
	</node>
	<node lat="60.517216662703426" lon="11.548627782157626" id="-20127">
		<tag k="alt_name" v="Skiren, vesle" />
		<tag k="name" v="Vesle Skiren" />
		<tag k="natural" v="water" />
		<tag k="ssr:stedsnr" v="613222" />
	</node>
	<node lat="60.562063889482395" lon="11.510511102140518" id="-20128">
		<tag k="name" v="Fjæstadsætertjennet" />
		<tag k="natural" v="water" />
		<tag k="ssr:stedsnr" v="613125" />
	</node>
	<node lat="60.615144442247164" lon="11.599941669732381" id="-20130">
		<tag k="name" v="Langtjennet" />
		<tag k="natural" v="water" />
		<tag k="ssr:stedsnr" v="613175" />
	</node>
	<node lat="60.67587777811825" lon="11.46669444919759" id="-20134">
		<tag k="name" v="Hemtjennet" />
		<tag k="natural" v="water" />
		<tag k="ssr:stedsnr" v="613581" />
	</node>
	<node lat="60.56103610811126" lon="11.457433325008948" id="-20159">
		<tag k="name" v="Søndre Huldertjennet" />
		<tag k="natural" v="water" />
		<tag k="ssr:stedsnr" v="647641" />
	</node>
	<node lat="60.736280554222695" lon="11.086597223094614" id="-20166">
		<tag k="name" v="Ringnesodden" />
		<tag k="natural" v="cape" />
		<tag k="ssr:stedsnr" v="648244" />
	</node>
	<node lat="60.6661999971534" lon="11.13530000875809" id="-20170">
		<tag k="name" v="Nebbvika" />
		<tag k="natural" v="bay" />
		<tag k="ssr:stedsnr" v="707044" />
	</node>
	<node lat="60.649113887869994" lon="11.154549994776579" id="-20171">
		<tag k="name" v="Rotlibekken" />
		<tag k="ssr:stedsnr" v="707046" />
		<tag k="waterway" v="stream" />
	</node>
	<node lat="60.69780277851442" lon="11.416627780599788" id="-20175">
		<tag k="name" v="Yksenkanalen" />
		<tag k="ssr:stedsnr" v="707302" />
		<tag k="waterway" v="stream" />
	</node>
	<node lat="60.6927972235563" lon="11.421208327877677" id="-20179">
		<tag k="name" v="Rørpiptjennet" />
		<tag k="natural" v="water" />
		<tag k="ssr:stedsnr" v="707836" />
	</node>
	<node lat="60.532608337801264" lon="11.249280553454037" id="-20205">
		<tag k="name" v="Frangsæterbekken" />
		<tag k="ssr:stedsnr" v="664300" />
		<tag k="waterway" v="stream" />
	</node>
	<node lat="60.543144447934054" lon="11.469599995256374" id="-20208">
		<tag k="name" v="Bjørnstaddammen" />
		<tag k="ssr:stedsnr" v="709617" />
		<tag k="waterway" v="dam" />
	</node>
	<node lat="60.639780555539396" lon="11.511805557236212" id="-20210">
		<tag k="name" v="Haratjennsbekken" />
		<tag k="ssr:stedsnr" v="709643" />
		<tag k="waterway" v="stream" />
	</node>
	<node lat="60.569788893050976" lon="11.649133331465912" id="-20220">
		<tag k="name" v="Gåsvassåa" />
		<tag k="ssr:stedsnr" v="709746" />
		<tag k="waterway" v="stream" />
	</node>
	<node lat="60.67441944588069" lon="11.489544442075458" id="-20222">
		<tag k="name" v="Brenntjennsbekken" />
		<tag k="ssr:stedsnr" v="709855" />
		<tag k="waterway" v="stream" />
	</node>
	<node lat="60.56194721889222" lon="11.472786113369766" id="-20232">
		<tag k="name" v="Kvernbekken" />
		<tag k="ssr:stedsnr" v="674125" />
		<tag k="waterway" v="stream" />
	</node>
	<node lat="60.63248888557404" lon="11.534588893583244" id="-20236">
		<tag k="name" v="Skorokulpen" />
		<tag k="natural" v="water" />
		<tag k="ssr:stedsnr" v="674311" />
	</node>
	<node lat="60.63153333416752" lon="11.594625000899365" id="-20237">
		<tag k="name" v="Avlangtjennet" />
		<tag k="natural" v="water" />
		<tag k="ssr:stedsnr" v="674312" />
	</node>
	<node lat="60.70528888907006" lon="11.300663889524873" id="-20239">
		<tag k="name" v="Musettjennet" />
		<tag k="natural" v="water" />
		<tag k="ssr:stedsnr" v="674515" />
	</node>
	<node lat="60.65443333325519" lon="11.413391665697501" id="-20250">
		<tag k="name" v="Helgåsbekken" />
		<tag k="ssr:stedsnr" v="891309" />
		<tag k="waterway" v="stream" />
	</node>
	<node lat="60.79527500089733" lon="11.11345277951705" id="-20254">
		<tag k="name" v="Åkersvika" />
		<tag k="natural" v="bay" />
		<tag k="ssr:stedsnr" v="677916" />
	</node>
	<node lat="60.68991944741984" lon="11.509794452292146" id="-20265">
		<tag k="name" v="Bjørkbekken" />
		<tag k="ssr:stedsnr" v="892846" />
		<tag k="waterway" v="stream" />
	</node>
	<node lat="60.59588889138293" lon="11.62993332629268" id="-20267">
		<tag k="name" v="Rottjennsbekken" />
		<tag k="ssr:stedsnr" v="892731" />
		<tag k="waterway" v="stream" />
	</node>
	<node lat="60.59376111142643" lon="11.625675008653864" id="-20268">
		<tag k="name" v="Fjellsjøbekken" />
		<tag k="ssr:stedsnr" v="892734" />
		<tag k="waterway" v="stream" />
	</node>
	<node lat="60.52946944074216" lon="11.361549995147527" id="-20272">
		<tag k="name" v="Bergsjødammen" />
		<tag k="ssr:stedsnr" v="707003" />
		<tag k="waterway" v="dam" />
	</node>
	<node lat="60.683333334781025" lon="11.575605554560399" id="-20286">
		<tag k="name" v="Stortjennsbekken" />
		<tag k="ssr:stedsnr" v="709904" />
		<tag k="waterway" v="stream" />
	</node>
	<node lat="60.661430556267845" lon="11.546130550813773" id="-20288">
		<tag k="name" v="Stentjennsbekken" />
		<tag k="ssr:stedsnr" v="709914" />
		<tag k="waterway" v="stream" />
	</node>
	<node lat="60.55799166630609" lon="11.505288882730143" id="-20290">
		<tag k="name" v="Fjæstaddammen" />
		<tag k="ssr:stedsnr" v="710083" />
		<tag k="waterway" v="dam" />
	</node>
	<node lat="60.52883888549117" lon="11.361911118524676" id="-20306">
		<tag k="name" v="Bergsjøåa" />
		<tag k="ssr:stedsnr" v="735473" />
		<tag k="waterway" v="stream" />
	</node>
	<node lat="60.64850832894164" lon="11.439241665078294" id="-20309">
		<tag k="name" v="Rådelsbekken" />
		<tag k="ssr:stedsnr" v="735607" />
		<tag k="waterway" v="stream" />
	</node>
	<node lat="60.64544166799053" lon="11.351600006532328" id="-20327">
		<tag k="name" v="Bjertungstadbekken" />
		<tag k="ssr:stedsnr" v="767346" />
		<tag k="waterway" v="stream" />
	</node>
	<node lat="60.686333329153285" lon="11.555330547249977" id="-20337">
		<tag k="name" v="Nedre Starrtjennet" />
		<tag k="natural" v="water" />
		<tag k="ssr:stedsnr" v="907397" />
	</node>
	<node lat="60.716672225691305" lon="11.444844452502316" id="-20349">
		<tag k="name" v="Gråbekken" />
		<tag k="ssr:stedsnr" v="770774" />
		<tag k="waterway" v="stream" />
	</node>
	<node lat="60.65890555669161" lon="11.485886107355373" id="-20350">
		<tag k="name" v="Stormyrbekken" />
		<tag k="ssr:stedsnr" v="908922" />
		<tag k="waterway" v="stream" />
	</node>
	<node lat="60.46435677036181" lon="11.33588505195275" id="-20364">
		<tag k="name" v="Kjeldvika" />
		<tag k="natural" v="bay" />
		<tag k="ssr:stedsnr" v="908928" />
	</node>
	<node lat="60.5814833368149" lon="11.50939722617018" id="-20374">
		<tag k="name" v="Fallåa" />
		<tag k="ssr:stedsnr" v="783598" />
		<tag k="waterway" v="stream" />
	</node>
	<node lat="60.46988889097285" lon="11.303563887952944" id="-20386">
		<tag k="name" v="Pinnfallvika" />
		<tag k="natural" v="bay" />
		<tag k="ssr:stedsnr" v="786914" />
	</node>
	<node lat="60.523694444093664" lon="11.373402770646845" id="-20390">
		<tag k="name" v="Hersjøen" />
		<tag k="natural" v="water" />
		<tag k="ssr:stedsnr" v="795557" />
	</node>
	<node lat="60.66919166919827" lon="11.392844445944865" id="-20395">
		<tag k="name" v="Øvre Mælumstjennet" />
		<tag k="natural" v="water" />
		<tag k="ssr:stedsnr" v="795625" />
	</node>
	<node lat="60.54850555663837" lon="11.441647219553664" id="-20397">
		<tag k="name" v="Eltunfløyta" />
		<tag k="place" v="locality" />
		<tag k="ssr:stedsnr" v="796409" />
	</node>
	<node lat="60.602932138805706" lon="11.196071404920815" id="-20398">
		<tag k="name" v="Refsalvika" />
		<tag k="natural" v="bay" />
		<tag k="ssr:stedsnr" v="796424" />
	</node>
	<node lat="60.73713610814938" lon="11.27599166189564" id="-20413">
		<tag k="alt_name" v="Nordre Starrelva" />
		<tag k="name" v="Starrelva" />
		<tag k="ssr:stedsnr" v="917732" />
		<tag k="waterway" v="stream" />
	</node>
	<node lat="60.65495277989424" lon="11.583094450862498" id="-20416">
		<tag k="name" v="Svartkulpen" />
		<tag k="natural" v="water" />
		<tag k="ssr:stedsnr" v="917299" />
	</node>
	<node lat="60.664550002416185" lon="11.55387777708935" id="-20428">
		<tag k="name" v="Kutjennet" />
		<tag k="natural" v="water" />
		<tag k="ssr:stedsnr" v="917343" />
	</node>
	<node lat="60.628194440889395" lon="11.559169445257714" id="-20439">
		<tag k="name" v="Grastjennsbekken" />
		<tag k="ssr:stedsnr" v="828922" />
		<tag k="waterway" v="stream" />
	</node>
	<node lat="60.60552222391175" lon="11.416233340088358" id="-20447">
		<tag k="name" v="Lauvtjennet" />
		<tag k="natural" v="water" />
		<tag k="ssr:stedsnr" v="830320" />
	</node>
	<node lat="60.67229444506214" lon="11.49569722722803" id="-20454">
		<tag k="name" v="Brenntjennet" />
		<tag k="natural" v="water" />
		<tag k="ssr:stedsnr" v="831832" />
	</node>
	<node lat="60.58107499756413" lon="11.222024991831454" id="-20477">
		<tag k="alt_name" v="Hamnesodden" />
		<tag k="name" v="Hamnnesodden" />
		<tag k="natural" v="cape" />
		<tag k="ssr:stedsnr" v="857411" />
	</node>
	<node lat="60.557402779360565" lon="11.357344449112711" id="-20487">
		<tag k="name" v="Knukdammen" />
		<tag k="ssr:stedsnr" v="889221" />
		<tag k="waterway" v="dam" />
	</node>
	<node lat="60.64327500413307" lon="11.572958340045052" id="-20491">
		<tag k="name" v="Gransjøbekken" />
		<tag k="ssr:stedsnr" v="889933" />
		<tag k="waterway" v="stream" />
	</node>
	<node lat="60.657041670642315" lon="11.622472223038349" id="-20506">
		<tag k="name" v="Hølsjøbekken" />
		<tag k="ssr:stedsnr" v="891905" />
		<tag k="waterway" v="stream" />
	</node>
	<node lat="60.60128333294515" lon="11.4814388803914" id="-20521">
		<tag k="name" v="Hemtjennet" />
		<tag k="natural" v="water" />
		<tag k="ssr:stedsnr" v="908756" />
	</node>
	<node lat="60.62741666862972" lon="11.207858335850073" id="-20569">
		<tag k="name" v="Østbybekken" />
		<tag k="ssr:stedsnr" v="951399" />
		<tag k="waterway" v="stream" />
	</node>
	<node lat="60.66447499566902" lon="11.444680558539366" id="-20575">
		<tag k="name" v="Svartkulpen" />
		<tag k="natural" v="water" />
		<tag k="ssr:stedsnr" v="952855" />
		<tag k="water" v="pond" />
	</node>
	<node lat="60.58591944104649" lon="11.452030563961719" id="-20589">
		<tag k="name" v="Gransjøbekken" />
		<tag k="ssr:stedsnr" v="968736" />
		<tag k="waterway" v="stream" />
	</node>
	<node lat="60.47067499940762" lon="11.302305554771454" id="-20590">
		<tag k="name" v="Pinnfallodden" />
		<tag k="natural" v="cape" />
		<tag k="ssr:stedsnr" v="968909" />
	</node>
	<node lat="60.59209999705133" lon="11.616388891436323" id="-20597">
		<tag k="alt_name" v="Speltjennet" />
		<tag k="name" v="Fjellsjøen" />
		<tag k="natural" v="water" />
		<tag k="ssr:stedsnr" v="7173" />
	</node>
	<node lat="60.46676111130955" lon="11.298175001607914" id="-20598">
		<tag k="name" v="Lysjøen" />
		<tag k="natural" v="water" />
		<tag k="old_name" v="Lysjø" />
		<tag k="ssr:stedsnr" v="6440" />
		<tag k="water" v="lake" />
	</node>
	<node lat="60.70394444395458" lon="11.415091664507017" id="-20614">
		<tag k="name" v="Djupdalstjennet" />
		<tag k="natural" v="water" />
		<tag k="ssr:stedsnr" v="7487" />
	</node>
	<node lat="60.7048527755869" lon="11.440836102437736" id="-20615">
		<tag k="name" v="Bjørktjennet" />
		<tag k="natural" v="water" />
		<tag k="ssr:stedsnr" v="7489" />
	</node>
	<node lat="60.6429972177667" lon="11.324994451906969" id="-20626">
		<tag k="name" v="Kringlehullet" />
		<tag k="place" v="locality" />
		<tag k="ssr:stedsnr" v="39288" />
	</node>
	<node lat="60.52162777617484" lon="11.340016672093418" id="-20637">
		<tag k="name" v="Vangstjennet" />
		<tag k="natural" v="water" />
		<tag k="ssr:stedsnr" v="40229" />
	</node>
	<node lat="60.61038333422806" lon="11.250000000767052" id="-20641">
		<tag k="name" v="Brenntjennet" />
		<tag k="natural" v="water" />
		<tag k="ssr:stedsnr" v="40390" />
	</node>
	<node lat="60.56783055116981" lon="11.449180553212525" id="-20644">
		<tag k="name" v="Nordre Huldertjennet" />
		<tag k="natural" v="water" />
		<tag k="ssr:stedsnr" v="40778" />
	</node>
	<node lat="60.54163889010642" lon="11.473847229983367" id="-20656">
		<tag k="name" v="Skomakerfløta" />
		<tag k="natural" v="water" />
		<tag k="ssr:stedsnr" v="41629" />
		<tag k="water" v="lake" />
	</node>
	<node lat="60.55846944643563" lon="11.419200006454892" id="-20657">
		<tag k="name" v="Storfløtdammen" />
		<tag k="ssr:stedsnr" v="41636" />
		<tag k="waterway" v="dam" />
	</node>
	<node lat="60.64382499829998" lon="11.533747214830825" id="-20660">
		<tag k="name" v="Mjøvassbekken" />
		<tag k="ssr:stedsnr" v="41661" />
		<tag k="waterway" v="stream" />
	</node>
	<node lat="60.548952781130126" lon="11.371538891286072" id="-20666">
		<tag k="name" v="Rønningsdammen" />
		<tag k="ssr:stedsnr" v="42252" />
		<tag k="waterway" v="dam" />
	</node>
	<node lat="60.677363893122674" lon="11.47550833711981" id="-20671">
		<tag k="name" v="Åmyrkulpen" />
		<tag k="natural" v="water" />
		<tag k="ssr:stedsnr" v="42821" />
		<tag k="water" v="lake" />
	</node>
	<node lat="60.60145278068158" lon="11.289591662164042" id="-20696">
		<tag k="name" v="Bogvika" />
		<tag k="natural" v="bay" />
		<tag k="ssr:stedsnr" v="59431" />
	</node>
	<node lat="60.59271666959504" lon="11.268819436219992" id="-20697">
		<tag k="name" v="Søndre Oddenvika" />
		<tag k="natural" v="bay" />
		<tag k="ssr:stedsnr" v="59434" />
	</node>
	<node lat="60.504902781923576" lon="11.341119447579208" id="-20702">
		<tag k="name" v="Skjerdenbekken" />
		<tag k="ssr:stedsnr" v="59943" />
		<tag k="waterway" v="stream" />
	</node>
	<node lat="60.673438885676745" lon="11.52045000456979" id="-20708">
		<tag k="name" v="Bjørnøyet" />
		<tag k="natural" v="water" />
		<tag k="ssr:stedsnr" v="67369" />
	</node>
	<node lat="60.71071666439465" lon="11.104700002074397" id="-20712">
		<tag k="name" v="Gillundstranda" />
		<tag k="natural" v="beach" />
		<tag k="ssr:stedsnr" v="67556" />
	</node>
	<node lat="60.71814166917191" lon="11.455233338845192" id="-20713">
		<tag k="name" v="Gråbergstjenna" />
		<tag k="natural" v="water" />
		<tag k="ssr:stedsnr" v="67561" />
		<tag k="water" v="lake" />
	</node>
	<node lat="60.65105833707584" lon="11.585600007114229" id="-20717">
		<tag k="alt_name" v="Gransjøen, l" />
		<tag k="name" v="Vesle Gransjøen" />
		<tag k="natural" v="water" />
		<tag k="ssr:stedsnr" v="68331" />
	</node>
	<node lat="60.66618611286579" lon="11.534166665375057" id="-20718">
		<tag k="name" v="Lauvlistortjennet" />
		<tag k="natural" v="water" />
		<tag k="ssr:stedsnr" v="68379" />
	</node>
	<node lat="60.66757777998314" lon="11.618766675493303" id="-20719">
		<tag k="name" v="Sorten" />
		<tag k="natural" v="water" />
		<tag k="ssr:stedsnr" v="68382" />
		<tag k="water" v="lake" />
	</node>
	<node lat="60.63991666844091" lon="11.346666670962453" id="-20737">
		<tag k="name" v="Harildstadbekken" />
		<tag k="ssr:stedsnr" v="100330" />
		<tag k="waterway" v="stream" />
	</node>
	<node lat="60.64507222592778" lon="11.585105563805671" id="-20740">
		<tag k="name" v="Vesle Gransjøbekken" />
		<tag k="ssr:stedsnr" v="100926" />
		<tag k="waterway" v="stream" />
	</node>
	<node lat="60.676972220171635" lon="11.356988893856302" id="-20759">
		<tag k="name" v="Katthølsbekken" />
		<tag k="ssr:stedsnr" v="102530" />
		<tag k="waterway" v="stream" />
	</node>
	<node lat="60.62199722643326" lon="11.604308334261743" id="-20764">
		<tag k="name" v="Kroktjennet" />
		<tag k="natural" v="water" />
		<tag k="ssr:stedsnr" v="103747" />
	</node>
	<node lat="60.60829589128175" lon="11.6095797853929" id="-20765">
		<tag k="name" v="Nordre Rottjennet" />
		<tag k="natural" v="water" />
		<tag k="ssr:stedsnr" v="103750" />
	</node>
	<node lat="60.53161388493763" lon="11.494122221954697" id="-20770">
		<tag k="name" v="Kvernfossen" />
		<tag k="natural" v="waterfall" />
		<tag k="ssr:stedsnr" v="116587" />
	</node>
	<node lat="60.682150002429935" lon="11.134680549072677" id="-20776">
		<tag k="name" v="Markbekken" />
		<tag k="ssr:stedsnr" v="117074" />
		<tag k="waterway" v="stream" />
	</node>
	<node lat="60.59564444267258" lon="11.26864722172038" id="-20786">
		<tag k="name" v="Nordre Oddenvika" />
=======
	<node id="-312180" lat="60.6204583295" lon="11.4239666732">
		<tag k="name" v="Øytjennet" />
		<tag k="natural" v="water" />
		<tag k="ssr:stedsnr" v="674588" />
	</node>
	<node id="-311667" lat="60.5765388877" lon="11.3689000019">
		<tag k="name" v="Svartputten" />
		<tag k="natural" v="water" />
		<tag k="ssr:stedsnr" v="68405" />
	</node>
	<node id="-313202" lat="60.6565111113" lon="11.4917166729">
		<tag k="name" v="Pottsæteråa" />
		<tag k="ssr:stedsnr" v="310334" />
		<tag k="waterway" v="stream" />
	</node>
	<node id="-313201" lat="60.6559361109" lon="11.5587444522">
		<tag k="name" v="Stentjennet" />
		<tag k="natural" v="water" />
		<tag k="ssr:stedsnr" v="310331" />
	</node>
	<node id="-312688" lat="60.6899194474" lon="11.5097944523">
		<tag k="name" v="Bjørkbekken" />
		<tag k="ssr:stedsnr" v="892846" />
		<tag k="waterway" v="stream" />
	</node>
	<node id="-312687" lat="60.6570416706" lon="11.622472223">
		<tag k="name" v="Hølsjøbekken" />
		<tag k="ssr:stedsnr" v="891905" />
		<tag k="waterway" v="stream" />
	</node>
	<node id="-313710" lat="60.6962749995" lon="11.1080777725">
		<tag k="name" v="Lønnvika" />
		<tag k="natural" v="bay" />
		<tag k="ssr:stedsnr" v="768186" />
	</node>
	<node id="-313707" lat="60.5250638906" lon="11.367344439">
		<tag k="name" v="Sagfallet" />
		<tag k="natural" v="waterfall" />
		<tag k="ssr:stedsnr" v="768001" />
	</node>
	<node id="-313194" lat="60.6041277801" lon="11.5905111139">
		<tag k="name" v="Hemtjennsbekken" />
		<tag k="ssr:stedsnr" v="301783" />
		<tag k="waterway" v="stream" />
	</node>
	<node id="-313193" lat="60.5921611071" lon="11.4595999963">
		<tag k="name" v="Kvernhusbekken" />
		<tag k="ssr:stedsnr" v="301697" />
		<tag k="waterway" v="stream" />
	</node>
	<node id="-313702" lat="60.7215305593" lon="11.1014166729">
		<tag k="name" v="Syljuoset" />
		<tag k="natural" v="bay" />
		<tag k="ssr:stedsnr" v="767166" />
	</node>
	<node id="-311650" lat="60.5131000027" lon="11.2417166706">
		<tag k="name" v="Meise" />
		<tag k="natural" v="beach" />
		<tag k="ssr:stedsnr" v="240328" />
	</node>
	<node id="-311647" lat="60.6314416692" lon="11.4370166739">
		<tag k="name" v="Opptjennstøvika" />
		<tag k="natural" v="bay" />
		<tag k="ssr:stedsnr" v="239665" />
	</node>
	<node id="-312293" lat="60.6744194459" lon="11.4895444421">
		<tag k="name" v="Brenntjennsbekken" />
		<tag k="ssr:stedsnr" v="709855" />
		<tag k="waterway" v="stream" />
	</node>
	<node id="-312391" lat="60.5862222239" lon="11.5837916682">
		<tag k="name" v="Lauvtjennsbekken" />
		<tag k="ssr:stedsnr" v="726800" />
		<tag k="waterway" v="stream" />
	</node>
	<node id="-311951" lat="60.6061555566" lon="11.2031388849">
		<tag k="name" v="Refsalbekken" />
		<tag k="ssr:stedsnr" v="483401" />
		<tag k="waterway" v="stream" />
	</node>
	<node id="-312150" lat="60.485694444" lon="11.3430083397">
		<tag k="name" v="Gullitjennet" />
		<tag k="natural" v="water" />
		<tag k="ssr:stedsnr" v="466971" />
	</node>
	<node id="-313685" lat="60.7362805542" lon="11.0865972231">
		<tag k="name" v="Ringnesodden" />
		<tag k="natural" v="cape" />
		<tag k="ssr:stedsnr" v="648244" />
	</node>
	<node id="-312656" lat="60.6616416632" lon="11.3268416726">
		<tag k="name" v="Fosselva" />
		<tag k="ssr:stedsnr" v="856620" />
		<tag k="waterway" v="stream" />
	</node>
	<node id="-313912" lat="60.6950500035" lon="11.2493805613">
		<tag k="name" v="Skjærbekken" />
		<tag k="ssr:stedsnr" v="857582" />
		<tag k="waterway" v="stream" />
	</node>
	<node id="-312964" lat="60.6219972264" lon="11.6043083343">
		<tag k="name" v="Kroktjennet" />
		<tag k="natural" v="water" />
		<tag k="ssr:stedsnr" v="103747" />
	</node>
	<node id="-313411" lat="60.5911194406" lon="11.6397666692">
		<tag k="name" v="Øvre Gåsvatn" />
		<tag k="natural" v="water" />
		<tag k="old_name" v="Gårdsvatn, øvre;Gaardsvand nordre" />
		<tag k="ssr:stedsnr" v="432157" />
	</node>
	<node id="-312375" lat="60.6357638914" lon="11.4222749963">
		<tag k="name" v="Kongstensvika" />
		<tag k="natural" v="bay" />
		<tag k="ssr:stedsnr" v="724648" />
	</node>
	<node id="-311623" lat="60.530661114" lon="11.4532833274">
		<tag k="name" v="Stentjennet" />
		<tag k="natural" v="water" />
		<tag k="ssr:stedsnr" v="55575" />
		<tag k="water" v="pond" />
	</node>
	<node id="-312645" lat="60.6055222239" lon="11.4162333401">
		<tag k="name" v="Lauvtjennet" />
		<tag k="natural" v="water" />
		<tag k="ssr:stedsnr" v="830320" />
	</node>
	<node id="-313667" lat="60.6187972263" lon="11.2606194356">
		<tag k="name" v="Viksfossen" />
		<tag k="natural" v="waterfall" />
		<tag k="ssr:stedsnr" v="647407" />
	</node>
	<node id="-313153" lat="60.542341667" lon="11.3991111083">
		<tag k="name" v="Svarttjennet" />
		<tag k="natural" v="water" />
		<tag k="ssr:stedsnr" v="189445" />
	</node>
	<node id="-311616" lat="60.5158472256" lon="11.2939555625">
		<tag k="name" v="Vestre Klingerhaugbekken" />
		<tag k="ssr:stedsnr" v="237245" />
		<tag k="waterway" v="stream" />
	</node>
	<node id="-312432" lat="60.685172225" lon="11.1846249984">
		<tag k="name" v="Nøsletjennet" />
		<tag k="natural" v="water" />
		<tag k="ssr:stedsnr" v="662064" />
		<tag k="water" v="pond" />
	</node>
	<node id="-312634" lat="60.6029321388" lon="11.1960714049">
		<tag k="name" v="Refsalvika" />
		<tag k="natural" v="bay" />
		<tag k="ssr:stedsnr" v="796424" />
	</node>
	<node id="-312633" lat="60.5485055566" lon="11.4416472196">
		<tag k="name" v="Eltunfløyta" />
		<tag k="place" v="locality" />
		<tag k="ssr:stedsnr" v="796409" />
	</node>
	<node id="-313144" lat="60.5791805524" lon="11.4341583299">
		<tag k="name" v="Storputten" />
		<tag k="natural" v="water" />
		<tag k="old_name" v="Storputtjernet" />
		<tag k="ssr:stedsnr" v="189356" />
	</node>
	<node id="-313139" lat="60.6398805597" lon="11.5974166698">
		<tag k="alt_name" v="Store Gransjøen" />
		<tag k="name" v="Gransjøen" />
		<tag k="natural" v="water" />
		<tag k="ssr:stedsnr" v="189321" />
	</node>
	<node id="-313138" lat="60.6574916657" lon="11.5325444497">
		<tag k="name" v="Flesktjennet" />
		<tag k="natural" v="water" />
		<tag k="ssr:stedsnr" v="189303" />
	</node>
	<node id="-312625" lat="60.5236944441" lon="11.3734027706">
		<tag k="name" v="Hersjøen" />
		<tag k="natural" v="water" />
		<tag k="ssr:stedsnr" v="795557" />
	</node>
	<node id="-313665" lat="60.6744916633" lon="11.2174944381">
		<tag k="name" v="Mosebekken" />
		<tag k="ssr:stedsnr" v="647566" />
		<tag k="waterway" v="stream" />
	</node>
	<node id="-312541" lat="60.6485083289" lon="11.4392416651">
		<tag k="name" v="Rådelsbekken" />
		<tag k="ssr:stedsnr" v="735607" />
		<tag k="waterway" v="stream" />
	</node>
	<node id="-312295" lat="60.6833333348" lon="11.5756055546">
		<tag k="name" v="Stortjennsbekken" />
		<tag k="ssr:stedsnr" v="709904" />
		<tag k="waterway" v="stream" />
	</node>
	<node id="-312882" lat="60.5889583377" lon="11.5173888825">
		<tag k="name" v="Villbekken" />
		<tag k="ssr:stedsnr" v="67192" />
		<tag k="waterway" v="stream" />
	</node>
	<node id="-312106" lat="60.7134527824" lon="11.2266861043">
		<tag k="name" v="Våletjennsbekken" />
		<tag k="ssr:stedsnr" v="665573" />
		<tag k="waterway" v="stream" />
	</node>
	<node id="-311593" lat="60.4710249991" lon="11.2965555517">
		<tag k="name" v="Tangfallodden" />
		<tag k="natural" v="cape" />
		<tag k="ssr:stedsnr" v="39216" />
	</node>
	<node id="-312615" lat="60.7371361081" lon="11.2759916619">
		<tag k="alt_name" v="Nordre Starrelva" />
		<tag k="name" v="Starrelva" />
		<tag k="ssr:stedsnr" v="917732" />
		<tag k="waterway" v="stream" />
	</node>
	<node id="-313126" lat="60.4689027776" lon="11.3275611026">
		<tag k="name" v="Vesleauget" />
		<tag k="natural" v="water" />
		<tag k="ssr:stedsnr" v="180891" />
	</node>
	<node id="-312101" lat="60.5326083378" lon="11.2492805535">
		<tag k="name" v="Frangsæterbekken" />
		<tag k="ssr:stedsnr" v="664300" />
		<tag k="waterway" v="stream" />
	</node>
	<node id="-312267" lat="60.6927972236" lon="11.4212083279">
		<tag k="name" v="Rørpiptjennet" />
		<tag k="natural" v="water" />
		<tag k="ssr:stedsnr" v="707836" />
	</node>
	<node id="-311586" lat="60.6222638865" lon="11.5771722273">
		<tag k="name" v="Hestskotjennet" />
		<tag k="natural" v="water" />
		<tag k="ssr:stedsnr" v="224759" />
	</node>
	<node id="-311585" lat="60.5973111131" lon="11.63592222">
		<tag k="name" v="Langtjennsbekken" />
		<tag k="ssr:stedsnr" v="224754" />
		<tag k="waterway" v="stream" />
	</node>
	<node id="-312096" lat="60.5306027785" lon="11.4605111113">
		<tag k="name" v="Stenbekken" />
		<tag k="ssr:stedsnr" v="661569" />
		<tag k="waterway" v="stream" />
	</node>
	<node id="-312951" lat="60.6349333351" lon="11.5107527748">
		<tag k="name" v="Haratjennet" />
		<tag k="natural" v="water" />
		<tag k="ssr:stedsnr" v="102705" />
	</node>
	<node id="-312197" lat="60.538736108" lon="11.4099944478">
		<tag k="name" v="Remmenbekken" />
		<tag k="ssr:stedsnr" v="525015" />
		<tag k="waterway" v="stream" />
	</node>
	<node id="-312482" lat="60.6432750041" lon="11.57295834">
		<tag k="name" v="Gransjøbekken" />
		<tag k="ssr:stedsnr" v="889933" />
		<tag k="waterway" v="stream" />
	</node>
	<node id="-312603" lat="60.6645500024" lon="11.5538777771">
		<tag k="name" v="Kutjennet" />
		<tag k="natural" v="water" />
		<tag k="ssr:stedsnr" v="917343" />
	</node>
	<node id="-313626" lat="60.6070611081" lon="11.4279444505">
		<tag k="name" v="Vestertjennet" />
		<tag k="natural" v="water" />
		<tag k="ssr:stedsnr" v="613431" />
	</node>
	<node id="-313517" lat="60.6204750041" lon="11.2898444396">
		<tag k="name" v="Vikselva" />
		<tag k="ssr:stedsnr" v="552448" />
		<tag k="waterway" v="stream" />
	</node>
	<node id="-312361" lat="60.5168083335" lon="11.5103750055">
		<tag k="name" v="Mattisdammen" />
		<tag k="ssr:stedsnr" v="722589" />
		<tag k="waterway" v="dam" />
	</node>
	<node id="-313623" lat="60.5620638895" lon="11.5105111021">
		<tag k="name" v="Fjæstadsætertjennet" />
		<tag k="natural" v="water" />
		<tag k="ssr:stedsnr" v="613125" />
	</node>
	<node id="-313622" lat="60.6151444422" lon="11.5999416697">
		<tag k="name" v="Langtjennet" />
		<tag k="natural" v="water" />
		<tag k="ssr:stedsnr" v="613175" />
	</node>
	<node id="-312128" lat="60.6199361141" lon="11.2741555586">
		<tag k="name" v="Dammen" />
		<tag k="natural" v="water" />
		<tag k="ssr:stedsnr" v="465412" />
	</node>
	<node id="-312925" lat="60.6450722259" lon="11.5851055638">
		<tag k="name" v="Vesle Gransjøbekken" />
		<tag k="ssr:stedsnr" v="100926" />
		<tag k="waterway" v="stream" />
	</node>
	<node id="-312082" lat="60.5879083368" lon="11.4453166633">
		<tag k="name" v="Gransjøen" />
		<tag k="natural" v="water" />
		<tag k="ssr:stedsnr" v="432345" />
	</node>
	<node id="-312081" lat="60.6698861144" lon="11.4652277712">
		<tag k="name" v="Jutsjøen" />
		<tag k="natural" v="water" />
		<tag k="ssr:stedsnr" v="431610" />
	</node>
	<node id="-312079" lat="60.4805999974" lon="11.3086527697">
		<tag k="name" v="Granerudsjøen" />
		<tag k="natural" v="water" />
		<tag k="ssr:stedsnr" v="431411" />
		<tag k="water" v="lake" />
	</node>
	<node id="-312078" lat="60.5814694422" lon="11.588316664">
		<tag k="name" v="Skredderbekken" />
		<tag k="ssr:stedsnr" v="423808" />
		<tag k="waterway" v="stream" />
	</node>
	<node id="-313613" lat="60.548194445" lon="11.2748083374">
		<tag k="name" v="Filipbekken" />
		<tag k="ssr:stedsnr" v="604335" />
		<tag k="waterway" v="stream" />
	</node>
	<node id="-312074" lat="60.5404611117" lon="11.2698666643">
		<tag k="name" v="Nordre Markbekken" />
		<tag k="ssr:stedsnr" v="422308" />
		<tag k="waterway" v="stream" />
	</node>
	<node id="-312585" lat="60.645441668" lon="11.3516000065">
		<tag k="name" v="Bjertungstadbekken" />
		<tag k="ssr:stedsnr" v="767346" />
		<tag k="waterway" v="stream" />
	</node>
	<node id="-313094" lat="60.5397416676" lon="11.4995083384">
		<tag k="name" v="Grønvika" />
		<tag k="natural" v="bay" />
		<tag k="ssr:stedsnr" v="176553" />
	</node>
	<node id="-313605" lat="60.6369888862" lon="11.4318944487">
		<tag k="name" v="Bjørkvarpvika" />
		<tag k="natural" v="bay" />
		<tag k="ssr:stedsnr" v="602670" />
	</node>
	<node id="-313092" lat="60.5109638913" lon="11.2986750069">
		<tag k="name" v="Østre Klingerhaugbekken" />
		<tag k="ssr:stedsnr" v="176251" />
		<tag k="waterway" v="stream" />
	</node>
	<node id="-313090" lat="60.6035194419" lon="11.6124555645">
		<tag k="name" v="Søndre Rottjennet" />
		<tag k="natural" v="water" />
		<tag k="ssr:stedsnr" v="300448" />
	</node>
	<node id="-313601" lat="60.6873472245" lon="11.1454722263">
		<tag k="name" v="Iletjennet" />
		<tag k="natural" v="water" />
		<tag k="ssr:stedsnr" v="602075" />
	</node>
	<node id="-313088" lat="60.583147219" lon="11.4793722139">
		<tag k="name" v="Båntjennsdammen" />
		<tag k="ssr:stedsnr" v="164116" />
		<tag k="waterway" v="dam" />
	</node>
	<node id="-312573" lat="60.6012833329" lon="11.4814388804">
		<tag k="name" v="Hemtjennet" />
		<tag k="natural" v="water" />
		<tag k="ssr:stedsnr" v="908756" />
	</node>
	<node id="-313595" lat="60.5668888852" lon="11.5383111066">
		<tag k="name" v="Storgryttjennet" />
		<tag k="natural" v="water" />
		<tag k="ssr:stedsnr" v="597323" />
	</node>
	<node id="-311572" lat="60.650888891" lon="11.4098611072">
		<tag k="name" v="Helgåsvika" />
		<tag k="natural" v="bay" />
		<tag k="ssr:stedsnr" v="223265" />
	</node>
	<node id="-311884" lat="60.7561638858" lon="11.4053611069">
		<tag k="name" v="Boiebekken" />
		<tag k="ssr:stedsnr" v="465416" />
		<tag k="waterway" v="stream" />
	</node>
	<node id="-312051" lat="60.7182972213" lon="11.489569447">
		<tag k="name" v="Vellumstadtjennet" />
		<tag k="natural" v="water" />
		<tag k="ssr:stedsnr" v="403671" />
	</node>
	<node id="-312049" lat="60.7270888847" lon="11.0938972176">
		<tag k="name" v="Nordre Staurodden" />
		<tag k="natural" v="cape" />
		<tag k="ssr:stedsnr" v="403165" />
	</node>
	<node id="-313582" lat="60.6651138865" lon="11.4572972292">
		<tag k="name" v="Jutsjøbekken" />
		<tag k="ssr:stedsnr" v="587877" />
		<tag k="waterway" v="stream" />
	</node>
	<node id="-312557" lat="60.6863333292" lon="11.5553305472">
		<tag k="name" v="Nedre Starrtjennet" />
		<tag k="natural" v="water" />
		<tag k="ssr:stedsnr" v="907397" />
	</node>
	<node id="-313066" lat="60.6565333306" lon="11.3223027688">
		<tag k="name" v="Åklyfta" />
		<tag k="place" v="locality" />
		<tag k="ssr:stedsnr" v="161279" />
	</node>
	<node id="-312444" lat="60.6422888908" lon="11.3649722258">
		<tag k="name" v="Muggerudsbekken" />
		<tag k="ssr:stedsnr" v="665324" />
		<tag k="waterway" v="stream" />
	</node>
	<node id="-312037" lat="60.5532166686" lon="11.3199638807">
		<tag k="name" v="Gransjøen" />
		<tag k="natural" v="water" />
		<tag k="ssr:stedsnr" v="371379" />
	</node>
	<node id="-313059" lat="60.6659055522" lon="11.1370861093">
		<tag k="name" v="Gjøvikodden" />
		<tag k="natural" v="cape" />
		<tag k="ssr:stedsnr" v="161041" />
	</node>
	<node id="-313570" lat="60.5657777803" lon="11.4151083366">
		<tag k="name" v="Tjuvhullet" />
		<tag k="place" v="locality" />
		<tag k="ssr:stedsnr" v="587137" />
	</node>
	<node id="-313467" lat="60.6875555531" lon="11.567958335">
		<tag k="name" v="Øvre Starrtjennet" />
		<tag k="natural" v="water" />
		<tag k="ssr:stedsnr" v="527898" />
	</node>
	<node id="-311781" lat="60.6610416637" lon="11.496688886">
		<tag k="name" v="Holmtjennsbekken" />
		<tag k="ssr:stedsnr" v="163626" />
		<tag k="waterway" v="stream" />
	</node>
	<node id="-313565" lat="60.5644750002" lon="11.4507083318">
		<tag k="name" v="Midtre Huldertjennet" />
		<tag k="natural" v="water" />
		<tag k="ssr:stedsnr" v="586750" />
	</node>
	<node id="-312889" lat="60.7181416692" lon="11.4552333388">
		<tag k="name" v="Gråbergstjenna" />
		<tag k="natural" v="water" />
		<tag k="ssr:stedsnr" v="67561" />
		<tag k="water" v="lake" />
	</node>
	<node id="-312025" lat="60.59051111" lon="11.4326083246">
		<tag k="name" v="Lauvtjennet" />
		<tag k="natural" v="water" />
		<tag k="ssr:stedsnr" v="362720" />
	</node>
	<node id="-313560" lat="60.7050916666" lon="11.1034583346">
		<tag k="name" v="Hestnebben" />
		<tag k="natural" v="cape" />
		<tag k="ssr:stedsnr" v="586187" />
	</node>
	<node id="-312868" lat="60.5927166696" lon="11.2688194362">
		<tag k="name" v="Søndre Oddenvika" />
		<tag k="natural" v="bay" />
		<tag k="ssr:stedsnr" v="59434" />
	</node>
	<node id="-313046" lat="60.6818416638" lon="11.3029861088">
		<tag k="alt_name" v="Starelva;Søndre Starrelva" />
		<tag k="name" v="Starrelva" />
		<tag k="ssr:stedsnr" v="129965" />
		<tag k="waterway" v="stream" />
	</node>
	<node id="-312662" lat="60.5810749976" lon="11.2220249918">
		<tag k="alt_name" v="Hamnesodden" />
		<tag k="name" v="Hamnnesodden" />
		<tag k="natural" v="cape" />
		<tag k="ssr:stedsnr" v="857411" />
	</node>
	<node id="-312867" lat="60.6014527807" lon="11.2895916622">
		<tag k="name" v="Bogvika" />
>>>>>>> e1d4bc35ff8a6074a6f2e91616a996b547c36f15
		<tag k="natural" v="bay" />
		<tag k="ssr:stedsnr" v="119456" />
	</node>
<<<<<<< HEAD
	<node lat="60.601602774223466" lon="11.273458341933557" id="-20787">
		<tag k="name" v="Viksvika" />
		<tag k="natural" v="bay" />
		<tag k="ssr:stedsnr" v="119458" />
	</node>
	<node lat="60.57691944093704" lon="11.495511117614175" id="-20792">
		<tag k="name" v="Malungtjennet" />
		<tag k="natural" v="water" />
		<tag k="ssr:stedsnr" v="128114" />
	</node>
	<node lat="60.6085361079644" lon="11.609647216663467" id="-20793">
		<tag k="name" v="Rottjenna" />
		<tag k="natural" v="water" />
		<tag k="ssr:stedsnr" v="128125" />
	</node>
	<node lat="60.60390555494601" lon="11.543186120066714" id="-20794">
		<tag k="name" v="Kerstitjennet" />
		<tag k="natural" v="water" />
		<tag k="ssr:stedsnr" v="128126" />
	</node>
	<node lat="60.73502222103356" lon="11.510861108565416" id="-20803">
		<tag k="name" v="Skallbergselva" />
		<tag k="ssr:stedsnr" v="128264" />
		<tag k="waterway" v="stream" />
	</node>
	<node lat="60.683083331220566" lon="11.40636389138084" id="-20809">
		<tag k="name" v="Yksenåa" />
		<tag k="ssr:stedsnr" v="128521" />
		<tag k="waterway" v="stream" />
	</node>
	<node lat="60.51745000057222" lon="11.395558339266103" id="-20816">
=======
	<node id="-312526" lat="60.6719833296" lon="11.1455999997">
		<tag k="name" v="Hvitbergtjennet" />
		<tag k="natural" v="water" />
		<tag k="ssr:stedsnr" v="723047" />
	</node>
	<node id="-313034" lat="60.6830833312" lon="11.4063638914">
		<tag k="name" v="Yksenåa" />
		<tag k="ssr:stedsnr" v="128521" />
		<tag k="waterway" v="stream" />
	</node>
	<node id="-312521" lat="60.5937611114" lon="11.6256750087">
		<tag k="name" v="Fjellsjøbekken" />
		<tag k="ssr:stedsnr" v="892734" />
		<tag k="waterway" v="stream" />
	</node>
	<node id="-313544" lat="60.7827277783" lon="11.1675861065">
		<tag k="name" v="Svartelva" />
		<tag k="ssr:stedsnr" v="555895" />
		<tag k="waterway" v="river" />
	</node>
	<node id="-313030" lat="60.5174500006" lon="11.3955583393">
>>>>>>> e1d4bc35ff8a6074a6f2e91616a996b547c36f15
		<tag k="alt_name" v="Hersjøåa" />
		<tag k="name" v="Hersjøelva" />
		<tag k="ssr:stedsnr" v="128481" />
		<tag k="waterway" v="stream" />
	</node>
<<<<<<< HEAD
	<node lat="60.68184166377866" lon="11.302986108827863" id="-20828">
		<tag k="alt_name" v="Starelva;Søndre Starrelva" />
		<tag k="name" v="Starrelva" />
		<tag k="ssr:stedsnr" v="129965" />
		<tag k="waterway" v="stream" />
	</node>
	<node lat="60.73210833411914" lon="11.0926888812477" id="-20837">
		<tag k="name" v="Fagerlivika" />
		<tag k="natural" v="bay" />
		<tag k="ssr:stedsnr" v="161202" />
	</node>
	<node lat="60.66590555222727" lon="11.137086109272015" id="-20844">
		<tag k="name" v="Gjøvikodden" />
		<tag k="natural" v="cape" />
		<tag k="ssr:stedsnr" v="161041" />
	</node>
	<node lat="60.65653333064423" lon="11.322302768774902" id="-20849">
		<tag k="name" v="Åklyfta" />
		<tag k="place" v="locality" />
		<tag k="ssr:stedsnr" v="161279" />
	</node>
	<node lat="60.51096389128874" lon="11.29867500690005" id="-20876">
		<tag k="name" v="Østre Klingerhaugbekken" />
		<tag k="ssr:stedsnr" v="176251" />
		<tag k="waterway" v="stream" />
	</node>
	<node lat="60.73724166226972" lon="11.337152782095012" id="-20881">
		<tag k="name" v="Bjørkholsbekken" />
		<tag k="ssr:stedsnr" v="178400" />
		<tag k="waterway" v="stream" />
	</node>
	<node lat="60.46890277763911" lon="11.327561102645982" id="-20899">
		<tag k="name" v="Vesleauget" />
=======
	<node id="-312516" lat="60.5294694407" lon="11.3615499951">
		<tag k="name" v="Bergsjødammen" />
		<tag k="ssr:stedsnr" v="707003" />
		<tag k="waterway" v="dam" />
	</node>
	<node id="-313026" lat="60.6012305591" lon="11.3258944371">
		<tag k="name" v="Nykjua" />
		<tag k="ssr:stedsnr" v="128412" />
		<tag k="waterway" v="stream" />
	</node>
	<node id="-313537" lat="60.7030500023" lon="11.3815027694">
		<tag k="name" v="Lundstjennet" />
		<tag k="natural" v="water" />
		<tag k="ssr:stedsnr" v="553499" />
	</node>
	<node id="-313024" lat="60.6269944453" lon="11.5566638933">
		<tag k="name" v="Kråkhorntjennet" />
		<tag k="natural" v="water" />
		<tag k="ssr:stedsnr" v="128299" />
	</node>
	<node id="-313023" lat="60.6590388881" lon="11.6230888955">
		<tag k="alt_name" v="Sorten, vesle" />
		<tag k="name" v="Vesle Sorten" />
		<tag k="natural" v="water" />
		<tag k="ssr:stedsnr" v="128292" />
	</node>
	<node id="-311831" lat="60.661399999" lon="11.5597361105">
		<tag k="name" v="Samlingskulpen" />
		<tag k="natural" v="water" />
		<tag k="ssr:stedsnr" v="284920" />
	</node>
	<node id="-312888" lat="60.7107166644" lon="11.1047000021">
		<tag k="name" v="Gillundstranda" />
		<tag k="natural" v="beach" />
		<tag k="ssr:stedsnr" v="67556" />
	</node>
	<node id="-312010" lat="60.6669416678" lon="11.3903694479">
		<tag k="name" v="Nedre Mælumstjennet" />
>>>>>>> e1d4bc35ff8a6074a6f2e91616a996b547c36f15
		<tag k="natural" v="water" />
		<tag k="ssr:stedsnr" v="180891" />
	</node>
<<<<<<< HEAD
	<node lat="60.65749166574278" lon="11.532544449684378" id="-20904">
		<tag k="name" v="Flesktjennet" />
		<tag k="natural" v="water" />
		<tag k="ssr:stedsnr" v="189303" />
	</node>
	<node lat="60.54234166698773" lon="11.39911110831091" id="-20905">
		<tag k="name" v="Svarttjennet" />
=======
	<node id="-311865" lat="60.6877027782" lon="11.5680472187">
		<tag k="name" v="Starrtjenna" />
		<tag k="natural" v="water" />
		<tag k="ssr:stedsnr" v="249359" />
		<tag k="water" v="lake" />
	</node>
	<node id="-312351" lat="60.6758777781" lon="11.4666944492">
		<tag k="name" v="Hemtjennet" />
>>>>>>> e1d4bc35ff8a6074a6f2e91616a996b547c36f15
		<tag k="natural" v="water" />
		<tag k="ssr:stedsnr" v="189445" />
	</node>
<<<<<<< HEAD
	<node lat="60.57918055239842" lon="11.434158329865335" id="-20914">
		<tag k="name" v="Storputten" />
		<tag k="natural" v="water" />
		<tag k="old_name" v="Storputtjernet" />
		<tag k="ssr:stedsnr" v="189356" />
	</node>
	<node lat="60.674861106834705" lon="11.361266661030207" id="-20950">
		<tag k="name" v="Katthølet" />
		<tag k="natural" v="water" />
		<tag k="ssr:stedsnr" v="223476" />
	</node>
	<node lat="60.65088889103334" lon="11.40986110722829" id="-20952">
		<tag k="name" v="Helgåsvika" />
		<tag k="natural" v="bay" />
		<tag k="ssr:stedsnr" v="223265" />
	</node>
	<node lat="60.59731111308601" lon="11.63592222004657" id="-20960">
		<tag k="name" v="Langtjennsbekken" />
		<tag k="ssr:stedsnr" v="224754" />
		<tag k="waterway" v="stream" />
	</node>
	<node lat="60.62226388646116" lon="11.577172227300862" id="-20961">
		<tag k="name" v="Hestskotjennet" />
		<tag k="natural" v="water" />
		<tag k="ssr:stedsnr" v="224759" />
	</node>
	<node lat="60.69363055831058" lon="11.480883341229129" id="-20965">
		<tag k="name" v="Sildtjennbekken" />
		<tag k="ssr:stedsnr" v="281113" />
		<tag k="waterway" v="stream" />
	</node>
	<node lat="60.49760833096684" lon="11.243780556905676" id="-20970">
		<tag k="name" v="Budalsbekken" />
		<tag k="ssr:stedsnr" v="282214" />
		<tag k="waterway" v="stream" />
	</node>
	<node lat="60.635547225609" lon="11.551538890913456" id="-20974">
		<tag k="name" v="Søndre Mjøvatnet" />
		<tag k="natural" v="water" />
		<tag k="ssr:stedsnr" v="282945" />
	</node>
	<node lat="60.661399998966196" lon="11.559736110460495" id="-20978">
		<tag k="name" v="Samlingskulpen" />
		<tag k="natural" v="water" />
		<tag k="ssr:stedsnr" v="284920" />
	</node>
	<node lat="60.58006388790156" lon="11.646497221806118" id="-20984">
		<tag k="name" v="Skjeggvolltjernet" />
		<tag k="natural" v="water" />
		<tag k="old_name" v="Gaardsvand mellom" />
		<tag k="ssr:stedsnr" v="283754" />
	</node>
	<node lat="60.700705554725204" lon="11.43124722739885" id="-20986">
		<tag k="name" v="Kroktjennet" />
		<tag k="natural" v="water" />
		<tag k="ssr:stedsnr" v="283842" />
	</node>
	<node lat="60.595833336107475" lon="11.506441673049874" id="-20996">
		<tag k="name" v="Fløtdammen" />
		<tag k="ssr:stedsnr" v="285691" />
		<tag k="waterway" v="dam" />
	</node>
	<node lat="60.537922224464026" lon="11.298991668749936" id="-21005">
		<tag k="name" v="Tømmermyrbekken" />
		<tag k="ssr:stedsnr" v="300339" />
		<tag k="waterway" v="stream" />
	</node>
	<node lat="60.59287778169819" lon="11.246849997104862" id="-21009">
		<tag k="name" v="Trosvika" />
		<tag k="natural" v="bay" />
		<tag k="ssr:stedsnr" v="301352" />
	</node>
	<node lat="60.59216110710808" lon="11.459599996340524" id="-21022">
		<tag k="name" v="Kvernhusbekken" />
		<tag k="ssr:stedsnr" v="301697" />
		<tag k="waterway" v="stream" />
	</node>
	<node lat="60.600813885931224" lon="11.429569449209037" id="-21023">
		<tag k="name" v="Sløbekken" />
		<tag k="ssr:stedsnr" v="301704" />
		<tag k="waterway" v="stream" />
	</node>
	<node lat="60.68137500142908" lon="11.11620555418274" id="-21034">
		<tag k="name" v="Strand" />
		<tag k="natural" v="beach" />
		<tag k="ssr:stedsnr" v="310546" />
	</node>
	<node lat="60.80200832961944" lon="11.289800000146409" id="-21052">
		<tag k="name" v="Fura" />
		<tag k="ssr:stedsnr" v="312850" />
		<tag k="waterway" v="river" />
	</node>
	<node lat="60.72257777764795" lon="11.117369442711864" id="-21059">
		<tag k="name" v="Kjemstadåa" />
		<tag k="ssr:stedsnr" v="342175" />
		<tag k="waterway" v="stream" />
	</node>
	<node lat="60.594811109617346" lon="11.394505559529314" id="-21073">
		<tag k="name" v="Tjennbekken" />
		<tag k="ssr:stedsnr" v="344360" />
		<tag k="waterway" v="stream" />
	</node>
	<node lat="60.5966970911507" lon="11.201623003475714" id="-21099">
		<tag k="name" v="Tuvika" />
		<tag k="natural" v="bay" />
		<tag k="ssr:stedsnr" v="362391" />
	</node>
	<node lat="60.59051111002413" lon="11.432608324603988" id="-21111">
		<tag k="name" v="Lauvtjennet" />
		<tag k="natural" v="water" />
		<tag k="ssr:stedsnr" v="362720" />
	</node>
	<node lat="60.61952917959412" lon="11.213490708105006" id="-21124">
		<tag k="name" v="Refsaltjennet" />
		<tag k="natural" v="water" />
		<tag k="ssr:stedsnr" v="371592" />
	</node>
	<node lat="60.71044999876411" lon="11.460105555220327" id="-21132">
		<tag k="name" v="Lorttjennsmyra" />
		<tag k="natural" v="water" />
		<tag k="ssr:stedsnr" v="371498" />
	</node>
	<node lat="60.617586107194604" lon="11.540916674494678" id="-21146">
		<tag k="name" v="Målåvassdammen" />
		<tag k="ssr:stedsnr" v="402300" />
		<tag k="waterway" v="dam" />
	</node>
	<node lat="60.71829722133101" lon="11.489569447004042" id="-21149">
		<tag k="name" v="Vellumstadtjennet" />
		<tag k="natural" v="water" />
		<tag k="ssr:stedsnr" v="403671" />
	</node>
	<node lat="60.700788887067226" lon="11.440880553818491" id="-21159">
		<tag k="name" v="Vesle Bjørktjennet" />
		<tag k="natural" v="water" />
		<tag k="ssr:stedsnr" v="404820" />
	</node>
	<node lat="60.58360277356267" lon="11.395988889695788" id="-21161">
		<tag k="name" v="Gaukildammen" />
		<tag k="ssr:stedsnr" v="405141" />
		<tag k="waterway" v="dam" />
	</node>
	<node lat="60.66169999734099" lon="11.531380559412508" id="-21165">
		<tag k="name" v="Flesktjennsbekken" />
		<tag k="ssr:stedsnr" v="405679" />
		<tag k="waterway" v="stream" />
	</node>
	<node lat="60.48760000108848" lon="11.326800001130051" id="-21170">
		<tag k="name" v="Raskerudelva" />
		<tag k="ssr:stedsnr" v="405970" />
		<tag k="waterway" v="stream" />
	</node>
	<node lat="60.50576944011548" lon="11.297783340848362" id="-21176">
		<tag k="name" v="Hølbekken" />
		<tag k="ssr:stedsnr" v="419267" />
		<tag k="waterway" v="stream" />
	</node>
	<node lat="60.53120277571451" lon="11.51380278647515" id="-21177">
		<tag k="name" v="Rønningsbekken" />
		<tag k="ssr:stedsnr" v="419580" />
		<tag k="waterway" v="stream" />
	</node>
	<node lat="60.63829722187725" lon="11.425638890300476" id="-21181">
		<tag k="name" v="Varpholmen" />
		<tag k="natural" v="cape" />
		<tag k="ssr:stedsnr" v="421684" />
	</node>
	<node lat="60.48059999742745" lon="11.308652769735508" id="-21196">
		<tag k="name" v="Granerudsjøen" />
		<tag k="natural" v="water" />
		<tag k="ssr:stedsnr" v="431411" />
		<tag k="water" v="lake" />
	</node>
	<node lat="60.59111944056352" lon="11.63976666916476" id="-21200">
		<tag k="name" v="Øvre Gåsvatn" />
		<tag k="natural" v="water" />
		<tag k="old_name" v="Gårdsvatn, øvre;Gaardsvand nordre" />
		<tag k="ssr:stedsnr" v="432157" />
	</node>
	<node lat="60.60512777917154" lon="11.495169437786778" id="-21201">
		<tag k="name" v="Gørrtjenna" />
		<tag k="natural" v="water" />
		<tag k="ssr:stedsnr" v="432170" />
		<tag k="water" v="lake" />
	</node>
	<node lat="60.587908336830694" lon="11.44531666329522" id="-21203">
		<tag k="name" v="Gransjøen" />
		<tag k="natural" v="water" />
		<tag k="ssr:stedsnr" v="432345" />
	</node>
	<node lat="60.56215555878559" lon="11.413208330890313" id="-21205">
		<tag k="name" v="Storfløyta" />
		<tag k="place" v="locality" />
		<tag k="ssr:stedsnr" v="432363" />
	</node>
	<node lat="60.5512166679712" lon="11.323305554972492" id="-21206">
=======
	<node id="-312240" lat="60.7640500009" lon="11.23380555">
		<tag k="alt_name" v="Nordre Starelva" />
		<tag k="name" v="Starelva" />
		<tag k="ssr:stedsnr" v="555919" />
		<tag k="waterway" v="river" />
	</node>
	<node id="-313526" lat="60.5674333288" lon="11.3848750057">
		<tag k="name" v="Gåsauge" />
		<tag k="place" v="locality" />
		<tag k="ssr:stedsnr" v="553376" />
	</node>
	<node id="-313614" lat="60.6530194415" lon="11.2971166728">
		<tag k="name" v="Kvernhusbekken" />
		<tag k="ssr:stedsnr" v="604511" />
		<tag k="waterway" v="stream" />
	</node>
	<node id="-312500" lat="60.6544333333" lon="11.4133916657">
		<tag k="name" v="Helgåsbekken" />
		<tag k="ssr:stedsnr" v="891309" />
		<tag k="waterway" v="stream" />
	</node>
	<node id="-313010" lat="60.6154890644" lon="11.5529686979">
		<tag k="name" v="Målåvatna" />
		<tag k="natural" v="water" />
		<tag k="ssr:stedsnr" v="128144" />
		<tag k="water" v="lake" />
	</node>
	<node id="-313009" lat="60.735022221" lon="11.5108611086">
		<tag k="name" v="Skallbergselva" />
		<tag k="ssr:stedsnr" v="128264" />
		<tag k="waterway" v="stream" />
	</node>
	<node id="-311984" lat="60.5720499982" lon="11.3372666588">
		<tag k="alt_name" v="Lillereesjøen" />
		<tag k="name" v="Litleresjøen" />
		<tag k="natural" v="water" />
		<tag k="ssr:stedsnr" v="492368" />
	</node>
	<node id="-312520" lat="60.5958888914" lon="11.6299333263">
		<tag k="name" v="Rottjennsbekken" />
		<tag k="ssr:stedsnr" v="892731" />
		<tag k="waterway" v="stream" />
	</node>
	<node id="-313518" lat="60.6363852192" lon="11.4274918749">
		<tag k="name" v="Harasjøen" />
		<tag k="natural" v="water" />
		<tag k="ssr:stedsnr" v="552662" />
		<tag k="water" v="lake" />
	</node>
	<node id="-313005" lat="60.6039055549" lon="11.5431861201">
		<tag k="name" v="Kerstitjennet" />
		<tag k="natural" v="water" />
		<tag k="ssr:stedsnr" v="128126" />
	</node>
	<node id="-313004" lat="60.608536108" lon="11.6096472167">
		<tag k="name" v="Rottjenna" />
		<tag k="natural" v="water" />
		<tag k="ssr:stedsnr" v="128125" />
	</node>
	<node id="-313515" lat="60.6840388922" lon="11.5193055625">
		<tag k="name" v="Lauvlibekken" />
		<tag k="ssr:stedsnr" v="552398" />
		<tag k="waterway" v="stream" />
	</node>
	<node id="-311609" lat="60.6438249983" lon="11.5337472148">
		<tag k="name" v="Mjøvassbekken" />
		<tag k="ssr:stedsnr" v="41661" />
		<tag k="waterway" v="stream" />
	</node>
	<node id="-311892" lat="60.7338027775" lon="11.166774999">
		<tag k="name" v="Brenneribekken" />
		<tag k="ssr:stedsnr" v="466245" />
		<tag k="waterway" v="stream" />
	</node>
	<node id="-313511" lat="60.601574997" lon="11.5091250033">
		<tag k="name" v="Fallåa" />
		<tag k="ssr:stedsnr" v="552201" />
		<tag k="waterway" v="stream" />
	</node>
	<node id="-311665" lat="60.6114333311" lon="11.4324777725">
		<tag k="name" v="Butjennet" />
		<tag k="natural" v="water" />
		<tag k="ssr:stedsnr" v="67433" />
	</node>
	<node id="-311972" lat="60.5574750044" lon="11.5300999946">
		<tag k="name" v="Ormtjennet" />
		<tag k="natural" v="water" />
		<tag k="ssr:stedsnr" v="492100" />
	</node>
	<node id="-313542" lat="60.7880500011" lon="11.2198388903">
		<tag k="name" v="Lageråa" />
		<tag k="ssr:stedsnr" v="555883" />
		<tag k="waterway" v="stream" />
	</node>
	<node id="-312994" lat="60.5956444427" lon="11.2686472217">
		<tag k="name" v="Nordre Oddenvika" />
		<tag k="natural" v="bay" />
		<tag k="ssr:stedsnr" v="119456" />
	</node>
	<node id="-313627" lat="60.6285194456" lon="11.5646305639">
		<tag k="name" v="Grastjennet" />
		<tag k="natural" v="water" />
		<tag k="ssr:stedsnr" v="613330" />
	</node>
	<node id="-313228" lat="60.6653499977" lon="11.1394027712">
		<tag k="name" v="Gjøvika" />
		<tag k="natural" v="bay" />
		<tag k="ssr:stedsnr" v="310584" />
	</node>
	<node id="-313500" lat="60.5761333295" lon="11.553919446">
		<tag k="name" v="Slåttmyrbekken" />
		<tag k="ssr:stedsnr" v="544784" />
		<tag k="waterway" v="stream" />
	</node>
	<node id="-312987" lat="60.5842749997" lon="11.2271333359">
		<tag k="name" v="Søndre Engvika" />
		<tag k="natural" v="bay" />
		<tag k="ssr:stedsnr" v="119384" />
	</node>
	<node id="-313498" lat="60.5926194443" lon="11.5799833372">
		<tag k="name" v="Øvre Lauvtjennet" />
		<tag k="natural" v="water" />
		<tag k="ssr:stedsnr" v="544776" />
	</node>
	<node id="-313497" lat="60.6023555541" lon="11.5101055637">
		<tag k="name" v="Olderstensfløta" />
		<tag k="natural" v="water" />
		<tag k="ssr:stedsnr" v="544731" />
		<tag k="water" v="lake" />
	</node>
	<node id="-312472" lat="60.7249999955" lon="11.0961805643">
		<tag k="name" v="Søndre Staurodden" />
		<tag k="natural" v="cape" />
		<tag k="ssr:stedsnr" v="889201" />
	</node>
	<node id="-311958" lat="60.5962083341" lon="11.4416222174">
		<tag k="name" v="Opptjennet" />
		<tag k="natural" v="water" />
		<tag k="ssr:stedsnr" v="483728" />
	</node>
	<node id="-312981" lat="60.6821500024" lon="11.1346805491">
		<tag k="name" v="Markbekken" />
		<tag k="ssr:stedsnr" v="117074" />
		<tag k="waterway" v="stream" />
	</node>
	<node id="-313491" lat="60.5738805566" lon="11.3006361125">
		<tag k="name" v="Svedammen" />
		<tag k="natural" v="water" />
		<tag k="ssr:stedsnr" v="544390" />
	</node>
	<node id="-312465" lat="60.7952750009" lon="11.1134527795">
		<tag k="name" v="Åkersvika" />
		<tag k="natural" v="bay" />
		<tag k="ssr:stedsnr" v="677916" />
	</node>
	<node id="-312975" lat="60.5316138849" lon="11.494122222">
		<tag k="name" v="Kvernfossen" />
		<tag k="natural" v="waterfall" />
		<tag k="ssr:stedsnr" v="116587" />
	</node>
	<node id="-312451" lat="60.6324888856" lon="11.5345888936">
		<tag k="name" v="Skorokulpen" />
		<tag k="natural" v="water" />
		<tag k="ssr:stedsnr" v="674311" />
	</node>
	<node id="-311575" lat="60.6748611068" lon="11.361266661">
		<tag k="name" v="Katthølet" />
		<tag k="natural" v="water" />
		<tag k="ssr:stedsnr" v="223476" />
	</node>
	<node id="-312455" lat="60.7052888891" lon="11.3006638895">
		<tag k="name" v="Musettjennet" />
		<tag k="natural" v="water" />
		<tag k="ssr:stedsnr" v="674515" />
	</node>
	<node id="-313478" lat="60.6294999992" lon="11.4440999918">
		<tag k="name" v="Killingholmen" />
		<tag k="place" v="islet" />
		<tag k="ssr:stedsnr" v="542655" />
	</node>
	<node id="-313025" lat="60.5991333352" lon="11.1960444411">
		<tag k="name" v="Geitholmen" />
		<tag k="place" v="islet" />
		<tag k="ssr:stedsnr" v="128409" />
	</node>
	<node id="-312452" lat="60.6315333342" lon="11.5946250009">
		<tag k="name" v="Avlangtjennet" />
		<tag k="natural" v="water" />
		<tag k="ssr:stedsnr" v="674312" />
	</node>
	<node id="-312598" lat="60.6549527799" lon="11.5830944509">
		<tag k="name" v="Svartkulpen" />
		<tag k="natural" v="water" />
		<tag k="ssr:stedsnr" v="917299" />
	</node>
	<node id="-312450" lat="60.5816083342" lon="11.5779583299">
		<tag k="name" v="Helvetestjennet" />
		<tag k="natural" v="water" />
		<tag k="ssr:stedsnr" v="674168" />
	</node>
	<node id="-311915" lat="60.7366444442" lon="11.0882500012">
		<tag k="name" v="Ringnesvika" />
		<tag k="natural" v="bay" />
		<tag k="ssr:stedsnr" v="301216" />
	</node>
	<node id="-312901" lat="60.6661861129" lon="11.5341666654">
		<tag k="name" v="Lauvlistortjennet" />
		<tag k="natural" v="water" />
		<tag k="ssr:stedsnr" v="68379" />
	</node>
	<node id="-313981" lat="60.585919441" lon="11.452030564">
		<tag k="name" v="Gransjøbekken" />
		<tag k="ssr:stedsnr" v="968736" />
		<tag k="waterway" v="stream" />
	</node>
	<node id="-313468" lat="60.5619472189" lon="11.4727861134">
		<tag k="name" v="Huldertjennsbekken" />
		<tag k="ssr:stedsnr" v="528106" />
		<tag k="waterway" v="stream" />
	</node>
	<node id="-313979" lat="60.5396750022" lon="11.2639888819">
		<tag k="name" v="Søndre Markbekken" />
		<tag k="ssr:stedsnr" v="968335" />
		<tag k="waterway" v="stream" />
	</node>
	<node id="-311929" lat="60.5337611132" lon="11.2920861078">
		<tag k="name" v="Vestre Tømmerholbekken" />
		<tag k="ssr:stedsnr" v="302303" />
		<tag k="waterway" v="stream" />
	</node>
	<node id="-311927" lat="60.6008138859" lon="11.4295694492">
		<tag k="name" v="Sløbekken" />
		<tag k="ssr:stedsnr" v="301704" />
		<tag k="waterway" v="stream" />
	</node>
	<node id="-312950" lat="60.5478305564" lon="11.4451222276">
		<tag k="name" v="Eltondammen" />
		<tag k="ssr:stedsnr" v="102678" />
		<tag k="waterway" v="dam" />
	</node>
	<node id="-313461" lat="60.6962972254" lon="11.3196944526">
		<tag k="name" v="Tomtbekken" />
		<tag k="ssr:stedsnr" v="527446" />
		<tag k="waterway" v="stream" />
	</node>
	<node id="-311982" lat="60.5841361126" lon="11.4218777715">
		<tag k="alt_name" v="Vesleputten" />
		<tag k="name" v="Veltputten" />
		<tag k="place" v="locality" />
		<tag k="ssr:stedsnr" v="492364" />
	</node>
	<node id="-311922" lat="60.5928777817" lon="11.2468499971">
		<tag k="name" v="Trosvika" />
		<tag k="natural" v="bay" />
		<tag k="ssr:stedsnr" v="301352" />
	</node>
	<node id="-313456" lat="60.5426027764" lon="11.4619333359">
		<tag k="name" v="Bjørnstadtjennet" />
		<tag k="natural" v="water" />
		<tag k="ssr:stedsnr" v="526645" />
	</node>
	<node id="-311692" lat="60.7072611144" lon="11.288063891">
		<tag k="name" v="Melstjennet" />
		<tag k="natural" v="water" />
		<tag k="ssr:stedsnr" v="249516" />
	</node>
	<node id="-313451" lat="60.702708329" lon="11.1048583376">
		<tag k="name" v="Støvika" />
		<tag k="natural" v="bay" />
		<tag k="ssr:stedsnr" v="526195" />
	</node>
	<node id="-312426" lat="60.6785944488" lon="11.2719222201">
		<tag k="name" v="Kolobekken" />
		<tag k="ssr:stedsnr" v="735575" />
		<tag k="waterway" v="stream" />
	</node>
	<node id="-311891" lat="60.5518666688" lon="11.4026555591">
		<tag k="name" v="Remmentjennet" />
		<tag k="natural" v="water" />
		<tag k="ssr:stedsnr" v="466141" />
	</node>
	<node id="-312423" lat="60.5288388855" lon="11.3619111185">
		<tag k="name" v="Bergsjøåa" />
		<tag k="ssr:stedsnr" v="735473" />
		<tag k="waterway" v="stream" />
	</node>
	<node id="-312169" lat="60.5619472189" lon="11.4727861134">
		<tag k="name" v="Kvernbekken" />
		<tag k="ssr:stedsnr" v="674125" />
		<tag k="waterway" v="stream" />
	</node>
	<node id="-312418" lat="60.6096638869" lon="11.5870194435">
		<tag k="name" v="Hemtjennet" />
		<tag k="natural" v="water" />
		<tag k="ssr:stedsnr" v="735178" />
	</node>
	<node id="-312415" lat="60.6612277736" lon="11.4705416588">
		<tag k="name" v="Kroktjennet" />
		<tag k="natural" v="water" />
		<tag k="ssr:stedsnr" v="648876" />
	</node>
	<node id="-313950" lat="60.5872694489" lon="11.6086527695">
		<tag k="name" v="Kjøltjennet" />
		<tag k="natural" v="water" />
		<tag k="ssr:stedsnr" v="952764" />
	</node>
	<node id="-313951" lat="60.6100000001" lon="11.4949083326">
		<tag k="name" v="Gørrtjennsbekken" />
		<tag k="ssr:stedsnr" v="953283" />
		<tag k="waterway" v="stream" />
	</node>
	<node id="-312923" lat="60.7075555538" lon="11.4723694492">
		<tag k="name" v="Barkliselva" />
		<tag k="ssr:stedsnr" v="100803" />
		<tag k="waterway" v="stream" />
	</node>
	<node id="-313946" lat="60.6845250032" lon="11.5644916721">
		<tag k="name" v="Langsetbekken" />
		<tag k="ssr:stedsnr" v="952892" />
		<tag k="waterway" v="stream" />
	</node>
	<node id="-313945" lat="60.6644749957" lon="11.4446805585">
		<tag k="name" v="Svartkulpen" />
		<tag k="natural" v="water" />
		<tag k="ssr:stedsnr" v="952855" />
		<tag k="water" v="pond" />
	</node>
	<node id="-312920" lat="60.6399166684" lon="11.346666671">
		<tag k="name" v="Harildstadbekken" />
		<tag k="ssr:stedsnr" v="100330" />
		<tag k="waterway" v="stream" />
	</node>
	<node id="-311813" lat="60.7007055547" lon="11.4312472274">
		<tag k="name" v="Kroktjennet" />
		<tag k="natural" v="water" />
		<tag k="ssr:stedsnr" v="283842" />
	</node>
	<node id="-312404" lat="60.4978388905" lon="11.2867249987">
		<tag k="name" v="Lomtjennsbekken" />
		<tag k="ssr:stedsnr" v="646271" />
		<tag k="waterway" v="stream" />
	</node>
	<node id="-311566" lat="60.7094833346" lon="11.4399222136">
		<tag k="name" v="Bjørktjennsbekken" />
		<tag k="ssr:stedsnr" v="222822" />
		<tag k="waterway" v="stream" />
	</node>
	<node id="-311878" lat="60.6397666706" lon="11.5425805635">
		<tag k="name" v="Nordre Mjøvatnet" />
		<tag k="natural" v="water" />
		<tag k="ssr:stedsnr" v="464937" />
	</node>
	<node id="-313937" lat="60.6200027766" lon="11.2504499973">
		<tag k="name" v="Mosebekken" />
		<tag k="ssr:stedsnr" v="951442" />
		<tag k="waterway" v="stream" />
	</node>
	<node id="-313936" lat="60.5873611115" lon="11.3872166592">
		<tag k="name" v="Tretjennet" />
		<tag k="natural" v="water" />
		<tag k="ssr:stedsnr" v="951341" />
	</node>
	<node id="-313935" lat="60.6274166686" lon="11.2078583359">
		<tag k="name" v="Østbybekken" />
		<tag k="ssr:stedsnr" v="951399" />
		<tag k="waterway" v="stream" />
	</node>
	<node id="-311886" lat="60.6824277764" lon="11.2308666749">
		<tag k="name" v="Rotbekken" />
		<tag k="ssr:stedsnr" v="465528" />
		<tag k="waterway" v="stream" />
	</node>
	<node id="-313101" lat="60.7372416623" lon="11.3371527821">
		<tag k="name" v="Bjørkholsbekken" />
		<tag k="ssr:stedsnr" v="178400" />
		<tag k="waterway" v="stream" />
	</node>
	<node id="-312908" lat="60.7691611108" lon="11.0744555539">
		<tag k="name" v="Nordsveodden" />
		<tag k="natural" v="cape" />
		<tag k="ssr:stedsnr" v="70478" />
	</node>
	<node id="-312903" lat="60.665430556" lon="11.5064250059">
		<tag k="name" v="Holmtjennet" />
		<tag k="natural" v="water" />
		<tag k="ssr:stedsnr" v="68387" />
	</node>
	<node id="-312902" lat="60.66757778" lon="11.6187666755">
		<tag k="name" v="Sorten" />
		<tag k="natural" v="water" />
		<tag k="ssr:stedsnr" v="68382" />
		<tag k="water" v="lake" />
	</node>
	<node id="-313413" lat="60.551216668" lon="11.323305555">
>>>>>>> e1d4bc35ff8a6074a6f2e91616a996b547c36f15
		<tag k="name" v="Gransjøbekken" />
		<tag k="ssr:stedsnr" v="432377" />
		<tag k="waterway" v="stream" />
	</node>
<<<<<<< HEAD
	<node lat="60.7027083289995" lon="11.10485833758422" id="-21242">
		<tag k="name" v="Støvika" />
		<tag k="natural" v="bay" />
		<tag k="ssr:stedsnr" v="526195" />
	</node>
	<node lat="60.54260277643534" lon="11.461933335873002" id="-21251">
		<tag k="name" v="Bjørnstadtjennet" />
		<tag k="natural" v="water" />
		<tag k="ssr:stedsnr" v="526645" />
	</node>
	<node lat="60.69629722543089" lon="11.319694452614236" id="-21258">
		<tag k="name" v="Tomtbekken" />
		<tag k="ssr:stedsnr" v="527446" />
		<tag k="waterway" v="stream" />
	</node>
	<node lat="60.68755555313747" lon="11.567958335000979" id="-21264">
		<tag k="name" v="Øvre Starrtjennet" />
		<tag k="natural" v="water" />
		<tag k="ssr:stedsnr" v="527898" />
	</node>
	<node lat="60.567843000830194" lon="11.457943242218557" id="-21265">
		<tag k="name" v="Huldertjennsbekken" />
		<tag k="ssr:stedsnr" v="528106" />
		<tag k="waterway" v="stream" />
	</node>
	<node lat="60.50110555862284" lon="11.29480555861239" id="-21271">
		<tag k="name" v="Lomtjennet" />
		<tag k="natural" v="water" />
		<tag k="ssr:stedsnr" v="540262" />
	</node>
	<node lat="60.6294999992456" lon="11.444099991802275" id="-21278">
		<tag k="name" v="Killingholmen" />
		<tag k="place" v="islet" />
		<tag k="ssr:stedsnr" v="542655" />
	</node>
	<node lat="60.60235555413201" lon="11.510105563745562" id="-21286">
		<tag k="name" v="Olderstensfløta" />
		<tag k="natural" v="water" />
		<tag k="ssr:stedsnr" v="544731" />
		<tag k="water" v="lake" />
	</node>
	<node lat="60.5761333295281" lon="11.553919446016682" id="-21288">
		<tag k="name" v="Slåttmyrbekken" />
		<tag k="ssr:stedsnr" v="544784" />
		<tag k="waterway" v="stream" />
	</node>
	<node lat="60.68403889224939" lon="11.519305562526077" id="-21294">
		<tag k="name" v="Lauvlibekken" />
		<tag k="ssr:stedsnr" v="552398" />
		<tag k="waterway" v="stream" />
	</node>
	<node lat="60.63638521923675" lon="11.427491874862913" id="-21300">
		<tag k="name" v="Harasjøen" />
		<tag k="natural" v="water" />
		<tag k="ssr:stedsnr" v="552662" />
		<tag k="water" v="lake" />
	</node>
	<node lat="60.56743332883942" lon="11.384875005681193" id="-21306">
		<tag k="name" v="Gåsauge" />
		<tag k="place" v="locality" />
		<tag k="ssr:stedsnr" v="553376" />
	</node>
	<node lat="60.5543722210961" lon="11.427952778386185" id="-21310">
		<tag k="name" v="Gaukåa" />
		<tag k="ssr:stedsnr" v="553397" />
		<tag k="waterway" v="river" />
	</node>
	<node lat="60.788050001075455" lon="11.219838890278654" id="-21316">
		<tag k="name" v="Lageråa" />
		<tag k="ssr:stedsnr" v="555883" />
		<tag k="waterway" v="stream" />
	</node>
	<node lat="60.782727778292625" lon="11.167586106479662" id="-21318">
		<tag k="name" v="Svartelva" />
		<tag k="ssr:stedsnr" v="555895" />
		<tag k="waterway" v="river" />
	</node>
	<node lat="60.64456111432024" lon="11.542136110047993" id="-21338">
		<tag k="name" v="Sverkjedammen" />
		<tag k="ssr:stedsnr" v="585926" />
		<tag k="waterway" v="dam" />
	</node>
	<node lat="60.705091666642154" lon="11.103458334619466" id="-21339">
		<tag k="name" v="Hestnebben" />
		<tag k="natural" v="cape" />
		<tag k="ssr:stedsnr" v="586187" />
	</node>
	<node lat="60.565777780274" lon="11.415108336609888" id="-21352">
		<tag k="name" v="Tjuvhullet" />
		<tag k="place" v="locality" />
		<tag k="ssr:stedsnr" v="587137" />
	</node>
	<node lat="60.62927221873086" lon="11.531205552127098" id="-21359">
		<tag k="name" v="Korpkulpen" />
		<tag k="natural" v="water" />
		<tag k="ssr:stedsnr" v="587681" />
	</node>
	<node lat="60.66511388648601" lon="11.457297229172616" id="-21360">
		<tag k="name" v="Jutsjøbekken" />
		<tag k="ssr:stedsnr" v="587877" />
		<tag k="waterway" v="stream" />
	</node>
	<node lat="60.56688888523515" lon="11.53831110662859" id="-21372">
		<tag k="name" v="Storgryttjennet" />
		<tag k="natural" v="water" />
		<tag k="ssr:stedsnr" v="597323" />
	</node>
	<node lat="60.68734722450464" lon="11.145472226280017" id="-21379">
		<tag k="name" v="Iletjennet" />
		<tag k="natural" v="water" />
		<tag k="ssr:stedsnr" v="602075" />
	</node>
	<node lat="60.636988886207725" lon="11.431894448711825" id="-21383">
		<tag k="name" v="Bjørkvarpvika" />
		<tag k="natural" v="bay" />
		<tag k="ssr:stedsnr" v="602670" />
=======
	<node id="-313412" lat="60.6051277792" lon="11.4951694378">
		<tag k="name" v="Gørrtjenna" />
		<tag k="natural" v="water" />
		<tag k="ssr:stedsnr" v="432170" />
		<tag k="water" v="lake" />
	</node>
	<node id="-311875" lat="60.5216555559" lon="11.3814611057">
		<tag k="name" v="Hersjødammen" />
		<tag k="ssr:stedsnr" v="464001" />
		<tag k="waterway" v="dam" />
	</node>
	<node id="-312898" lat="60.538641669" lon="11.3445027808">
		<tag k="name" v="Bergsjøen" />
		<tag k="natural" v="water" />
		<tag k="ssr:stedsnr" v="68488" />
	</node>
	<node id="-313409" lat="60.5621555588" lon="11.4132083309">
		<tag k="name" v="Storfløyta" />
		<tag k="place" v="locality" />
		<tag k="ssr:stedsnr" v="432363" />
	</node>
	<node id="-312893" lat="60.6510583371" lon="11.5856000071">
		<tag k="alt_name" v="Gransjøen, l" />
		<tag k="name" v="Vesle Gransjøen" />
		<tag k="natural" v="water" />
		<tag k="ssr:stedsnr" v="68331" />
	</node>
	<node id="-311864" lat="60.7097555559" lon="11.1891361029">
		<tag k="name" v="Fagerhaugen" />
		<tag k="ssr:stedsnr" v="241561" />
		<tag k="waterway" v="stream" />
	</node>
	<node id="-311867" lat="60.6936305583" lon="11.4808833412">
		<tag k="name" v="Sildtjennbekken" />
		<tag k="ssr:stedsnr" v="281113" />
		<tag k="waterway" v="stream" />
	</node>
	<node id="-313401" lat="60.4806388919" lon="11.1954055554">
		<tag k="name" v="Mjøsa" />
		<tag k="natural" v="water" />
		<tag k="ssr:stedsnr" v="431452" />
		<tag k="water" v="lake" />
	</node>
	<node id="-312376" lat="60.6256472216" lon="11.4561249917">
		<tag k="name" v="Nordre Hvitsandbekken" />
		<tag k="ssr:stedsnr" v="724649" />
		<tag k="waterway" v="stream" />
	</node>
	<node id="-312887" lat="60.4916527812" lon="11.2977333422">
		<tag k="name" v="Jutsætertjennet" />
		<tag k="natural" v="water" />
		<tag k="ssr:stedsnr" v="67398" />
	</node>
	<node id="-312884" lat="60.6734388857" lon="11.5204500046">
		<tag k="name" v="Bjørnøyet" />
		<tag k="natural" v="water" />
		<tag k="ssr:stedsnr" v="67369" />
	</node>
	<node id="-312883" lat="60.5857361143" lon="11.4752361083">
		<tag k="name" v="Båntjennet" />
		<tag k="natural" v="water" />
		<tag k="ssr:stedsnr" v="67195" />
	</node>
	<node id="-313906" lat="60.627227776" lon="11.3096666576">
		<tag k="name" v="Linderudsjøen" />
		<tag k="natural" v="water" />
		<tag k="ssr:stedsnr" v="856626" />
	</node>
	<node id="-312065" lat="60.4876000011" lon="11.3268000011">
		<tag k="name" v="Raskerudelva" />
		<tag k="ssr:stedsnr" v="405970" />
		<tag k="waterway" v="stream" />
	</node>
	<node id="-312880" lat="60.5049027819" lon="11.3411194476">
		<tag k="name" v="Skjerdenbekken" />
		<tag k="ssr:stedsnr" v="59943" />
		<tag k="waterway" v="stream" />
	</node>
	<node id="-311854" lat="60.5731888932" lon="11.5218694527">
		<tag k="name" v="Vakkermyrbekken" />
		<tag k="ssr:stedsnr" v="298580" />
		<tag k="waterway" v="stream" />
	</node>
	<node id="-312877" lat="60.4632555537" lon="11.3416694363">
		<tag k="name" v="Alisholmen" />
		<tag k="place" v="islet" />
		<tag k="ssr:stedsnr" v="59891" />
	</node>
	<node id="-313111" lat="60.5877416686" lon="11.2291055501">
		<tag k="name" v="Nordre Engvika" />
		<tag k="natural" v="bay" />
		<tag k="ssr:stedsnr" v="180371" />
	</node>
	<node id="-312362" lat="60.5271333334" lon="11.4992083411">
		<tag k="name" v="Svartvika" />
		<tag k="natural" v="bay" />
		<tag k="ssr:stedsnr" v="722601" />
	</node>
	<node id="-313385" lat="60.6382972219" lon="11.4256388903">
		<tag k="name" v="Varpholmen" />
		<tag k="natural" v="cape" />
		<tag k="ssr:stedsnr" v="421684" />
	</node>
	<node id="-312897" lat="60.5419222239" lon="11.4668388926">
		<tag k="name" v="Bjørnstadfløyta" />
		<tag k="natural" v="water" />
		<tag k="ssr:stedsnr" v="68486" />
		<tag k="water" v="lake" />
	</node>
	<node id="-311840" lat="60.5958333361" lon="11.506441673">
		<tag k="name" v="Fløtdammen" />
		<tag k="ssr:stedsnr" v="285691" />
		<tag k="waterway" v="dam" />
	</node>
	<node id="-311985" lat="60.5595777752" lon="11.3541916653">
		<tag k="name" v="Knuksjøen" />
		<tag k="natural" v="water" />
		<tag k="ssr:stedsnr" v="492380" />
	</node>
	<node id="-311747" lat="60.6700444443" lon="11.5172583421">
		<tag k="name" v="Sildtjenna" />
		<tag k="natural" v="water" />
		<tag k="ssr:stedsnr" v="128343" />
		<tag k="water" v="lake" />
	</node>
	<node id="-313891" lat="60.5750222215" lon="11.2791166601">
		<tag k="name" v="Labbelva" />
		<tag k="ssr:stedsnr" v="848402" />
		<tag k="waterway" v="stream" />
	</node>
	<node id="-311939" lat="60.5427694428" lon="11.5100777754">
		<tag k="name" v="Brattskjærvika" />
		<tag k="natural" v="bay" />
		<tag k="ssr:stedsnr" v="479581" />
	</node>
	<node id="-313947" lat="60.6748972214" lon="11.6059194419">
		<tag k="name" v="Huskotjennsbekken" />
		<tag k="ssr:stedsnr" v="952902" />
		<tag k="waterway" v="stream" />
	</node>
	<node id="-313376" lat="60.5312027757" lon="11.5138027865">
		<tag k="name" v="Rønningsbekken" />
		<tag k="ssr:stedsnr" v="419580" />
		<tag k="waterway" v="stream" />
	</node>
	<node id="-313375" lat="60.5057694401" lon="11.2977833408">
		<tag k="name" v="Hølbekken" />
		<tag k="ssr:stedsnr" v="419267" />
		<tag k="waterway" v="stream" />
	</node>
	<node id="-312862" lat="60.5242000027" lon="11.2514194455">
		<tag k="name" v="Ekebekken" />
		<tag k="ssr:stedsnr" v="59273" />
		<tag k="waterway" v="stream" />
	</node>
	<node id="-312286" lat="60.5431444479" lon="11.4695999953">
		<tag k="name" v="Bjørnstaddammen" />
		<tag k="ssr:stedsnr" v="709617" />
		<tag k="waterway" v="dam" />
	</node>
	<node id="-311836" lat="60.5956194476" lon="11.5073499954">
		<tag k="name" v="Fløtdammen" />
		<tag k="ssr:stedsnr" v="285186" />
		<tag k="waterway" v="dam" />
	</node>
	<node id="-313880" lat="60.7564527803" lon="11.1189777796">
		<tag k="name" v="Fjetrebekken" />
		<tag k="ssr:stedsnr" v="848267" />
		<tag k="waterway" v="stream" />
	</node>
	<node id="-312343" lat="60.5172166627" lon="11.5486277822">
		<tag k="alt_name" v="Skiren, vesle" />
		<tag k="name" v="Vesle Skiren" />
		<tag k="natural" v="water" />
		<tag k="ssr:stedsnr" v="613222" />
	</node>
	<node id="-313878" lat="60.643372223" lon="11.4399861057">
		<tag k="name" v="Kumyrbekken" />
		<tag k="ssr:stedsnr" v="846671" />
		<tag k="waterway" v="stream" />
	</node>
	<node id="-312853" lat="60.6180111104" lon="11.3926138883">
		<tag k="name" v="Nordre Bjørnbekken" />
		<tag k="ssr:stedsnr" v="57326" />
		<tag k="waterway" v="stream" />
	</node>
	<node id="-312851" lat="60.6672333368" lon="11.1431611038">
		<tag k="name" v="Hvitbergsåa" />
		<tag k="ssr:stedsnr" v="55919" />
		<tag k="waterway" v="stream" />
	</node>
	<node id="-313347" lat="60.5701194453" lon="11.4718638806">
		<tag k="name" v="Svartkulpen" />
		<tag k="natural" v="water" />
		<tag k="ssr:stedsnr" v="404692" />
	</node>
	<node id="-313360" lat="60.6616999973" lon="11.5313805594">
		<tag k="name" v="Flesktjennsbekken" />
		<tag k="ssr:stedsnr" v="405679" />
		<tag k="waterway" v="stream" />
	</node>
	<node id="-312335" lat="60.6048142056" lon="11.192069969">
		<tag k="name" v="Brynsvika" />
		<tag k="natural" v="bay" />
		<tag k="ssr:stedsnr" v="604384" />
	</node>
	<node id="-313357" lat="60.5836027736" lon="11.3959888897">
		<tag k="name" v="Gaukildammen" />
		<tag k="ssr:stedsnr" v="405141" />
		<tag k="waterway" v="dam" />
	</node>
	<node id="-313530" lat="60.5543722211" lon="11.4279527784">
		<tag k="name" v="Gaukåa" />
		<tag k="ssr:stedsnr" v="553397" />
		<tag k="waterway" v="river" />
	</node>
	<node id="-312843" lat="60.6773638931" lon="11.4755083371">
		<tag k="name" v="Åmyrkulpen" />
		<tag k="natural" v="water" />
		<tag k="ssr:stedsnr" v="42821" />
		<tag k="water" v="lake" />
	</node>
	<node id="-313351" lat="60.7007888871" lon="11.4408805538">
		<tag k="name" v="Vesle Bjørktjennet" />
		<tag k="natural" v="water" />
		<tag k="ssr:stedsnr" v="404820" />
	</node>
	<node id="-312341" lat="60.7009833292" lon="11.2128861151">
		<tag k="name" v="Grytbekken" />
		<tag k="ssr:stedsnr" v="605565" />
		<tag k="waterway" v="stream" />
	</node>
	<node id="-312325" lat="60.5909083332" lon="11.5045361054">
		<tag k="name" v="Langfossen" />
		<tag k="natural" v="waterfall" />
		<tag k="ssr:stedsnr" v="588712" />
	</node>
	<node id="-313473" lat="60.5011055586" lon="11.2948055586">
		<tag k="name" v="Lomtjennet" />
		<tag k="natural" v="water" />
		<tag k="ssr:stedsnr" v="540262" />
	</node>
	<node id="-312834" lat="60.5489527811" lon="11.3715388913">
		<tag k="name" v="Rønningsdammen" />
		<tag k="ssr:stedsnr" v="42252" />
		<tag k="waterway" v="dam" />
	</node>
	<node id="-313003" lat="60.5769194409" lon="11.4955111176">
		<tag k="name" v="Malungtjennet" />
		<tag k="natural" v="water" />
		<tag k="ssr:stedsnr" v="128114" />
>>>>>>> e1d4bc35ff8a6074a6f2e91616a996b547c36f15
	</node>
</osm>
