<?xml version="1.0" encoding="UTF-8"?>
<<<<<<< HEAD
<osm version="0.6" generator="osmapis">
	<node lat="60.638752778823594" lon="11.412188891566071" id="-19413">
		<tag k="bridge" v="yes" />
		<tag k="layer" v="1" />
		<tag k="name" v="Sundåa bru" />
		<tag k="ssr:stedsnr" v="46693" />
	</node>
	<node lat="60.59505555493739" lon="11.206861113614208" id="-19441">
		<tag k="name" v="Gammelvangen" />
=======
<osm generator="osmapis" version="0.6">
	<node id="-311936" lat="60.7518527754" lon="11.3018472294">
		<tag k="bridge" v="yes" />
		<tag k="layer" v="1" />
		<tag k="name" v="Brynjordsveen bru" />
		<tag k="ssr:stedsnr" v="470604" />
	</node>
	<node id="-313471" lat="60.5548694478" lon="11.2506388981">
		<tag k="bridge" v="yes" />
		<tag k="layer" v="1" />
		<tag k="name" v="Tyljum" />
		<tag k="ssr:stedsnr" v="531675" />
	</node>
	<node id="-313470" lat="60.6030777767" lon="11.3088805626">
		<tag k="bridge" v="yes" />
		<tag k="layer" v="1" />
		<tag k="name" v="Nykjua" />
		<tag k="ssr:stedsnr" v="531665" />
	</node>
	<node id="-311935" lat="60.5167611097" lon="11.5103138952">
		<tag k="bridge" v="yes" />
		<tag k="layer" v="1" />
		<tag k="name" v="Mattisdammen" />
		<tag k="ssr:stedsnr" v="470598" />
	</node>
	<node id="-311934" lat="60.7520722214" lon="11.2618000078">
		<tag k="bridge" v="yes" />
		<tag k="layer" v="1" />
		<tag k="name" v="Kirkebrua" />
		<tag k="ssr:stedsnr" v="470592" />
	</node>
	<node id="-311914" lat="60.6470638934" lon="11.2504527728">
		<tag k="junction" v="yes" />
		<tag k="name" v="Karusellen" />
		<tag k="place" v="locality" />
		<tag k="ssr:stedsnr" v="301471" />
	</node>
	<node id="-311783" lat="60.5769138902" lon="11.2710249947">
		<tag k="bridge" v="yes" />
		<tag k="layer" v="1" />
		<tag k="name" v="Nilsberg" />
		<tag k="ssr:stedsnr" v="167662" />
	</node>
	<node id="-313186" lat="60.6294444416" lon="11.2380555641">
		<tag k="junction" v="yes" />
		<tag k="name" v="Akselstua" />
		<tag k="place" v="locality" />
		<tag k="ssr:stedsnr" v="206119" />
	</node>
	<node id="-313953" lat="60.5005388911" lon="11.2386611053">
		<tag k="bridge" v="yes" />
		<tag k="layer" v="1" />
		<tag k="name" v="Solheim" />
		<tag k="ssr:stedsnr" v="956678" />
	</node>
	<node id="-313952" lat="60.7478166682" lon="11.3004944517">
		<tag k="bridge" v="yes" />
		<tag k="layer" v="1" />
		<tag k="name" v="Blekkjedammen bru" />
		<tag k="ssr:stedsnr" v="956663" />
	</node>
	<node id="-312848" lat="60.6387527788" lon="11.4121888916">
		<tag k="bridge" v="yes" />
		<tag k="layer" v="1" />
		<tag k="name" v="Sundåa bru" />
		<tag k="ssr:stedsnr" v="46693" />
	</node>
	<node id="-313694" lat="60.7743416695" lon="11.2440027829">
		<tag k="bridge" v="yes" />
		<tag k="layer" v="1" />
		<tag k="name" v="Løkenkvern" />
		<tag k="ssr:stedsnr" v="652604" />
	</node>
	<node id="-311645" lat="60.7119361141" lon="11.2897972285">
		<tag k="junction" v="yes" />
		<tag k="name" v="Korsbakken" />
		<tag k="place" v="locality" />
		<tag k="ssr:stedsnr" v="239505" />
	</node>
	<node id="-313593" lat="60.7865194454" lon="11.1282444411">
		<tag k="bridge" v="yes" />
		<tag k="layer" v="1" />
		<tag k="name" v="Kåterud" />
		<tag k="ssr:stedsnr" v="591574" />
	</node>
	<node id="-312334" lat="60.5917000009" lon="11.2092944415">
		<tag k="fixme" v="verify maritime location" />
		<tag k="mooring" v="yes" />
		<tag k="name" v="Båtstøa" />
		<tag k="place" v="locality" />
		<tag k="ssr:stedsnr" v="604370" />
	</node>
	<node id="-312912" lat="60.5417583352" lon="11.272750009">
		<tag k="ford" v="yes" />
		<tag k="name" v="Prestvadet" />
>>>>>>> e1d4bc35ff8a6074a6f2e91616a996b547c36f15
		<tag k="place" v="locality" />
		<tag k="ssr:stedsnr" v="241359" />
	</node>
	<node lat="60.71193611409479" lon="11.289797228486277" id="-19664">
		<tag k="junction" v="yes" />
		<tag k="name" v="Korsbakken" />
		<tag k="place" v="locality" />
		<tag k="ssr:stedsnr" v="239505" />
	</node>
<<<<<<< HEAD
	<node lat="60.75207222139602" lon="11.261800007764428" id="-19793">
		<tag k="bridge" v="yes" />
		<tag k="layer" v="1" />
		<tag k="name" v="Kirkebrua" />
		<tag k="ssr:stedsnr" v="470592" />
	</node>
	<node lat="60.51676110972777" lon="11.51031389518578" id="-19794">
		<tag k="bridge" v="yes" />
		<tag k="layer" v="1" />
		<tag k="name" v="Mattisdammen" />
		<tag k="ssr:stedsnr" v="470598" />
	</node>
	<node lat="60.751852775382574" lon="11.301847229364597" id="-19795">
=======
	<node id="-312525" lat="60.5798861069" lon="11.2750472297">
		<tag k="bridge" v="yes" />
		<tag k="layer" v="1" />
		<tag k="name" v="Labben bru" />
		<tag k="ssr:stedsnr" v="895565" />
	</node>
	<node id="-313954" lat="60.6986611117" lon="11.2759305628">
		<tag k="bridge" v="yes" />
		<tag k="layer" v="1" />
		<tag k="name" v="Slåttmyra" />
		<tag k="ssr:stedsnr" v="956679" />
	</node>
	<node id="-312649" lat="60.6159777773" lon="11.269619441">
		<tag k="name" v="Tangen stasjon" />
		<tag k="railway" v="station" />
		<tag k="ssr:stedsnr" v="856457" />
		<tag k="train" v="yes" />
	</node>
	<node id="-312648" lat="60.7189861119" lon="11.1825638861">
		<tag k="amenity" v="parking" />
		<tag k="name" v="Søster Anna Hauges plass" />
		<tag k="ssr:stedsnr" v="943652" />
	</node>
	<node id="-313281" lat="60.5758444402" lon="11.5069333396">
		<tag k="bridge" v="yes" />
		<tag k="layer" v="1" />
		<tag k="name" v="Tømmerrenna" />
		<tag k="ssr:stedsnr" v="349683" />
	</node>
	<node id="-313280" lat="60.7573472232" lon="11.3048861078">
>>>>>>> e1d4bc35ff8a6074a6f2e91616a996b547c36f15
		<tag k="bridge" v="yes" />
		<tag k="layer" v="1" />
		<tag k="name" v="Brynjordsveen bru" />
		<tag k="ssr:stedsnr" v="470604" />
	</node>
<<<<<<< HEAD
	<node lat="60.71293889165867" lon="11.291227783702743" id="-19812">
=======
	<node id="-313279" lat="60.7129388917" lon="11.2912277837">
>>>>>>> e1d4bc35ff8a6074a6f2e91616a996b547c36f15
		<tag k="bridge" v="yes" />
		<tag k="layer" v="1" />
		<tag k="name" v="Moen bru" />
		<tag k="ssr:stedsnr" v="349659" />
	</node>
<<<<<<< HEAD
	<node lat="60.7573472232348" lon="11.304886107819353" id="-19813">
		<tag k="bridge" v="yes" />
		<tag k="layer" v="1" />
		<tag k="name" v="Brynsåsen bru" />
		<tag k="ssr:stedsnr" v="349665" />
	</node>
	<node lat="60.581872221436484" lon="11.271877780613462" id="-19885">
=======
	<node id="-313398" lat="60.5874194465" lon="11.2628916753">
		<tag k="name" v="Sjektdalen" />
		<tag k="place" v="locality" />
		<tag k="ssr:stedsnr" v="423468" />
	</node>
	<node id="-311860" lat="60.5950555549" lon="11.2068611136">
		<tag k="name" v="Gammelvangen" />
		<tag k="place" v="locality" />
		<tag k="ssr:stedsnr" v="241359" />
	</node>
	<node id="-311729" lat="60.5340694488" lon="11.4827333291">
		<tag k="name" v="Stenbekkvelta" />
		<tag k="place" v="locality" />
		<tag k="ssr:stedsnr" v="99124" />
	</node>
	<node id="-312392" lat="60.6437444482" lon="11.4391361068">
		<tag k="junction" v="yes" />
		<tag k="name" v="Slettholen" />
		<tag k="place" v="locality" />
		<tag k="ssr:stedsnr" v="726902" />
	</node>
	<node id="-312107" lat="60.7643638899" lon="11.1552916601">
		<tag k="junction" v="yes" />
		<tag k="name" v="Holakrysset" />
		<tag k="place" v="locality" />
		<tag k="ssr:stedsnr" v="665292" />
	</node>
	<node id="-311591" lat="60.7369194442" lon="11.2994166586">
>>>>>>> e1d4bc35ff8a6074a6f2e91616a996b547c36f15
		<tag k="bridge" v="yes" />
		<tag k="layer" v="1" />
		<tag k="name" v="Espa bru" />
		<tag k="ssr:stedsnr" v="410608" />
	</node>
<<<<<<< HEAD
	<node lat="60.53114722064992" lon="11.243188897489567" id="-19886">
		<tag k="bridge" v="yes" />
		<tag k="layer" v="1" />
		<tag k="name" v="Melstrøm" />
		<tag k="ssr:stedsnr" v="410614" />
	</node>
	<node lat="60.512233334799284" lon="11.243741668927425" id="-19887">
=======
	<node id="-313380" lat="60.7240083299" lon="11.4116972148">
		<tag k="bridge" v="yes" />
		<tag k="layer" v="1" />
		<tag k="name" v="Jordbrua" />
		<tag k="ssr:stedsnr" v="421385" />
	</node>
	<node id="-312218" lat="60.5508472245" lon="11.247233331">
		<tag k="bridge" v="yes" />
		<tag k="layer" v="1" />
		<tag k="name" v="Kleverud bru" />
		<tag k="ssr:stedsnr" v="531635" />
	</node>
	<node id="-312219" lat="60.5034222223" lon="11.2983611088">
		<tag k="bridge" v="yes" />
		<tag k="layer" v="1" />
		<tag k="name" v="Hølbekken" />
		<tag k="ssr:stedsnr" v="531636" />
	</node>
	<node id="-312224" lat="60.5296777794" lon="11.4718555482">
		<tag k="name" v="Møkkadalsvelta" />
		<tag k="place" v="locality" />
		<tag k="ssr:stedsnr" v="540606" />
	</node>
	<node id="-312220" lat="60.6912305536" lon="11.2779111052">
>>>>>>> e1d4bc35ff8a6074a6f2e91616a996b547c36f15
		<tag k="bridge" v="yes" />
		<tag k="layer" v="1" />
		<tag k="name" v="Kolostuen bru" />
		<tag k="ssr:stedsnr" v="531643" />
	</node>
<<<<<<< HEAD
	<node lat="60.55486944783082" lon="11.250638898113447" id="-20049">
		<tag k="bridge" v="yes" />
		<tag k="layer" v="1" />
		<tag k="name" v="Tyljum" />
		<tag k="ssr:stedsnr" v="531675" />
	</node>
	<node lat="60.529677779363574" lon="11.4718555481562" id="-20052">
		<tag k="name" v="Møkkadalsvelta" />
=======
	<node id="-313371" lat="60.5311472206" lon="11.2431888975">
		<tag k="bridge" v="yes" />
		<tag k="layer" v="1" />
		<tag k="name" v="Melstrøm" />
		<tag k="ssr:stedsnr" v="410614" />
	</node>
	<node id="-313370" lat="60.5818722214" lon="11.2718777806">
		<tag k="bridge" v="yes" />
		<tag k="layer" v="1" />
		<tag k="name" v="Espa bru" />
		<tag k="ssr:stedsnr" v="410608" />
	</node>
	<node id="-312216" lat="60.7555694401" lon="11.1329805541">
		<tag k="highway" v="path" />
		<tag k="name" v="Ottestadstien" />
		<tag k="ssr:stedsnr" v="527238" />
	</node>
	<node id="-314000" lat="60.7371532945" lon="11.2915037189">
		<tag k="junction" v="yes" />
		<tag k="name" v="Mågårdskrysset" />
>>>>>>> e1d4bc35ff8a6074a6f2e91616a996b547c36f15
		<tag k="place" v="locality" />
		<tag k="ssr:stedsnr" v="540606" />
	</node>
<<<<<<< HEAD
	<node lat="60.78651944537091" lon="11.12824444106445" id="-20113">
=======
	<node id="-312847" lat="60.6646416693" lon="11.3502361159">
>>>>>>> e1d4bc35ff8a6074a6f2e91616a996b547c36f15
		<tag k="bridge" v="yes" />
		<tag k="layer" v="1" />
		<tag k="name" v="Kåterud" />
		<tag k="ssr:stedsnr" v="591574" />
	</node>
<<<<<<< HEAD
	<node lat="60.76436388992187" lon="11.15529166006776" id="-20213">
		<tag k="junction" v="yes" />
		<tag k="name" v="Holakrysset" />
		<tag k="place" v="locality" />
		<tag k="ssr:stedsnr" v="665292" />
	</node>
	<node lat="60.579886106912504" lon="11.275047229732932" id="-20269">
=======
	<node id="-313486" lat="60.7703333346" lon="11.1637222212">
		<tag k="junction" v="yes" />
		<tag k="name" v="Basterudkrysset" />
		<tag k="place" v="locality" />
		<tag k="ssr:stedsnr" v="544260" />
	</node>
	<node id="-311752" lat="60.7234305559" lon="11.2308722163">
		<tag k="alt_name" v="Uthuskrysset" />
		<tag k="junction" v="yes" />
		<tag k="name" v="Uthus" />
		<tag k="place" v="locality" />
		<tag k="ssr:stedsnr" v="128710" />
	</node>
	<node id="-313994" lat="60.7180375589" lon="11.1945596768">
		<tag k="name" v="Stange stasjon" />
		<tag k="railway" v="station" />
		<tag k="ssr:stedsnr" v="990089" />
		<tag k="train" v="yes" />
	</node>
	<node id="-313993" lat="60.7469123215" lon="11.1400002173">
		<tag k="name" v="Ottestad stasjon" />
		<tag k="railway" v="station" />
		<tag k="ssr:stedsnr" v="989982" />
		<tag k="train" v="yes" />
	</node>
	<node id="-312328" lat="60.772266667" lon="11.3087166646">
>>>>>>> e1d4bc35ff8a6074a6f2e91616a996b547c36f15
		<tag k="bridge" v="yes" />
		<tag k="layer" v="1" />
		<tag k="name" v="Labben bru" />
		<tag k="ssr:stedsnr" v="895565" />
	</node>
<<<<<<< HEAD
	<node lat="60.702566667195256" lon="11.271811119945708" id="-20291">
=======
	<node id="-312327" lat="60.7025666672" lon="11.2718111199">
>>>>>>> e1d4bc35ff8a6074a6f2e91616a996b547c36f15
		<tag k="bridge" v="yes" />
		<tag k="layer" v="1" />
		<tag k="name" v="Kolomoen bru" />
		<tag k="ssr:stedsnr" v="713626" />
	</node>
<<<<<<< HEAD
	<node lat="60.77311944008741" lon="11.221338888048063" id="-20354">
=======
	<node id="-313734" lat="60.7731194401" lon="11.221338888">
>>>>>>> e1d4bc35ff8a6074a6f2e91616a996b547c36f15
		<tag k="bridge" v="yes" />
		<tag k="layer" v="1" />
		<tag k="name" v="Horne" />
		<tag k="ssr:stedsnr" v="774652" />
	</node>
<<<<<<< HEAD
	<node lat="60.73691944417746" lon="11.299416658615797" id="-20436">
		<tag k="bridge" v="yes" />
		<tag k="layer" v="1" />
		<tag k="name" v="Morønningen bru" />
		<tag k="ssr:stedsnr" v="228686" />
	</node>
	<node lat="60.74781666818079" lon="11.300494451694146" id="-20576">
		<tag k="bridge" v="yes" />
		<tag k="layer" v="1" />
		<tag k="name" v="Blekkjedammen bru" />
		<tag k="ssr:stedsnr" v="956663" />
	</node>
	<node lat="60.66464166925189" lon="11.350236115926462" id="-20675">
		<tag k="bridge" v="yes" />
		<tag k="layer" v="1" />
		<tag k="name" v="Foss bru" />
		<tag k="ssr:stedsnr" v="46665" />
	</node>
	<node lat="60.53406944875518" lon="11.482733329129895" id="-20731">
		<tag k="name" v="Stenbekkvelta" />
		<tag k="place" v="locality" />
		<tag k="ssr:stedsnr" v="99124" />
	</node>
	<node lat="60.72343055594572" lon="11.23087221625565" id="-20824">
		<tag k="alt_name" v="Uthuskrysset" />
		<tag k="junction" v="yes" />
		<tag k="name" v="Uthus" />
		<tag k="place" v="locality" />
		<tag k="ssr:stedsnr" v="128710" />
	</node>
	<node lat="60.61001666737776" lon="11.525591665041892" id="-20874">
		<tag k="ford" v="yes" />
		<tag k="name" v="Busvolsætervadet" />
		<tag k="place" v="locality" />
		<tag k="ssr:stedsnr" v="164295" />
	</node>
	<node lat="60.57691389018263" lon="11.271024994693608" id="-20875">
		<tag k="bridge" v="yes" />
		<tag k="layer" v="1" />
		<tag k="name" v="Nilsberg" />
		<tag k="ssr:stedsnr" v="167662" />
	</node>
	<node lat="60.629444441590216" lon="11.238055564133678" id="-20934">
		<tag k="junction" v="yes" />
		<tag k="name" v="Akselstua" />
		<tag k="place" v="locality" />
		<tag k="ssr:stedsnr" v="206119" />
	</node>
	<node lat="60.51199722309802" lon="11.244058336528076" id="-20998">
=======
	<node id="-311873" lat="60.5119972231" lon="11.2440583365">
>>>>>>> e1d4bc35ff8a6074a6f2e91616a996b547c36f15
		<tag k="bridge" v="yes" />
		<tag k="layer" v="1" />
		<tag k="name" v="Postbekken" />
		<tag k="ssr:stedsnr" v="288575" />
<<<<<<< HEAD
	</node>
	<node lat="60.5417583352478" lon="11.272750008965351" id="-21006">
		<tag k="ford" v="yes" />
		<tag k="name" v="Prestvadet" />
		<tag k="place" v="locality" />
		<tag k="ssr:stedsnr" v="300341" />
	</node>
	<node lat="60.64706389335794" lon="11.250452772759271" id="-21019">
		<tag k="junction" v="yes" />
		<tag k="name" v="Karusellen" />
		<tag k="place" v="locality" />
		<tag k="ssr:stedsnr" v="301471" />
	</node>
	<node lat="60.575844440214034" lon="11.506933339590462" id="-21083">
		<tag k="bridge" v="yes" />
		<tag k="layer" v="1" />
		<tag k="name" v="Tømmerrenna" />
		<tag k="ssr:stedsnr" v="349683" />
	</node>
	<node lat="60.72400832990304" lon="11.411697214757622" id="-21179">
		<tag k="bridge" v="yes" />
		<tag k="layer" v="1" />
		<tag k="name" v="Jordbrua" />
		<tag k="ssr:stedsnr" v="421385" />
	</node>
	<node lat="60.58741944653584" lon="11.262891675341152" id="-21189">
		<tag k="name" v="Sjektdalen" />
		<tag k="place" v="locality" />
		<tag k="ssr:stedsnr" v="423468" />
	</node>
	<node lat="60.75556944008121" lon="11.132980554094024" id="-21252">
		<tag k="highway" v="path" />
		<tag k="name" v="Ottestadstien" />
		<tag k="ssr:stedsnr" v="527238" />
	</node>
	<node lat="60.550847224549464" lon="11.247233330972362" id="-21267">
		<tag k="bridge" v="yes" />
		<tag k="layer" v="1" />
		<tag k="name" v="Kleverud bru" />
		<tag k="ssr:stedsnr" v="531635" />
	</node>
	<node lat="60.50342222226398" lon="11.298361108849447" id="-21268">
		<tag k="bridge" v="yes" />
		<tag k="layer" v="1" />
		<tag k="name" v="Hølbekken" />
		<tag k="ssr:stedsnr" v="531636" />
	</node>
	<node lat="60.691230553640544" lon="11.277911105156235" id="-21269">
		<tag k="bridge" v="yes" />
		<tag k="layer" v="1" />
		<tag k="name" v="Kolostuen bru" />
		<tag k="ssr:stedsnr" v="531643" />
	</node>
	<node lat="60.60307777672336" lon="11.308880562649577" id="-21270">
		<tag k="bridge" v="yes" />
		<tag k="layer" v="1" />
		<tag k="name" v="Nykjua" />
		<tag k="ssr:stedsnr" v="531665" />
	</node>
	<node lat="60.77033333464265" lon="11.16372222124999" id="-21282">
		<tag k="junction" v="yes" />
		<tag k="name" v="Basterudkrysset" />
		<tag k="place" v="locality" />
		<tag k="ssr:stedsnr" v="544260" />
=======
	</node>
	<node id="-313860" lat="60.654213886" lon="11.3905638949">
		<tag k="bridge" v="yes" />
		<tag k="layer" v="1" />
		<tag k="name" v="Støadammen" />
		<tag k="ssr:stedsnr" v="835675" />
	</node>
	<node id="-313372" lat="60.5122333348" lon="11.2437416689">
		<tag k="bridge" v="yes" />
		<tag k="layer" v="1" />
		<tag k="name" v="Postbekken" />
		<tag k="ssr:stedsnr" v="410633" />
	</node>
	<node id="-313089" lat="60.6100166674" lon="11.525591665">
		<tag k="ford" v="yes" />
		<tag k="name" v="Busvolsætervadet" />
		<tag k="place" v="locality" />
		<tag k="ssr:stedsnr" v="164295" />
>>>>>>> e1d4bc35ff8a6074a6f2e91616a996b547c36f15
	</node>
</osm>
