<?xml version="1.0" encoding="UTF-8"?>
<osm generator="osmapis" version="0.6">
	<node id="-464383" lat="60.3039388856" lon="6.19958888231">
		<tag k="alt_name" v="Samlafjorden, ytre;Ytre Samlen" />
		<tag k="bay" v="fjord" />
		<tag k="name" v="Ytre Samlafjorden" />
		<tag k="natural" v="bay" />
		<tag k="ssr:stedsnr" v="309971" />
	</node>
	<node id="-466430" lat="60.4264249989" lon="6.22836666979">
		<tag k="name" v="Nolten" />
		<tag k="natural" v="cape" />
		<tag k="ssr:stedsnr" v="772419" />
	</node>
	<node id="-466427" lat="60.1340888849" lon="5.90335833747">
		<tag k="name" v="Mørkevåg" />
		<tag k="natural" v="bay" />
		<tag k="ssr:stedsnr" v="772303" />
	</node>
	<node id="-465911" lat="60.1303611155" lon="5.90429999922">
		<tag k="name" v="Ytrevågen" />
		<tag k="natural" v="bay" />
		<tag k="ssr:stedsnr" v="570061" />
	</node>
	<node id="-464374" lat="60.2568666666" lon="6.06338333793">
		<tag k="name" v="Vetleholmen" />
		<tag k="place" v="islet" />
		<tag k="ssr:stedsnr" v="309804" />
	</node>
	<node id="-464297" lat="60.391794443" lon="6.2979888854">
		<tag k="name" v="Vardanes" />
		<tag k="natural" v="cape" />
		<tag k="ssr:stedsnr" v="308136" />
	</node>
	<node id="-465396" lat="60.1546944427" lon="5.91201388879">
		<tag k="name" v="Mundheimsvika" />
		<tag k="natural" v="bay" />
		<tag k="ssr:stedsnr" v="226917" />
	</node>
	<node id="-464367" lat="60.2555166634" lon="6.06692500851">
		<tag k="name" v="Lingaholmen" />
		<tag k="place" v="islet" />
		<tag k="ssr:stedsnr" v="309749" />
	</node>
	<node id="-466414" lat="60.4175833355" lon="6.40207777326">
		<tag k="name" v="Teisteberget" />
		<tag k="natural" v="cape" />
		<tag k="ssr:stedsnr" v="772101" />
	</node>
	<node id="-464877" lat="60.3310250016" lon="6.21876110424">
		<tag k="name" v="Bruravika" />
		<tag k="natural" v="bay" />
		<tag k="ssr:stedsnr" v="44054" />
	</node>
	<node id="-465897" lat="60.2600398244" lon="6.01622599358">
		<tag k="name" v="Tangaråsvågen" />
		<tag k="natural" v="bay" />
		<tag k="ssr:stedsnr" v="551812" />
	</node>
	<node id="-464868" lat="60.2249916625" lon="5.99041388875">
		<tag k="name" v="Storeklubben" />
		<tag k="natural" v="cape" />
		<tag k="ssr:stedsnr" v="43664" />
	</node>
	<node id="-464863" lat="60.1964961331" lon="5.96718904373">
		<tag k="alt_name" v="Store Dysvikholmen" />
		<tag k="name" v="Storeholmen" />
		<tag k="place" v="islet" />
		<tag k="ssr:stedsnr" v="43364" />
	</node>
	<node id="-465884" lat="60.3625638899" lon="6.17509443541">
		<tag k="name" v="Vallandsholmane" />
		<tag k="place" v="islet" />
		<tag k="ssr:stedsnr" v="551619" />
	</node>
	<node id="-465881" lat="60.3571888914" lon="6.19311666439">
		<tag k="bay" v="fjord" />
		<tag k="name" v="Samlafjorden" />
		<tag k="natural" v="bay" />
		<tag k="ssr:stedsnr" v="551571" />
	</node>
	<node id="-465368" lat="60.4141138897" lon="6.39526389783">
		<tag k="name" v="Kålnes" />
		<tag k="natural" v="cape" />
		<tag k="ssr:stedsnr" v="226463" />
	</node>
	<node id="-464855" lat="60.2620111134" lon="6.05464166237">
		<tag k="name" v="Langanes" />
		<tag k="natural" v="cape" />
		<tag k="ssr:stedsnr" v="32413" />
	</node>
	<node id="-465877" lat="60.3411194432" lon="6.21554166844">
		<tag k="alt_name" v="Landholmenes" />
		<tag k="name" v="Landholmaneset" />
		<tag k="natural" v="cape" />
		<tag k="ssr:stedsnr" v="551529" />
	</node>
	<node id="-466386" lat="60.3003083316" lon="6.17156666312">
		<tag k="alt_name" v="Skutevik" />
		<tag k="name" v="Skuteviki" />
		<tag k="natural" v="bay" />
		<tag k="ssr:stedsnr" v="734934" />
	</node>
	<node id="-466383" lat="60.2683777743" lon="6.04129722744">
		<tag k="name" v="Sutarvika" />
		<tag k="natural" v="bay" />
		<tag k="ssr:stedsnr" v="734818" />
	</node>
	<node id="-464333" lat="60.2386638889" lon="6.0046194453">
		<tag k="name" v="Småholmane" />
		<tag k="place" v="islet" />
		<tag k="ssr:stedsnr" v="308716" />
	</node>
	<node id="-464841" lat="60.1301861134" lon="5.90521667159">
		<tag k="name" v="Storflua" />
		<tag k="natural" v="shoal" />
		<tag k="place" v="locality" />
		<tag k="ssr:stedsnr" v="24047" />
	</node>
	<node id="-465861" lat="60.420911113" lon="6.40513611179">
		<tag k="fixme" v="consider seamark:type=rock or natural=shoal" />
		<tag k="name" v="Ranaskjer" />
		<tag k="place" v="islet" />
		<tag k="ssr:stedsnr" v="551155" />
	</node>
	<node id="-466371" lat="60.4352805585" lon="6.46597221635">
		<tag k="name" v="Seianes" />
		<tag k="natural" v="cape" />
		<tag k="ssr:stedsnr" v="734245" />
	</node>
	<node id="-465346" lat="60.3488194405" lon="6.18092221869">
		<tag k="name" v="Vågen" />
		<tag k="natural" v="bay" />
		<tag k="ssr:stedsnr" v="226033" />
	</node>
	<node id="-464832" lat="60.3091816474" lon="6.16948460472">
		<tag k="alt_name" v="Banketunnevik" />
		<tag k="name" v="Banketunnevika" />
		<tag k="natural" v="bay" />
		<tag k="ssr:stedsnr" v="5954" />
	</node>
	<node id="-464829" lat="60.3031851703" lon="6.17483886459">
		<tag k="alt_name" v="Fagervik" />
		<tag k="name" v="Fogervik" />
		<tag k="natural" v="bay" />
		<tag k="ssr:stedsnr" v="5894" />
	</node>
	<node id="-465311" lat="60.3100722206" lon="6.16722777212">
		<tag k="alt_name" v="Stekkavik" />
		<tag k="name" v="Stekkavika" />
		<tag k="natural" v="bay" />
		<tag k="ssr:stedsnr" v="187953" />
	</node>
	<node id="-465848" lat="60.2736010323" lon="6.03056993181">
		<tag k="name" v="Fossvågen" />
		<tag k="natural" v="bay" />
		<tag k="ssr:stedsnr" v="530654" />
	</node>
	<node id="-465847" lat="60.2529888886" lon="6.12838333667">
		<tag k="name" v="Kamsteinevika" />
		<tag k="natural" v="bay" />
		<tag k="ssr:stedsnr" v="530635" />
	</node>
	<node id="-464816" lat="60.2655583299" lon="6.01690278699">
		<tag k="alt_name" v="Laksnes" />
		<tag k="name" v="Laksneset" />
		<tag k="natural" v="cape" />
		<tag k="ssr:stedsnr" v="5773" />
	</node>
	<node id="-465327" lat="60.2163305574" lon="5.97523888801">
		<tag k="name" v="Gjerdavika" />
		<tag k="natural" v="bay" />
		<tag k="ssr:stedsnr" v="206115" />
	</node>
	<node id="-464813" lat="60.2575222245" lon="6.01790555682">
		<tag k="alt_name" v="Tangeråsnes" />
		<tag k="name" v="Tangaråsneset" />
		<tag k="natural" v="cape" />
		<tag k="ssr:stedsnr" v="5765" />
	</node>
	<node id="-466858" lat="60.2624027757" lon="6.17783610976">
		<tag k="name" v="Jevlevik" />
		<tag k="natural" v="bay" />
		<tag k="ssr:stedsnr" v="954915" />
	</node>
	<node id="-464809" lat="60.2440583311" lon="6.00937221587">
		<tag k="name" v="Børsheimholmen" />
		<tag k="place" v="islet" />
		<tag k="ssr:stedsnr" v="5731" />
	</node>
	<node id="-465564" lat="60.2694142361" lon="6.02057927742">
		<tag k="name" v="Bergsneset" />
		<tag k="natural" v="cape" />
		<tag k="ssr:stedsnr" v="430803" />
	</node>
	<node id="-464292" lat="60.2722278852" lon="6.02246945713">
		<tag k="name" v="Klubbavika" />
		<tag k="natural" v="bay" />
		<tag k="ssr:stedsnr" v="44652" />
	</node>
	<node id="-465827" lat="60.2271555529" lon="5.99527222271">
		<tag k="name" v="Breievnsneset" />
		<tag k="natural" v="cape" />
		<tag k="ssr:stedsnr" v="529668" />
	</node>
	<node id="-466849" lat="60.24408611" lon="6.14456388889">
		<tag k="name" v="Asalvika" />
		<tag k="natural" v="bay" />
		<tag k="ssr:stedsnr" v="954610" />
	</node>
	<node id="-466335" lat="60.198302781" lon="5.96614166916">
		<tag k="alt_name" v="Dysvikeneset;Dysvikneset" />
		<tag k="name" v="Dysvikaneset" />
		<tag k="natural" v="cape" />
		<tag k="ssr:stedsnr" v="733467" />
	</node>
	<node id="-465310" lat="60.312776441" lon="6.17003322191">
		<tag k="name" v="Fureholmen" />
		<tag k="place" v="islet" />
		<tag k="ssr:stedsnr" v="187951" />
	</node>
	<node id="-465818" lat="60.174447219" lon="5.95302777983">
		<tag k="name" v="Asalvika" />
		<tag k="natural" v="bay" />
		<tag k="ssr:stedsnr" v="529379" />
	</node>
	<node id="-465300" lat="60.2518249979" lon="6.12034722529">
		<tag k="name" v="Hjartneskvalen" />
		<tag k="natural" v="cape" />
		<tag k="ssr:stedsnr" v="187731" />
	</node>
	<node id="-464835" lat="60.3289000035" lon="6.2164749961">
		<tag k="name" v="Krossnes" />
		<tag k="natural" v="cape" />
		<tag k="ssr:stedsnr" v="6634" />
	</node>
	<node id="-464271" lat="60.252516664" lon="6.08766388571">
		<tag k="name" v="Lingavikane" />
		<tag k="natural" v="bay" />
		<tag k="ssr:stedsnr" v="287632" />
	</node>
	<node id="-466817" lat="60.3674611116" lon="6.18625555441">
		<tag k="name" v="Kråkeskolten" />
		<tag k="natural" v="cape" />
		<tag k="ssr:stedsnr" v="954017" />
	</node>
	<node id="-464767" lat="60.3724750035" lon="6.2466805478">
		<tag k="alt_name" v="Buanes" />
		<tag k="name" v="Buaneset" />
		<tag k="natural" v="cape" />
		<tag k="ssr:stedsnr" v="5163" />
	</node>
	<node id="-464252" lat="60.4202638892" lon="6.23956944378">
		<tag k="name" v="Klyvenes" />
		<tag k="natural" v="cape" />
		<tag k="ssr:stedsnr" v="287433" />
	</node>
	<node id="-465787" lat="60.372041665" lon="6.26759166729">
		<tag k="name" v="Øyakalven" />
		<tag k="place" v="island" />
		<tag k="ssr:stedsnr" v="529024" />
	</node>
	<node id="-465215" lat="60.4325361074" lon="6.45219166348">
		<tag k="alt_name" v="Grasviki" />
		<tag k="name" v="Grasvika" />
		<tag k="natural" v="bay" />
		<tag k="ssr:stedsnr" v="165457" />
	</node>
	<node id="-466289" lat="60.253400002" lon="6.10035000579">
		<tag k="name" v="Urevik" />
		<tag k="natural" v="bay" />
		<tag k="ssr:stedsnr" v="712578" />
	</node>
	<node id="-465773" lat="60.2309833324" lon="6.00610276951">
		<tag k="name" v="Skjerdingen" />
		<tag k="natural" v="cape" />
		<tag k="ssr:stedsnr" v="510109" />
	</node>
	<node id="-465772" lat="60.2475861071" lon="6.00876110605">
		<tag k="name" v="Eikeneset" />
		<tag k="natural" v="cape" />
		<tag k="ssr:stedsnr" v="510071" />
	</node>
	<node id="-466792" lat="60.2968194471" lon="6.17401944119">
		<tag k="alt_name" v="Drageholmen" />
		<tag k="name" v="Dragsholmen" />
		<tag k="place" v="islet" />
		<tag k="ssr:stedsnr" v="916942" />
	</node>
	<node id="-465765" lat="60.3056634114" lon="6.17328153321">
		<tag k="name" v="Ytsta Hetlevik" />
		<tag k="natural" v="bay" />
		<tag k="ssr:stedsnr" v="491912" />
	</node>
	<node id="-466788" lat="60.2855999974" lon="6.17654444702">
		<tag k="name" v="Eidesvågen" />
		<tag k="natural" v="bay" />
		<tag k="ssr:stedsnr" v="916871" />
	</node>
	<node id="-466275" lat="60.4207750025" lon="6.23053610694">
		<tag k="alt_name" v="Kjikkenes" />
		<tag k="name" v="Kikeneset" />
		<tag k="natural" v="cape" />
		<tag k="ssr:stedsnr" v="712381" />
	</node>
	<node id="-465762" lat="60.2728972206" lon="6.1854388882">
		<tag k="alt_name" v="Hårjona" />
		<tag k="name" v="Hardingholo" />
		<tag k="natural" v="bay" />
		<tag k="ssr:stedsnr" v="491819" />
	</node>
	<node id="-464225" lat="60.1577833371" lon="5.9491388796">
		<tag k="name" v="Kråkeneset" />
		<tag k="natural" v="cape" />
		<tag k="ssr:stedsnr" v="286386" />
	</node>
	<node id="-465758" lat="60.2626750018" lon="6.17707778543">
		<tag k="name" v="Djevlevika" />
		<tag k="natural" v="bay" />
		<tag k="ssr:stedsnr" v="491794" />
	</node>
	<node id="-466268" lat="60.3350083356" lon="6.22098055457">
		<tag k="fixme" v="consider seamark:type=rock or natural=shoal" />
		<tag k="name" v="Toskjer" />
		<tag k="place" v="islet" />
		<tag k="ssr:stedsnr" v="712067" />
	</node>
	<node id="-465754" lat="60.2529192276" lon="6.08195861651">
		<tag k="alt_name" v="Linganes" />
		<tag k="name" v="Linganeset" />
		<tag k="natural" v="cape" />
		<tag k="ssr:stedsnr" v="491743" />
	</node>
	<node id="-464216" lat="60.3660750013" lon="6.17904722425">
		<tag k="name" v="Vedanes" />
		<tag k="natural" v="cape" />
		<tag k="ssr:stedsnr" v="286023" />
	</node>
	<node id="-464356" lat="60.4320777769" lon="6.4509499993">
		<tag k="alt_name" v="Kvitaneset" />
		<tag k="name" v="Kvitanes" />
		<tag k="natural" v="cape" />
		<tag k="ssr:stedsnr" v="309253" />
	</node>
	<node id="-466262" lat="60.2298999967" lon="6.00048610998">
		<tag k="name" v="Badnafjera" />
		<tag k="natural" v="beach" />
		<tag k="place" v="locality" />
		<tag k="ssr:stedsnr" v="711667" />
	</node>
	<node id="-465747" lat="60.3611638869" lon="6.16070833158">
		<tag k="alt_name" v="Laksastineset" />
		<tag k="name" v="Laksastigneset" />
		<tag k="natural" v="cape" />
		<tag k="ssr:stedsnr" v="491630" />
	</node>
	<node id="-465225" lat="60.3438833306" lon="6.21699444389">
		<tag k="name" v="Aksnesholmane" />
		<tag k="place" v="islet" />
		<tag k="ssr:stedsnr" v="165629" />
	</node>
	<node id="-465224" lat="60.2567277758" lon="6.14174167236">
		<tag k="name" v="Skjeljavika" />
		<tag k="natural" v="bay" />
		<tag k="ssr:stedsnr" v="165621" />
	</node>
	<node id="-465223" lat="60.2543749978" lon="6.13901665922">
		<tag k="alt_name" v="Kvitaneset" />
		<tag k="name" v="Kvitanes" />
		<tag k="natural" v="cape" />
		<tag k="ssr:stedsnr" v="165620" />
	</node>
	<node id="-465731" lat="60.24678333" lon="6.13942499413">
		<tag k="alt_name" v="Salbuvika" />
		<tag k="name" v="Saltbuvika" />
		<tag k="natural" v="bay" />
		<tag k="ssr:stedsnr" v="490755" />
	</node>
	<node id="-466239" lat="60.19574444" lon="5.96341944261">
		<tag k="name" v="Vikane" />
		<tag k="natural" v="bay" />
		<tag k="ssr:stedsnr" v="710400" />
	</node>
	<node id="-464701" lat="60.4241583364" lon="6.22870556084">
		<tag k="name" v="Djupevik" />
		<tag k="natural" v="bay" />
		<tag k="ssr:stedsnr" v="894452" />
	</node>
	<node id="-466740" lat="60.3470000033" lon="6.20718888252">
		<tag k="name" v="Langaneset" />
		<tag k="natural" v="cape" />
		<tag k="ssr:stedsnr" v="915531" />
	</node>
	<node id="-466739" lat="60.3462305527" lon="6.20859722638">
		<tag k="name" v="Kyraneset" />
		<tag k="natural" v="cape" />
		<tag k="ssr:stedsnr" v="915529" />
	</node>
	<node id="-465714" lat="60.3802720412" lon="6.20472769183">
		<tag k="alt_name" v="Lundanes" />
		<tag k="name" v="Lundaneset" />
		<tag k="natural" v="cape" />
		<tag k="ssr:stedsnr" v="490670" />
	</node>
	<node id="-466222" lat="60.2595083352" lon="6.03555555679">
		<tag k="name" v="Strandebarmsbukta" />
		<tag k="natural" v="bay" />
		<tag k="ssr:stedsnr" v="673809" />
	</node>
	<node id="-465194" lat="60.3800249967" lon="6.2746666738">
		<tag k="name" v="Rykkjeneset" />
		<tag k="natural" v="cape" />
		<tag k="ssr:stedsnr" v="165102" />
	</node>
	<node id="-465704" lat="60.2128555596" lon="5.96495556213">
		<tag k="alt_name" v="Saltvik" />
		<tag k="name" v="Saltvika" />
		<tag k="natural" v="bay" />
		<tag k="ssr:stedsnr" v="490514" />
	</node>
	<node id="-465189" lat="60.4692250031" lon="6.21641665976">
		<tag k="name" v="Kalvaneset" />
		<tag k="natural" v="cape" />
		<tag k="ssr:stedsnr" v="165004" />
	</node>
	<node id="-465188" lat="60.3668472197" lon="6.19100000371">
		<tag k="name" v="Nesodden" />
		<tag k="natural" v="cape" />
		<tag k="ssr:stedsnr" v="164936" />
	</node>
	<node id="-465187" lat="60.361244447" lon="6.18139722059">
		<tag k="name" v="Vallandsgrunnen" />
		<tag k="natural" v="shoal" />
		<tag k="place" v="locality" />
		<tag k="ssr:stedsnr" v="164914" />
	</node>
	<node id="-466721" lat="60.4331599032" lon="6.23365322035">
		<tag k="alt_name" v="Vikaneset" />
		<tag k="name" v="Vikanes" />
		<tag k="natural" v="cape" />
		<tag k="ssr:stedsnr" v="915212" />
	</node>
	<node id="-465184" lat="60.2048722256" lon="5.96766388888">
		<tag k="name" v="Årsnes" />
		<tag k="natural" v="cape" />
		<tag k="ssr:stedsnr" v="164727" />
	</node>
	<node id="-466207" lat="60.3702305511" lon="6.20402500049">
		<tag k="name" v="Børveneset" />
		<tag k="natural" v="cape" />
		<tag k="ssr:stedsnr" v="673653" />
	</node>
	<node id="-465691" lat="60.3322666664" lon="6.22131667246">
		<tag k="name" v="Aksneset" />
		<tag k="natural" v="cape" />
		<tag k="ssr:stedsnr" v="490034" />
	</node>
	<node id="-464666" lat="60.4534555582" lon="6.22837221376">
		<tag k="name" v="Bjørnsteinen" />
		<tag k="natural" v="cape" />
		<tag k="ssr:stedsnr" v="894076" />
	</node>
	<node id="-466713" lat="60.2263194471" lon="5.99090833518">
		<tag k="name" v="Vetleklubben" />
		<tag k="natural" v="cape" />
		<tag k="ssr:stedsnr" v="881678" />
	</node>
	<node id="-465176" lat="60.3656111128" lon="6.17636112">
		<tag k="name" v="Udnesvika" />
		<tag k="natural" v="bay" />
		<tag k="ssr:stedsnr" v="153769" />
	</node>
	<node id="-465173" lat="60.4441638854" lon="6.49198610741">
		<tag k="name" v="Vetlanes" />
		<tag k="natural" v="cape" />
		<tag k="ssr:stedsnr" v="153363" />
	</node>
	<node id="-464660" lat="60.1249694484" lon="5.91753333617">
		<tag k="bay" v="fjord" />
		<tag k="name" v="Øynefjorden" />
		<tag k="natural" v="bay" />
		<tag k="ssr:stedsnr" v="893904" />
	</node>
	<node id="-465615" lat="60.3709611117" lon="6.25223056043">
		<tag k="name" v="Hattastruten" />
		<tag k="natural" v="cape" />
		<tag k="ssr:stedsnr" v="469119" />
	</node>
	<node id="-466191" lat="60.4141138869" lon="6.39628055626">
		<tag k="name" v="Kolneset" />
		<tag k="natural" v="cape" />
		<tag k="ssr:stedsnr" v="673145" />
	</node>
	<node id="-466190" lat="60.4087611124" lon="6.35262777338">
		<tag k="name" v="Djupevik" />
		<tag k="natural" v="bay" />
		<tag k="old_name" v="Djupeviki" />
		<tag k="ssr:stedsnr" v="673140" />
	</node>
	<node id="-466189" lat="60.3678194484" lon="6.27637222385">
		<tag k="alt_name" v="Vetlavikjæ" />
		<tag k="name" v="Vetlaviki" />
		<tag k="natural" v="bay" />
		<tag k="ssr:stedsnr" v="673111" />
	</node>
	<node id="-464652" lat="60.1960666625" lon="5.96624166077">
		<tag k="name" v="Dysvikholmen" />
		<tag k="place" v="islet" />
		<tag k="ssr:stedsnr" v="893365" />
	</node>
	<node id="-465163" lat="60.2970305539" lon="6.17295277558">
		<tag k="name" v="Dregavika" />
		<tag k="natural" v="bay" />
		<tag k="ssr:stedsnr" v="127940" />
	</node>
	<node id="-464648" lat="60.3504554603" lon="6.18541470164">
		<tag k="alt_name" v="Friarskjeret" />
		<tag k="fixme" v="consider seamark:type=rock or natural=shoal" />
		<tag k="name" v="Friarskjer" />
		<tag k="place" v="islet" />
		<tag k="ssr:stedsnr" v="893026" />
	</node>
	<node id="-466691" lat="60.2607361074" lon="6.17525277948">
		<tag k="name" v="Høgebjørgodden" />
		<tag k="natural" v="cape" />
		<tag k="ssr:stedsnr" v="855829" />
	</node>
	<node id="-464642" lat="60.2431527765" lon="6.00641943684">
		<tag k="name" v="Børsheimsundet" />
		<tag k="natural" v="strait" />
		<tag k="ssr:stedsnr" v="882202" />
	</node>
	<node id="-464939" lat="60.3827416712" lon="6.27859166953">
		<tag k="name" v="Bjelkaneset" />
		<tag k="natural" v="cape" />
		<tag k="ssr:stedsnr" v="66164" />
	</node>
	<node id="-466389" lat="60.430422225" lon="6.23142222376">
		<tag k="name" v="Røyrnes" />
		<tag k="natural" v="cape" />
		<tag k="ssr:stedsnr" v="759333" />
	</node>
	<node id="-466170" lat="60.2149444445" lon="5.97553055959">
		<tag k="name" v="Gjerdaneset" />
		<tag k="natural" v="cape" />
		<tag k="ssr:stedsnr" v="672488" />
	</node>
	<node id="-465620" lat="60.230688893" lon="6.00671110484">
		<tag k="name" v="Skjering" />
		<tag k="natural" v="cape" />
		<tag k="ssr:stedsnr" v="468653" />
	</node>
	<node id="-465128" lat="60.2487444452" lon="6.02436111096">
		<tag k="alt_name" v="Svanholm" />
		<tag k="name" v="Svanholmane" />
		<tag k="place" v="islet" />
		<tag k="ssr:stedsnr" v="126711" />
	</node>
	<node id="-464615" lat="60.2471027793" lon="6.15471111515">
		<tag k="name" v="Tangen" />
		<tag k="natural" v="cape" />
		<tag k="ssr:stedsnr" v="408626" />
	</node>
	<node id="-466649" lat="60.4295861081" lon="6.43133889667">
		<tag k="alt_name" v="Hamnaneset" />
		<tag k="name" v="Havnaneset" />
		<tag k="natural" v="cape" />
		<tag k="ssr:stedsnr" v="855233" />
	</node>
	<node id="-466647" lat="60.4345749994" lon="6.45966111956">
		<tag k="name" v="Bersestrondi" />
		<tag k="natural" v="beach" />
		<tag k="place" v="locality" />
		<tag k="ssr:stedsnr" v="855227" />
	</node>
	<node id="-466134" lat="60.2526111077" lon="6.01079167235">
		<tag k="name" v="Risanes" />
		<tag k="natural" v="cape" />
		<tag k="ssr:stedsnr" v="651758" />
	</node>
	<node id="-466645" lat="60.3927666668" lon="6.27636110828">
		<tag k="name" v="Rossholmen" />
		<tag k="place" v="islet" />
		<tag k="ssr:stedsnr" v="855174" />
	</node>
	<node id="-466644" lat="60.3992499983" lon="6.33599444898">
		<tag k="name" v="Skeianes" />
		<tag k="natural" v="cape" />
		<tag k="ssr:stedsnr" v="855167" />
	</node>
	<node id="-466642" lat="60.3655349967" lon="6.27762211184">
		<tag k="name" v="Kvamsøy" />
		<tag k="place" v="island" />
		<tag k="ssr:stedsnr" v="855067" />
	</node>
	<node id="-465616" lat="60.3709972238" lon="6.25794444628">
		<tag k="name" v="Storasundet" />
		<tag k="natural" v="strait" />
		<tag k="ssr:stedsnr" v="469118" />
	</node>
	<node id="-466639" lat="60.1517916673" lon="5.94487499634">
		<tag k="alt_name" v="Bondesundet" />
		<tag k="name" v="Bondesund" />
		<tag k="natural" v="strait" />
		<tag k="ssr:stedsnr" v="854603" />
	</node>
	<node id="-465328" lat="60.1640083293" lon="5.9137916621">
		<tag k="name" v="Årsnes" />
		<tag k="natural" v="cape" />
		<tag k="ssr:stedsnr" v="206030" />
	</node>
	<node id="-465609" lat="60.3675611089" lon="6.19258610533">
		<tag k="name" v="Nesvika" />
		<tag k="natural" v="bay" />
		<tag k="ssr:stedsnr" v="468018" />
	</node>
	<node id="-466117" lat="60.3963805578" lon="6.31292777291">
		<tag k="alt_name" v="Olderflaten" />
		<tag k="name" v="Orreflåten" />
		<tag k="natural" v="cape" />
		<tag k="ssr:stedsnr" v="651449" />
	</node>
	<node id="-466623" lat="60.2636583351" lon="6.01502500225">
		<tag k="name" v="Leirvika" />
		<tag k="natural" v="bay" />
		<tag k="ssr:stedsnr" v="833660" />
	</node>
	<node id="-466620" lat="60.253111108" lon="6.10314721692">
		<tag k="fixme" v="consider seamark:type=rock or natural=shoal" />
		<tag k="name" v="Ugletveitskjeret" />
		<tag k="place" v="islet" />
		<tag k="ssr:stedsnr" v="833616" />
	</node>
	<node id="-465951" lat="60.3753277819" lon="6.25711665932">
		<tag k="name" v="Vomsvik" />
		<tag k="natural" v="bay" />
		<tag k="ssr:stedsnr" v="590119" />
	</node>
	<node id="-466612" lat="60.4457305598" lon="6.49456666125">
		<tag k="name" v="Uravika" />
		<tag k="natural" v="bay" />
		<tag k="ssr:stedsnr" v="833485" />
	</node>
	<node id="-466097" lat="60.2621055529" lon="6.17691111295">
		<tag k="name" v="Djevlevikneset" />
		<tag k="natural" v="cape" />
		<tag k="ssr:stedsnr" v="650616" />
	</node>
	<node id="-464559" lat="60.1660805535" lon="5.92399999465">
		<tag k="alt_name" v="Furevik" />
		<tag k="name" v="Furevika" />
		<tag k="natural" v="bay" />
		<tag k="ssr:stedsnr" v="388002" />
	</node>
	<node id="-466091" lat="60.3665972222" lon="6.18306945118">
		<tag k="name" v="Skiparvika" />
		<tag k="natural" v="bay" />
		<tag k="ssr:stedsnr" v="650290" />
	</node>
	<node id="-466086" lat="60.3698277822" lon="6.26440834005">
		<tag k="name" v="Øyakalvsundet" />
		<tag k="natural" v="strait" />
		<tag k="ssr:stedsnr" v="650022" />
	</node>
	<node id="-465061" lat="60.2459555529" lon="6.14070278482">
		<tag k="name" v="Flatetangen" />
		<tag k="natural" v="cape" />
		<tag k="ssr:stedsnr" v="105633" />
	</node>
	<node id="-465059" lat="60.259141667" lon="6.0679972179">
		<tag k="name" v="Nesjane" />
		<tag k="natural" v="cape" />
		<tag k="ssr:stedsnr" v="105617" />
	</node>
	<node id="-464667" lat="60.406027777" lon="6.26077777268">
		<tag k="name" v="Brunnen" />
		<tag k="place" v="locality" />
		<tag k="ssr:stedsnr" v="894097" />
	</node>
	<node id="-466590" lat="60.4530166705" lon="6.21749165933">
		<tag k="fixme" v="consider seamark:type=rock or natural=shoal" />
		<tag k="loc_name" v="Kobbaskjer" />
		<tag k="name" v="Kobbaskjær" />
		<tag k="place" v="islet" />
		<tag k="ssr:stedsnr" v="833109" />
	</node>
	<node id="-466589" lat="60.3828222251" lon="6.22841389579">
		<tag k="name" v="Laupsafjøro" />
		<tag k="natural" v="bay" />
		<tag k="ssr:stedsnr" v="833101" />
	</node>
	<node id="-466588" lat="60.3821694409" lon="6.22257778354">
		<tag k="name" v="Laupsanes" />
		<tag k="natural" v="cape" />
		<tag k="ssr:stedsnr" v="833096" />
	</node>
	<node id="-464539" lat="60.2426388867" lon="6.15223888719">
		<tag k="alt_name" v="Vikingnes;Vikingneset" />
		<tag k="name" v="Vikingenes" />
		<tag k="natural" v="cape" />
		<tag k="ssr:stedsnr" v="369728" />
	</node>
	<node id="-464540" lat="60.2563277801" lon="6.14246111658">
		<tag k="name" v="Naustneset" />
		<tag k="natural" v="cape" />
		<tag k="ssr:stedsnr" v="369730" />
	</node>
	<node id="-464298" lat="60.3914805562" lon="6.29309165864">
		<tag k="name" v="Nanes" />
		<tag k="natural" v="cape" />
		<tag k="ssr:stedsnr" v="308157" />
	</node>
	<node id="-466065" lat="60.153366664" lon="5.92439722689">
		<tag k="name" v="Hansvågen" />
		<tag k="natural" v="bay" />
		<tag k="ssr:stedsnr" v="631001" />
	</node>
	<node id="-464664" lat="60.331952779" lon="6.21898888336">
		<tag k="name" v="Nesjaklumpen" />
		<tag k="natural" v="cape" />
		<tag k="ssr:stedsnr" v="894059" />
	</node>
	<node id="-465035" lat="60.3662833356" lon="6.1618666664">
		<tag k="name" v="Krægdeneset" />
		<tag k="natural" v="cape" />
		<tag k="ssr:stedsnr" v="105154" />
	</node>
	<node id="-464522" lat="60.3547846672" lon="6.17924923282">
		<tag k="fixme" v="consider seamark:type=rock or natural=shoal" />
		<tag k="name" v="Blybergskjeret" />
		<tag k="place" v="islet" />
		<tag k="ssr:stedsnr" v="369525" />
	</node>
	<node id="-466568" lat="60.2868722254" lon="6.18454722356">
		<tag k="name" v="Korsvikane" />
		<tag k="natural" v="bay" />
		<tag k="ssr:stedsnr" v="820732" />
	</node>
	<node id="-466564" lat="60.1406202748" lon="5.90254790851">
		<tag k="name" v="Bjånes" />
		<tag k="natural" v="cape" />
		<tag k="ssr:stedsnr" v="814306" />
	</node>
	<node id="-466049" lat="60.2574777797" lon="6.14141666535">
		<tag k="name" v="Ljonesvågen" />
		<tag k="natural" v="bay" />
		<tag k="ssr:stedsnr" v="612750" />
	</node>
	<node id="-465535" lat="60.218438893" lon="5.9835638894">
		<tag k="name" v="Omaholmen" />
		<tag k="place" v="islet" />
		<tag k="ssr:stedsnr" v="430499" />
	</node>
	<node id="-465020" lat="60.4116138881" lon="6.25243610323">
		<tag k="name" v="Kassen" />
		<tag k="natural" v="cape" />
		<tag k="ssr:stedsnr" v="104790" />
	</node>
	<node id="-465019" lat="60.2012194466" lon="5.9631222225">
		<tag k="name" v="Dysvika" />
		<tag k="natural" v="bay" />
		<tag k="ssr:stedsnr" v="104696" />
	</node>
	<node id="-465014" lat="60.3635027766" lon="6.27638054871">
		<tag k="name" v="Lyseknoppen" />
		<tag k="natural" v="cape" />
		<tag k="ssr:stedsnr" v="104034" />
	</node>
	<node id="-466173" lat="60.3512668345" lon="6.18210869287">
		<tag k="alt_name" v="Holmen" />
		<tag k="name" v="Framnes" />
		<tag k="natural" v="cape" />
		<tag k="ssr:stedsnr" v="672545" />
	</node>
	<node id="-464494" lat="60.1566666671" lon="5.95013610807">
		<tag k="alt_name" v="Kråkaflua" />
		<tag k="name" v="Kråkeflua" />
		<tag k="natural" v="shoal" />
		<tag k="place" v="locality" />
		<tag k="ssr:stedsnr" v="368650" />
	</node>
	<node id="-464493" lat="60.1707611102" lon="5.95310278086">
		<tag k="name" v="Flatesvikholmen" />
		<tag k="place" v="islet" />
		<tag k="ssr:stedsnr" v="368611" />
	</node>
	<node id="-464433" lat="60.1696944473" lon="5.95193333198">
		<tag k="name" v="Flatesvik" />
		<tag k="natural" v="bay" />
		<tag k="ssr:stedsnr" v="347387" />
	</node>
	<node id="-464489" lat="60.3074134153" lon="6.1725821848">
		<tag k="name" v="Insta Hetlevik" />
		<tag k="natural" v="bay" />
		<tag k="ssr:stedsnr" v="369957" />
	</node>
	<node id="-466536" lat="60.2586527822" lon="6.06206944942">
		<tag k="alt_name" v="Larsholmen" />
		<tag k="name" v="Larsaholmen" />
		<tag k="place" v="islet" />
		<tag k="ssr:stedsnr" v="794789" />
	</node>
	<node id="-464572" lat="60.1651166658" lon="5.92089722861">
		<tag k="name" v="Nesvika" />
		<tag k="natural" v="bay" />
		<tag k="ssr:stedsnr" v="407355" />
	</node>
	<node id="-464825" lat="60.2950388897" lon="6.17541388118">
		<tag k="name" v="Augastadholmen" />
		<tag k="place" v="islet" />
		<tag k="ssr:stedsnr" v="5860" />
	</node>
	<node id="-465509" lat="60.4306083316" lon="6.22586111334">
		<tag k="alt_name" v="Mjåsundet" />
		<tag k="name" v="Mjåsund" />
		<tag k="natural" v="strait" />
		<tag k="ssr:stedsnr" v="430221" />
	</node>
	<node id="-464996" lat="60.319727776" lon="6.17593610311">
		<tag k="name" v="Saltkjelen" />
		<tag k="natural" v="bay" />
		<tag k="ssr:stedsnr" v="67628" />
	</node>
	<node id="-466018" lat="60.1427111074" lon="5.90189166697">
		<tag k="alt_name" v="Sagvik" />
		<tag k="name" v="Sagvika" />
		<tag k="natural" v="bay" />
		<tag k="ssr:stedsnr" v="611635" />
	</node>
	<node id="-466529" lat="60.2577194405" lon="6.16302223048">
		<tag k="name" v="Gjelet" />
		<tag k="natural" v="bay" />
		<tag k="ssr:stedsnr" v="794762" />
	</node>
	<node id="-464988" lat="60.2899361122" lon="6.18009443764">
		<tag k="name" v="Kalvhageneset" />
		<tag k="natural" v="cape" />
		<tag k="ssr:stedsnr" v="66871" />
	</node>
	<node id="-465499" lat="60.16051389" lon="5.95180000273">
		<tag k="name" v="Nernesholmen" />
		<tag k="place" v="islet" />
		<tag k="ssr:stedsnr" v="429537" />
	</node>
	<node id="-465252" lat="60.3684388895" lon="6.26189999938">
		<tag k="alt_name" v="Øyakalven" />
		<tag k="fixme" v="multiple name tags, choose one and add the other to alt_name" />
		<tag k="name" v="Tjuvaholmen;Øykalven" />
		<tag k="place" v="islet" />
		<tag k="ssr:stedsnr" v="187073" />
	</node>
	<node id="-465494" lat="60.1346055562" lon="5.90117778329">
		<tag k="name" v="Eikeneset" />
		<tag k="natural" v="cape" />
		<tag k="ssr:stedsnr" v="430619" />
	</node>
	<node id="-466005" lat="60.4623638925" lon="6.21571110672">
		<tag k="bay" v="fjord" />
		<tag k="name" v="Fyksesund" />
		<tag k="natural" v="bay" />
		<tag k="ssr:stedsnr" v="611401" />
	</node>
	<node id="-465166" lat="60.2554305578" lon="6.14053889762">
		<tag k="name" v="Raudaneset" />
		<tag k="natural" v="cape" />
		<tag k="ssr:stedsnr" v="152312" />
	</node>
	<node id="-465251" lat="60.1483833314" lon="5.90092499777">
		<tag k="alt_name" v="Hellersvika" />
		<tag k="name" v="Hillersvika" />
		<tag k="natural" v="bay" />
		<tag k="ssr:stedsnr" v="186626" />
	</node>
	<node id="-465487" lat="60.138194449" lon="5.90071667429">
		<tag k="name" v="Brytesneset" />
		<tag k="natural" v="cape" />
		<tag k="ssr:stedsnr" v="267014" />
	</node>
	<node id="-466701" lat="60.2983361149" lon="6.172441665">
		<tag k="name" v="Ståvika" />
		<tag k="natural" v="bay" />
		<tag k="ssr:stedsnr" v="855945" />
	</node>
	<node id="-464460" lat="60.2546861131" lon="6.01421944389">
		<tag k="alt_name" v="Kjelsvika" />
		<tag k="name" v="Kjelsvik" />
		<tag k="natural" v="bay" />
		<tag k="ssr:stedsnr" v="347742" />
	</node>
	<node id="-466359" lat="60.257261108" lon="6.06886111665">
		<tag k="alt_name" v="Lingasund" />
		<tag k="name" v="Lingasundet" />
		<tag k="natural" v="strait" />
		<tag k="ssr:stedsnr" v="733775" />
	</node>
	<node id="-464454" lat="60.2221999979" lon="5.98360556453">
		<tag k="name" v="Kalhageneset" />
		<tag k="natural" v="cape" />
		<tag k="ssr:stedsnr" v="347673" />
	</node>
	<node id="-464651" lat="60.1893388895" lon="5.95891389201">
		<tag k="name" v="Eikenes" />
		<tag k="natural" v="cape" />
		<tag k="ssr:stedsnr" v="893364" />
	</node>
	<node id="-464955" lat="60.1982499981" lon="5.97010000862">
		<tag k="name" v="Vesleholmen" />
		<tag k="place" v="islet" />
		<tag k="ssr:stedsnr" v="66483" />
	</node>
	<node id="-465971" lat="60.4612361089" lon="6.22179444252">
		<tag k="name" v="Holeneset" />
		<tag k="natural" v="cape" />
		<tag k="ssr:stedsnr" v="590396" />
	</node>
	<node id="-466481" lat="60.4433083312" lon="6.48972499567">
		<tag k="name" v="Naustviki" />
		<tag k="natural" v="bay" />
		<tag k="ssr:stedsnr" v="794216" />
	</node>
	<node id="-465456" lat="60.150402778" lon="5.92488888482">
		<tag k="name" v="Langaneset" />
		<tag k="natural" v="cape" />
		<tag k="ssr:stedsnr" v="248641" />
	</node>
	<node id="-466475" lat="60.4121805525" lon="6.38793610358">
		<tag k="alt_name" v="Tveitaneset" />
		<tag k="name" v="Tveitneset" />
		<tag k="natural" v="cape" />
		<tag k="ssr:stedsnr" v="794124" />
	</node>
	<node id="-466474" lat="60.3666583347" lon="6.28330832434">
		<tag k="alt_name" v="Evjo" />
		<tag k="name" v="Evja" />
		<tag k="natural" v="bay" />
		<tag k="ssr:stedsnr" v="794085" />
	</node>
	<node id="-466473" lat="60.1569305528" lon="5.92292500123">
		<tag k="name" v="Nisebergvågen" />
		<tag k="natural" v="bay" />
		<tag k="ssr:stedsnr" v="793620" />
	</node>
	<node id="-465448" lat="60.2634361148" lon="6.04735276911">
		<tag k="name" v="Otraneset" />
		<tag k="natural" v="cape" />
		<tag k="ssr:stedsnr" v="248586" />
	</node>
	<node id="-466609" lat="60.4302916643" lon="6.43840834217">
		<tag k="name" v="Kvalen" />
		<tag k="natural" v="cape" />
		<tag k="ssr:stedsnr" v="833462" />
	</node>
	<node id="-465444" lat="60.1960603728" lon="5.96664983642">
		<tag k="alt_name" v="Storeholmen" />
		<tag k="name" v="Dysvikeholmen" />
		<tag k="place" v="islet" />
		<tag k="ssr:stedsnr" v="248505" />
	</node>
	<node id="-465954" lat="60.3674944487" lon="6.15926943753">
		<tag k="name" v="Holmsundet" />
		<tag k="natural" v="strait" />
		<tag k="ssr:stedsnr" v="590162" />
	</node>
	<node id="-464927" lat="60.3157888893" lon="6.17276666126">
		<tag k="name" v="Austmannaholmen" />
		<tag k="natural" v="cape" />
		<tag k="ssr:stedsnr" v="66985" />
	</node>
	<node id="-464414" lat="60.4073388915" lon="6.25893889245">
		<tag k="name" v="Ørrevika" />
		<tag k="natural" v="bay" />
		<tag k="ssr:stedsnr" v="347081" />
	</node>
	<node id="-464412" lat="60.4273861155" lon="6.40541943784">
		<tag k="name" v="Selholm" />
		<tag k="natural" v="cape" />
		<tag k="ssr:stedsnr" v="347051" />
	</node>
	<node id="-466458" lat="60.3066030228" lon="6.17433939932">
		<tag k="name" v="Hetlevik" />
		<tag k="natural" v="bay" />
		<tag k="ssr:stedsnr" v="772901" />
	</node>
	<node id="-464404" lat="60.2492638925" lon="6.13738332674">
		<tag k="name" v="Klubbeneset" />
		<tag k="natural" v="cape" />
		<tag k="ssr:stedsnr" v="346673" />
	</node>
	<node id="-465155" lat="60.366827779" lon="6.15732778141">
		<tag k="alt_name" v="Sandveholmen;Sandvinholmen" />
		<tag k="name" v="Sandvenholmen" />
		<tag k="place" v="islet" />
		<tag k="ssr:stedsnr" v="127662" />
	</node>
	<node id="-465828" lat="60.2172333362" lon="5.98103333258">
		<tag k="name" v="Omasund" />
		<tag k="natural" v="strait" />
		<tag k="ssr:stedsnr" v="529689" />
	</node>
	<node id="-465934" lat="60.1862250038" lon="5.96058055031">
		<tag k="name" v="Knappen" />
		<tag k="natural" v="cape" />
		<tag k="ssr:stedsnr" v="589366" />
	</node>
	<node id="-465421" lat="60.4320055533" lon="6.44661388754">
		<tag k="name" v="Gråaneset" />
		<tag k="natural" v="cape" />
		<tag k="ssr:stedsnr" v="248224" />
	</node>
	<node id="-466444" lat="60.2542119383" lon="6.11070054357">
		<tag k="name" v="Røyrvikavika" />
		<tag k="natural" v="bay" />
		<tag k="ssr:stedsnr" v="772623" />
	</node>
	<node id="-464905" lat="60.2567499992" lon="6.07518334091">
		<tag k="name" v="Naustneset" />
		<tag k="place" v="islet" />
		<tag k="ssr:stedsnr" v="44724" />
	</node>
	<node id="-465416" lat="60.4496750032" lon="6.22099999813">
		<tag k="alt_name" v="Spjotnes" />
		<tag k="name" v="Spjotneset" />
		<tag k="natural" v="cape" />
		<tag k="ssr:stedsnr" v="248194" />
	</node>
	<node id="-465412" lat="60.3687888921" lon="6.27207778095">
		<tag k="alt_name" v="Storavikjæ" />
		<tag k="name" v="Storaviki" />
		<tag k="natural" v="bay" />
		<tag k="ssr:stedsnr" v="248087" />
	</node>
	<node id="-465411" lat="60.3680138899" lon="6.26790277662">
		<tag k="name" v="Øykalvsundet" />
		<tag k="natural" v="strait" />
		<tag k="ssr:stedsnr" v="248075" />
	</node>
	<node id="-464898" lat="60.4434333373" lon="6.48908610243">
		<tag k="name" v="Naustvika" />
		<tag k="natural" v="bay" />
		<tag k="ssr:stedsnr" v="44464" />
	</node>
</osm>
