<?xml version="1.0" encoding="UTF-8"?>
<osm generator="osmapis" version="0.6">
	<node id="-464895" lat="60.4140305517" lon="5.95373055274">
		<tag k="name" v="Flugeholmen" />
		<tag k="place" v="islet" />
		<tag k="ssr:stedsnr" v="44803" />
	</node>
	<node id="-464882" lat="60.3707916658" lon="6.10288611303">
		<tag k="name" v="Steinsdalsfossen" />
		<tag k="natural" v="waterfall" />
		<tag k="ssr:stedsnr" v="44190" />
	</node>
	<node id="-464873" lat="60.3929700601" lon="6.11065696981">
		<tag k="name" v="Forsetfossen" />
		<tag k="natural" v="waterfall" />
		<tag k="ssr:stedsnr" v="44304" />
	</node>
	<node id="-464871" lat="60.3568861103" lon="6.00074166395">
		<tag k="name" v="Krokavatnet" />
		<tag k="natural" v="water" />
		<tag k="ssr:stedsnr" v="43814" />
		<tag k="water" v="lake" />
	</node>
	<node id="-464549" lat="60.2706833354" lon="5.9911666624">
		<tag k="name" v="Svartelva" />
		<tag k="ssr:stedsnr" v="369866" />
		<tag k="waterway" v="stream" />
	</node>
	<node id="-464854" lat="60.2894222266" lon="6.07031666358">
		<tag k="name" v="Fannastølselva" />
		<tag k="ssr:stedsnr" v="32259" />
		<tag k="waterway" v="river" />
	</node>
	<node id="-464842" lat="60.1897876498" lon="5.91331610536">
		<tag k="name" v="Setratjørna" />
		<tag k="natural" v="water" />
		<tag k="ssr:stedsnr" v="25265" />
	</node>
	<node id="-466855" lat="60.3904861124" lon="5.95534722277">
		<tag k="name" v="Måvotsvatnet" />
		<tag k="natural" v="water" />
		<tag k="ssr:stedsnr" v="954855" />
		<tag k="water" v="lake" />
	</node>
	<node id="-466851" lat="60.2087722262" lon="5.95573611295">
		<tag k="name" v="Tresneselva" />
		<tag k="ssr:stedsnr" v="954677" />
		<tag k="waterway" v="river" />
	</node>
	<node id="-466846" lat="60.3081791869" lon="6.1604271678">
		<tag k="name" v="Tuftaholmen" />
		<tag k="place" v="islet" />
		<tag k="ssr:stedsnr" v="954575" />
	</node>
	<node id="-464795" lat="60.3420367397" lon="5.96976511075">
		<tag k="name" v="Svartatjørna" />
		<tag k="natural" v="water" />
		<tag k="ssr:stedsnr" v="5578" />
	</node>
	<node id="-466841" lat="60.4036944491" lon="6.15907500757">
		<tag k="name" v="Nystølelva" />
		<tag k="ssr:stedsnr" v="954493" />
		<tag k="waterway" v="river" />
	</node>
	<node id="-464792" lat="60.3471361099" lon="6.13634722561">
		<tag k="name" v="Lende" />
		<tag k="natural" v="strait" />
		<tag k="ssr:stedsnr" v="5565" />
	</node>
	<node id="-466835" lat="60.41780278" lon="6.36438611191">
		<tag k="name" v="Bjølvefossen" />
		<tag k="natural" v="waterfall" />
		<tag k="ssr:stedsnr" v="954306" />
	</node>
	<node id="-466834" lat="60.1149164439" lon="5.89681434706">
		<tag k="name" v="Gruvetjørna" />
		<tag k="natural" v="water" />
		<tag k="ssr:stedsnr" v="954297" />
	</node>
	<node id="-464784" lat="60.4214777739" lon="6.17454166956">
		<tag k="name" v="Krossnes" />
		<tag k="natural" v="cape" />
		<tag k="ssr:stedsnr" v="5468" />
	</node>
	<node id="-466831" lat="60.4150250009" lon="6.09122778329">
		<tag k="name" v="Gråursviki" />
		<tag k="natural" v="bay" />
		<tag k="ssr:stedsnr" v="954214" />
	</node>
	<node id="-464782" lat="60.4231846277" lon="6.03157177412">
		<tag k="name" v="Skolappstjørna" />
		<tag k="natural" v="water" />
		<tag k="ssr:stedsnr" v="5444" />
	</node>
	<node id="-464781" lat="60.43733513" lon="5.9672597117">
		<tag k="name" v="Kråketjørna" />
		<tag k="natural" v="water" />
		<tag k="ssr:stedsnr" v="5409" />
	</node>
	<node id="-466826" lat="60.4301055541" lon="6.16909444914">
		<tag k="name" v="Flyaelva" />
		<tag k="ssr:stedsnr" v="954125" />
		<tag k="waterway" v="river" />
	</node>
	<node id="-464776" lat="60.4676777812" lon="6.02259999167">
		<tag k="name" v="Søyelva" />
		<tag k="ssr:stedsnr" v="5335" />
		<tag k="waterway" v="stream" />
	</node>
	<node id="-464775" lat="60.4442666691" lon="6.34915832594">
		<tag k="name" v="Vetlavatnet" />
		<tag k="natural" v="water" />
		<tag k="ssr:stedsnr" v="5252" />
		<tag k="water" v="lake" />
	</node>
	<node id="-464769" lat="60.4445750029" lon="6.25118055738">
		<tag k="alt_name" v="Kastdalselva" />
		<tag k="name" v="Kastdalselvi" />
		<tag k="ssr:stedsnr" v="5197" />
		<tag k="waterway" v="river" />
	</node>
	<node id="-464768" lat="60.4063444433" lon="6.30160833802">
		<tag k="alt_name" v="Nyasettjørn" />
		<tag k="name" v="Nyasettjørni" />
		<tag k="natural" v="water" />
		<tag k="ssr:stedsnr" v="5192" />
	</node>
	<node id="-466815" lat="60.2627583365" lon="6.12529721639">
		<tag k="name" v="Øyjordsvatnet" />
		<tag k="natural" v="water" />
		<tag k="ssr:stedsnr" v="953928" />
		<tag k="water" v="lake" />
	</node>
	<node id="-464765" lat="60.4277837072" lon="5.93469206484">
		<tag k="name" v="Skeisskartjørna" />
		<tag k="natural" v="water" />
		<tag k="ssr:stedsnr" v="369367" />
	</node>
	<node id="-466800" lat="60.374900001" lon="6.04699166219">
		<tag k="name" v="Tokagjelsbekken" />
		<tag k="ssr:stedsnr" v="941391" />
		<tag k="waterway" v="stream" />
	</node>
	<node id="-466797" lat="60.5136333313" lon="6.06606943679">
		<tag k="alt_name" v="Viertjørni" />
		<tag k="name" v="Viertjørn" />
		<tag k="natural" v="water" />
		<tag k="ssr:stedsnr" v="917971" />
	</node>
	<node id="-466796" lat="60.4050222227" lon="6.00559167201">
		<tag k="name" v="Raudåna" />
		<tag k="ssr:stedsnr" v="917596" />
		<tag k="waterway" v="stream" />
	</node>
	<node id="-466795" lat="60.5231361113" lon="6.24590555636">
		<tag k="name" v="Smalastigtjørnane" />
		<tag k="natural" v="water" />
		<tag k="ssr:stedsnr" v="917590" />
	</node>
	<node id="-466786" lat="60.2766305597" lon="6.11163332781">
		<tag k="name" v="Gjuvaelva" />
		<tag k="ssr:stedsnr" v="916836" />
		<tag k="waterway" v="stream" />
	</node>
	<node id="-466784" lat="60.4716388846" lon="6.28483333212">
		<tag k="alt_name" v="Goddalsvatnet, midtre" />
		<tag k="name" v="Midtre Goddalsvatnet" />
		<tag k="natural" v="water" />
		<tag k="ssr:stedsnr" v="916797" />
		<tag k="water" v="lake" />
	</node>
	<node id="-466782" lat="60.5065888875" lon="6.12800000581">
		<tag k="alt_name" v="Svortevik" />
		<tag k="name" v="Svorteviki" />
		<tag k="natural" v="bay" />
		<tag k="ssr:stedsnr" v="916792" />
	</node>
	<node id="-464731" lat="60.3345777762" lon="6.10294166871">
		<tag k="name" v="Krokavatn" />
		<tag k="natural" v="water" />
		<tag k="ssr:stedsnr" v="894923" />
		<tag k="water" v="lake" />
	</node>
	<node id="-466776" lat="60.3564056466" lon="5.99200410135">
		<tag k="name" v="Krokavatnet" />
		<tag k="natural" v="water" />
		<tag k="ssr:stedsnr" v="916661" />
		<tag k="water" v="lake" />
	</node>
	<node id="-464726" lat="60.3829777741" lon="6.02754166772">
		<tag k="name" v="Skarbekken" />
		<tag k="ssr:stedsnr" v="894850" />
		<tag k="waterway" v="stream" />
	</node>
	<node id="-464725" lat="60.3714027785" lon="5.99075555401">
		<tag k="name" v="Løken" />
		<tag k="ssr:stedsnr" v="894848" />
		<tag k="waterway" v="river" />
	</node>
	<node id="-466772" lat="60.3515788411" lon="5.99801913966">
		<tag k="name" v="Skånavotna" />
		<tag k="natural" v="water" />
		<tag k="ssr:stedsnr" v="916628" />
		<tag k="water" v="lake" />
	</node>
	<node id="-466771" lat="60.3378888915" lon="6.13652499334">
		<tag k="name" v="Myrtjørnane" />
		<tag k="natural" v="water" />
		<tag k="ssr:stedsnr" v="916567" />
	</node>
	<node id="-466770" lat="60.3370333321" lon="6.16882500805">
		<tag k="name" v="Tjørnshaugtjørn" />
		<tag k="place" v="locality" />
		<tag k="ssr:stedsnr" v="916563" />
	</node>
	<node id="-466768" lat="60.4967694482" lon="6.03242500162">
		<tag k="name" v="Djupatjørna" />
		<tag k="natural" v="water" />
		<tag k="ssr:stedsnr" v="916343" />
	</node>
	<node id="-464718" lat="60.2675166631" lon="6.01382499816">
		<tag k="name" v="Bruosen" />
		<tag k="natural" v="bay" />
		<tag k="ssr:stedsnr" v="894682" />
	</node>
	<node id="-466761" lat="60.3020222584" lon="6.0046536711">
		<tag k="name" v="Svartatjørn" />
		<tag k="natural" v="water" />
		<tag k="ssr:stedsnr" v="915943" />
	</node>
	<node id="-466759" lat="60.2809138897" lon="6.03497221733">
		<tag k="name" v="Gjelelva" />
		<tag k="ssr:stedsnr" v="915891" />
		<tag k="waterway" v="stream" />
	</node>
	<node id="-466757" lat="60.2918972241" lon="6.15283610217">
		<tag k="name" v="Lyselva" />
		<tag k="ssr:stedsnr" v="915882" />
		<tag k="waterway" v="stream" />
	</node>
	<node id="-464708" lat="60.4400527788" lon="6.43700278616">
		<tag k="name" v="Dalaelva" />
		<tag k="ssr:stedsnr" v="894512" />
		<tag k="waterway" v="river" />
	</node>
	<node id="-466748" lat="60.3679143239" lon="6.01740054757">
		<tag k="name" v="Langvotnevatnet" />
		<tag k="natural" v="water" />
		<tag k="ssr:stedsnr" v="915638" />
		<tag k="water" v="lake" />
	</node>
	<node id="-466745" lat="60.3462138858" lon="6.03496943606">
		<tag k="name" v="Teigelva" />
		<tag k="ssr:stedsnr" v="915579" />
		<tag k="waterway" v="river" />
	</node>
	<node id="-464695" lat="60.1795527815" lon="5.89697777203">
		<tag k="name" v="Storelva" />
		<tag k="ssr:stedsnr" v="894381" />
		<tag k="waterway" v="river" />
	</node>
	<node id="-464693" lat="60.4813194484" lon="6.20618889391">
		<tag k="name" v="Flatabøelva" />
		<tag k="ssr:stedsnr" v="894301" />
		<tag k="waterway" v="river" />
	</node>
	<node id="-464692" lat="60.4798194426" lon="6.19995556063">
		<tag k="name" v="Flydlielva" />
		<tag k="ssr:stedsnr" v="894300" />
		<tag k="waterway" v="river" />
	</node>
	<node id="-464691" lat="60.5111055579" lon="6.11576388121">
		<tag k="alt_name" v="Hamlagrøvatn" />
		<tag k="name" v="Hamlagrøvatnet" />
		<tag k="natural" v="water" />
		<tag k="ssr:stedsnr" v="894290" />
		<tag k="water" v="lake" />
	</node>
	<node id="-466738" lat="60.4157166666" lon="5.94551944974">
		<tag k="name" v="Sandåna" />
		<tag k="ssr:stedsnr" v="915478" />
		<tag k="waterway" v="stream" />
	</node>
	<node id="-466737" lat="60.4198716116" lon="6.16825887057">
		<tag k="name" v="Fitjadalsvatnet" />
		<tag k="natural" v="water" />
		<tag k="ssr:stedsnr" v="915475" />
		<tag k="water" v="lake" />
	</node>
	<node id="-466733" lat="60.4230999959" lon="5.96594444073">
		<tag k="name" v="Raudåna" />
		<tag k="ssr:stedsnr" v="915438" />
		<tag k="waterway" v="stream" />
	</node>
	<node id="-466732" lat="60.4234805545" lon="5.95231389661">
		<tag k="name" v="Botnåna" />
		<tag k="ssr:stedsnr" v="915437" />
		<tag k="waterway" v="stream" />
	</node>
	<node id="-464683" lat="60.4707999969" lon="6.06404443801">
		<tag k="name" v="Tverrelvane" />
		<tag k="ssr:stedsnr" v="894261" />
		<tag k="waterway" v="river" />
	</node>
	<node id="-466730" lat="60.4263789976" lon="6.05303107619">
		<tag k="name" v="Svartavatnet" />
		<tag k="natural" v="water" />
		<tag k="ssr:stedsnr" v="915426" />
	</node>
	<node id="-466727" lat="60.4315346292" lon="6.05055431456">
		<tag k="name" v="Svartebekktjørna" />
		<tag k="natural" v="water" />
		<tag k="ssr:stedsnr" v="915390" />
	</node>
	<node id="-466726" lat="60.4350194486" lon="6.12293889466">
		<tag k="name" v="Eivindesetelva" />
		<tag k="ssr:stedsnr" v="915387" />
		<tag k="waterway" v="stream" />
	</node>
	<node id="-466724" lat="60.4436416625" lon="6.35791667401">
		<tag k="name" v="Dammen" />
		<tag k="ssr:stedsnr" v="915226" />
		<tag k="waterway" v="dam" />
	</node>
	<node id="-466723" lat="60.4505166637" lon="6.33548055072">
		<tag k="name" v="Bjørkeviki" />
		<tag k="natural" v="bay" />
		<tag k="ssr:stedsnr" v="915221" />
	</node>
	<node id="-464673" lat="60.3595166703" lon="6.11006666581">
		<tag k="name" v="Kvålselva" />
		<tag k="ssr:stedsnr" v="894155" />
		<tag k="waterway" v="river" />
	</node>
	<node id="-464672" lat="60.3598861072" lon="6.13614722923">
		<tag k="name" v="Sandvenelva" />
		<tag k="ssr:stedsnr" v="894154" />
		<tag k="waterway" v="river" />
	</node>
	<node id="-466717" lat="60.4549499985" lon="6.38765000466">
		<tag k="name" v="Neset" />
		<tag k="natural" v="cape" />
		<tag k="ssr:stedsnr" v="915181" />
	</node>
	<node id="-466716" lat="60.4595555602" lon="6.39831667148">
		<tag k="name" v="Synken" />
		<tag k="natural" v="bay" />
		<tag k="ssr:stedsnr" v="915179" />
	</node>
	<node id="-466710" lat="60.280661115" lon="6.05684444958">
		<tag k="name" v="Sandvika" />
		<tag k="natural" v="bay" />
		<tag k="ssr:stedsnr" v="881361" />
	</node>
	<node id="-466707" lat="60.5003946573" lon="6.03695752535">
		<tag k="name" v="Langtjørni" />
		<tag k="natural" v="water" />
		<tag k="ssr:stedsnr" v="856979" />
	</node>
	<node id="-466706" lat="60.5159138847" lon="6.05906389651">
		<tag k="name" v="Kjerringabekken" />
		<tag k="ssr:stedsnr" v="856977" />
		<tag k="waterway" v="stream" />
	</node>
	<node id="-464653" lat="60.1835666702" lon="5.95270556114">
		<tag k="name" v="Kolabekken" />
		<tag k="ssr:stedsnr" v="893368" />
		<tag k="waterway" v="stream" />
	</node>
	<node id="-466699" lat="60.2993725311" lon="6.02048737438">
		<tag k="name" v="Sneldevatnet" />
		<tag k="natural" v="water" />
		<tag k="ssr:stedsnr" v="855925" />
	</node>
	<node id="-466695" lat="60.2993999996" lon="6.15535555645">
		<tag k="name" v="Lyseneset" />
		<tag k="natural" v="cape" />
		<tag k="ssr:stedsnr" v="855913" />
	</node>
	<node id="-464646" lat="60.5109055598" lon="6.14436389365">
		<tag k="name" v="Naustvik" />
		<tag k="natural" v="bay" />
		<tag k="ssr:stedsnr" v="893012" />
	</node>
	<node id="-464644" lat="60.4127861115" lon="6.16269166557">
		<tag k="name" v="Lauvvikeneset" />
		<tag k="natural" v="cape" />
		<tag k="ssr:stedsnr" v="882334" />
	</node>
	<node id="-466690" lat="60.2597392815" lon="6.12197124927">
		<tag k="name" v="Tveitatjørna" />
		<tag k="natural" v="water" />
		<tag k="ssr:stedsnr" v="855820" />
	</node>
	<node id="-466687" lat="60.4756249978" lon="6.33251110685">
		<tag k="name" v="Kistefjellstjørnane" />
		<tag k="natural" v="water" />
		<tag k="ssr:stedsnr" v="855802" />
		<tag k="water" v="lake" />
	</node>
	<node id="-466685" lat="60.4978401968" lon="6.32828113446">
		<tag k="name" v="Kvitavatnet" />
		<tag k="natural" v="water" />
		<tag k="ssr:stedsnr" v="855779" />
	</node>
	<node id="-466681" lat="60.390416532" lon="6.0452114001">
		<tag k="name" v="Botnatjørn" />
		<tag k="natural" v="water" />
		<tag k="ssr:stedsnr" v="855730" />
	</node>
	<node id="-466680" lat="60.3888555537" lon="6.10610555428">
		<tag k="name" v="Alkleivselva" />
		<tag k="ssr:stedsnr" v="855723" />
		<tag k="waterway" v="stream" />
	</node>
	<node id="-466679" lat="60.3785722252" lon="6.06854443771">
		<tag k="name" v="Vetlademma" />
		<tag k="natural" v="water" />
		<tag k="ssr:stedsnr" v="855700" />
	</node>
	<node id="-466676" lat="60.3715388924" lon="6.05691110241">
		<tag k="name" v="Nyasetbekken" />
		<tag k="ssr:stedsnr" v="855674" />
		<tag k="waterway" v="stream" />
	</node>
	<node id="-464627" lat="60.401502776" lon="6.02080000292">
		<tag k="name" v="Daurmålsbekken" />
		<tag k="ssr:stedsnr" v="408849" />
		<tag k="waterway" v="stream" />
	</node>
	<node id="-464625" lat="60.4553972196" lon="6.00533055051">
		<tag k="name" v="Frostadvatnet" />
		<tag k="natural" v="water" />
		<tag k="ssr:stedsnr" v="408841" />
		<tag k="water" v="lake" />
	</node>
	<node id="-466665" lat="60.3294652608" lon="6.01101911301">
		<tag k="name" v="Heggvatnet" />
		<tag k="natural" v="water" />
		<tag k="ssr:stedsnr" v="855556" />
	</node>
	<node id="-466658" lat="60.4161669163" lon="5.9582071187">
		<tag k="alt_name" v="Skeis-Kvanndalsvatnet" />
		<tag k="name" v="Skeiskvanndalsvatnet" />
		<tag k="natural" v="water" />
		<tag k="ssr:stedsnr" v="855480" />
	</node>
	<node id="-466651" lat="60.4812861144" lon="6.19346389752">
		<tag k="name" v="Frytlielva" />
		<tag k="ssr:stedsnr" v="855330" />
		<tag k="waterway" v="stream" />
	</node>
	<node id="-464596" lat="60.1249472215" lon="5.8828638967">
		<tag k="name" v="Dalelva" />
		<tag k="ssr:stedsnr" v="408312" />
		<tag k="waterway" v="river" />
	</node>
	<node id="-464595" lat="60.4172615758" lon="6.27200303178">
		<tag k="name" v="Dagreidtjørn" />
		<tag k="natural" v="water" />
		<tag k="ssr:stedsnr" v="408286" />
	</node>
	<node id="-464594" lat="60.5185257485" lon="6.07786463517">
		<tag k="name" v="Kjerringaholmen" />
		<tag k="place" v="islet" />
		<tag k="ssr:stedsnr" v="408265" />
	</node>
	<node id="-466641" lat="60.241308337" lon="5.99205277441">
		<tag k="name" v="Børsheimselva" />
		<tag k="ssr:stedsnr" v="854728" />
		<tag k="waterway" v="stream" />
	</node>
	<node id="-464591" lat="60.4791277786" lon="6.05433055952">
		<tag k="name" v="Dyradalsvatnet" />
		<tag k="natural" v="water" />
		<tag k="ssr:stedsnr" v="408237" />
		<tag k="water" v="lake" />
	</node>
	<node id="-466638" lat="60.1313194408" lon="5.87135278701">
		<tag k="name" v="Veslahorgsvatnet" />
		<tag k="natural" v="water" />
		<tag k="ssr:stedsnr" v="854585" />
	</node>
	<node id="-464586" lat="60.3442194482" lon="6.16883055927">
		<tag k="name" v="Ondalselva" />
		<tag k="ssr:stedsnr" v="408043" />
		<tag k="waterway" v="river" />
	</node>
	<node id="-466629" lat="60.4930527745" lon="6.01535000538">
		<tag k="name" v="Holmen" />
		<tag k="place" v="islet" />
		<tag k="ssr:stedsnr" v="833818" />
	</node>
	<node id="-464580" lat="60.3343279958" lon="6.08986604895">
		<tag k="alt_name" v="Godalstjørnane" />
		<tag k="name" v="Goddalstjørnane" />
		<tag k="natural" v="water" />
		<tag k="ssr:stedsnr" v="407984" />
		<tag k="water" v="lake" />
	</node>
	<node id="-466619" lat="60.3099153377" lon="6.16083666369">
		<tag k="name" v="Bergsholmen" />
		<tag k="place" v="islet" />
		<tag k="ssr:stedsnr" v="833595" />
	</node>
	<node id="-464500" lat="60.4426974234" lon="6.3729978558">
		<tag k="name" v="Kaldakjelen" />
		<tag k="natural" v="water" />
		<tag k="ssr:stedsnr" v="369224" />
	</node>
	<node id="-464565" lat="60.4261249992" lon="6.15975834062">
		<tag k="name" v="Storelva" />
		<tag k="ssr:stedsnr" v="395723" />
		<tag k="waterway" v="river" />
	</node>
	<node id="-466608" lat="60.3398988632" lon="6.13601703554">
		<tag k="name" v="Mytjørn" />
		<tag k="natural" v="water" />
		<tag k="ssr:stedsnr" v="833459" />
	</node>
	<node id="-464558" lat="60.5050528507" lon="6.13386027992">
		<tag k="name" v="Lomatjørni" />
		<tag k="natural" v="water" />
		<tag k="ssr:stedsnr" v="370791" />
	</node>
	<node id="-466602" lat="60.4637472217" lon="6.22352500547">
		<tag k="alt_name" v="Skårelvi;Skåroelva" />
		<tag k="name" v="Skoroelva" />
		<tag k="ssr:stedsnr" v="833396" />
		<tag k="waterway" v="river" />
	</node>
	<node id="-464552" lat="60.2939893691" lon="6.09204018873">
		<tag k="name" v="Bottsvatnet" />
		<tag k="natural" v="water" />
		<tag k="ssr:stedsnr" v="369881" />
	</node>
	<node id="-466597" lat="60.3693416666" lon="6.06120277178">
		<tag k="name" v="Risbruelva" />
		<tag k="ssr:stedsnr" v="833304" />
		<tag k="waterway" v="river" />
	</node>
	<node id="-466595" lat="60.3442805577" lon="6.11904445176">
		<tag k="name" v="Krokavatn" />
		<tag k="natural" v="water" />
		<tag k="ssr:stedsnr" v="833166" />
		<tag k="water" v="lake" />
	</node>
	<node id="-466592" lat="60.3602250008" lon="6.14639721347">
		<tag k="alt_name" v="Kaldestadelvi" />
		<tag k="name" v="Kaldestadelva" />
		<tag k="ssr:stedsnr" v="833136" />
		<tag k="waterway" v="river" />
	</node>
	<node id="-466591" lat="60.3568333351" lon="6.11398333831">
		<tag k="name" v="Liastølselva" />
		<tag k="ssr:stedsnr" v="833133" />
		<tag k="waterway" v="river" />
	</node>
	<node id="-464542" lat="60.4747138919" lon="6.28797778357">
		<tag k="alt_name" v="Goddalsvatnet, øvre" />
		<tag k="name" v="Øvre Goddalsvatnet" />
		<tag k="natural" v="water" />
		<tag k="ssr:stedsnr" v="369765" />
		<tag k="water" v="lake" />
	</node>
	<node id="-466580" lat="60.5098148544" lon="6.07248639589">
		<tag k="name" v="Lomatjørn" />
		<tag k="natural" v="water" />
		<tag k="ssr:stedsnr" v="833004" />
	</node>
	<node id="-466578" lat="60.1487363717" lon="5.88598683281">
		<tag k="name" v="Setratjørna" />
		<tag k="natural" v="water" />
		<tag k="ssr:stedsnr" v="832951" />
	</node>
	<node id="-466572" lat="60.4401555594" lon="6.12658333036">
		<tag k="name" v="Vossadalselva" />
		<tag k="ssr:stedsnr" v="833219" />
		<tag k="waterway" v="river" />
	</node>
	<node id="-464520" lat="60.3465928347" lon="6.0959045063">
		<tag k="name" v="Kjoshellevatnet" />
		<tag k="natural" v="water" />
		<tag k="ssr:stedsnr" v="369510" />
	</node>
	<node id="-466567" lat="60.5061555601" lon="6.14695000307">
		<tag k="name" v="Svartedalsvika" />
		<tag k="natural" v="bay" />
		<tag k="ssr:stedsnr" v="820681" />
	</node>
	<node id="-464517" lat="60.3301429444" lon="6.04521169245">
		<tag k="name" v="Vålavatnet" />
		<tag k="natural" v="water" />
		<tag k="ssr:stedsnr" v="369478" />
	</node>
	<node id="-464515" lat="60.3383694467" lon="6.11401111706">
		<tag k="name" v="Fonnalandsøya" />
		<tag k="place" v="island" />
		<tag k="ssr:stedsnr" v="369468" />
	</node>
	<node id="-464491" lat="60.316711114" lon="6.04145276886">
		<tag k="name" v="Fureneset" />
		<tag k="natural" v="cape" />
		<tag k="ssr:stedsnr" v="369967" />
	</node>
	<node id="-466560" lat="60.5074166662" lon="6.0911000005">
		<tag k="name" v="Nystølelvi" />
		<tag k="ssr:stedsnr" v="795769" />
		<tag k="waterway" v="stream" />
	</node>
	<node id="-466557" lat="60.3184429742" lon="5.94815492207">
		<tag k="name" v="Storavatnet" />
		<tag k="natural" v="water" />
		<tag k="ssr:stedsnr" v="794984" />
	</node>
	<node id="-464505" lat="60.4432207146" lon="6.02168725015">
		<tag k="name" v="Gråursvatnet" />
		<tag k="natural" v="water" />
		<tag k="ssr:stedsnr" v="369382" />
	</node>
	<node id="-464502" lat="60.4607861119" lon="6.029888894">
		<tag k="name" v="Fossane" />
		<tag k="natural" v="waterfall" />
		<tag k="ssr:stedsnr" v="369354" />
	</node>
	<node id="-466548" lat="60.2909805528" lon="6.04853611137">
		<tag k="name" v="Tordalsvatnet" />
		<tag k="natural" v="water" />
		<tag k="ssr:stedsnr" v="794884" />
	</node>
	<node id="-464499" lat="60.4662234967" lon="6.45343586761">
		<tag k="name" v="Grubbatjørnane" />
		<tag k="natural" v="water" />
		<tag k="ssr:stedsnr" v="369192" />
		<tag k="water" v="lake" />
	</node>
	<node id="-466544" lat="60.2694944432" lon="5.98707777294">
		<tag k="name" v="Skardselva" />
		<tag k="ssr:stedsnr" v="794867" />
		<tag k="waterway" v="stream" />
	</node>
	<node id="-466539" lat="60.2828718975" lon="6.05462860808">
		<tag k="name" v="Byrkjenesvatnet" />
		<tag k="natural" v="water" />
		<tag k="old_name" v="Byrkesnesvatnet" />
		<tag k="ssr:stedsnr" v="794832" />
		<tag k="water" v="lake" />
	</node>
	<node id="-466538" lat="60.2836999972" lon="6.04338610726">
		<tag k="name" v="Engjadalsvatnet" />
		<tag k="natural" v="water" />
		<tag k="old_name" v="Engedalsvatnet" />
		<tag k="ssr:stedsnr" v="794830" />
	</node>
	<node id="-466534" lat="60.2633314116" lon="6.1317718731">
		<tag k="name" v="Kolltveittjørna" />
		<tag k="natural" v="water" />
		<tag k="ssr:stedsnr" v="794786" />
	</node>
	<node id="-464484" lat="60.2846182433" lon="5.97614402815">
		<tag k="name" v="Akssetetjørn" />
		<tag k="natural" v="water" />
		<tag k="ssr:stedsnr" v="369916" />
	</node>
	<node id="-466526" lat="60.3989611089" lon="6.00227500228">
		<tag k="name" v="Skogstjørn" />
		<tag k="natural" v="water" />
		<tag k="ssr:stedsnr" v="794721" />
	</node>
	<node id="-466525" lat="60.4004055529" lon="6.17315555544">
		<tag k="alt_name" v="Ørdalsfossen" />
		<tag k="name" v="Ørredalsfossen" />
		<tag k="natural" v="waterfall" />
		<tag k="ssr:stedsnr" v="794716" />
	</node>
	<node id="-466521" lat="60.2446111151" lon="5.97557499833">
		<tag k="name" v="Træda" />
		<tag k="ssr:stedsnr" v="794706" />
		<tag k="waterway" v="stream" />
	</node>
	<node id="-464472" lat="60.3827194442" lon="5.92376665889">
		<tag k="name" v="Tordalselva" />
		<tag k="ssr:stedsnr" v="347918" />
		<tag k="waterway" v="river" />
	</node>
	<node id="-464468" lat="60.4486839111" lon="5.98856919077">
		<tag k="name" v="Langatjørni" />
		<tag k="natural" v="water" />
		<tag k="ssr:stedsnr" v="347849" />
	</node>
	<node id="-464466" lat="60.460213892" lon="6.01608888508">
		<tag k="name" v="Frostadvatnet" />
		<tag k="natural" v="water" />
		<tag k="ssr:stedsnr" v="347802" />
		<tag k="water" v="lake" />
	</node>
	<node id="-464459" lat="60.3155416627" lon="6.0172305509">
		<tag k="name" v="Fossteinspollen" />
		<tag k="natural" v="water" />
		<tag k="ssr:stedsnr" v="347739" />
	</node>
	<node id="-466505" lat="60.3418916628" lon="6.09801111358">
		<tag k="name" v="Tjørnane" />
		<tag k="natural" v="water" />
		<tag k="ssr:stedsnr" v="794565" />
		<tag k="water" v="lake" />
	</node>
	<node id="-466504" lat="60.3292805589" lon="6.00624444988">
		<tag k="name" v="Smørbottvatnet" />
		<tag k="place" v="locality" />
		<tag k="ssr:stedsnr" v="794556" />
	</node>
	<node id="-466503" lat="60.3361805531" lon="6.05348332663">
		<tag k="name" v="Svortetjørn" />
		<tag k="place" v="locality" />
		<tag k="ssr:stedsnr" v="794547" />
	</node>
	<node id="-466501" lat="60.3314750039" lon="6.1122222228">
		<tag k="alt_name" v="Lomtjørn" />
		<tag k="name" v="Lomtjørni" />
		<tag k="place" v="locality" />
		<tag k="ssr:stedsnr" v="794519" />
	</node>
	<node id="-466500" lat="60.3213722237" lon="5.95811110249">
		<tag k="name" v="Spræno" />
		<tag k="ssr:stedsnr" v="794501" />
		<tag k="waterway" v="stream" />
	</node>
	<node id="-466495" lat="60.3229444577" lon="6.05904268215">
		<tag k="name" v="Hågelivatnet" />
		<tag k="natural" v="water" />
		<tag k="ssr:stedsnr" v="794487" />
	</node>
	<node id="-466494" lat="60.4128900035" lon="6.07239206479">
		<tag k="name" v="Myklavatnet" />
		<tag k="natural" v="water" />
		<tag k="ssr:stedsnr" v="794479" />
		<tag k="water" v="lake" />
	</node>
	<node id="-464445" lat="60.504927776" lon="6.12296666696">
		<tag k="alt_name" v="Båtavik" />
		<tag k="name" v="Båtavika" />
		<tag k="natural" v="bay" />
		<tag k="ssr:stedsnr" v="347481" />
	</node>
	<node id="-466485" lat="60.4699254399" lon="6.09343332846">
		<tag k="alt_name" v="Solheimdalsvatnet" />
		<tag k="name" v="Solheimedalsvatnet" />
		<tag k="natural" v="water" />
		<tag k="ssr:stedsnr" v="794337" />
	</node>
	<node id="-466484" lat="60.4684638929" lon="6.15188054705">
		<tag k="name" v="Skrottatjørn" />
		<tag k="natural" v="water" />
		<tag k="ssr:stedsnr" v="794334" />
	</node>
	<node id="-464431" lat="60.1959833365" lon="5.92898611227">
		<tag k="name" v="Svartavatnet" />
		<tag k="natural" v="water" />
		<tag k="ssr:stedsnr" v="347334" />
		<tag k="water" v="lake" />
	</node>
	<node id="-466472" lat="60.1606861141" lon="5.88280277907">
		<tag k="name" v="Setratjørna" />
		<tag k="natural" v="water" />
		<tag k="ssr:stedsnr" v="793618" />
	</node>
	<node id="-464420" lat="60.4014083325" lon="6.06291389801">
		<tag k="name" v="Sunnvoredalsvika" />
		<tag k="natural" v="bay" />
		<tag k="ssr:stedsnr" v="347175" />
	</node>
	<node id="-466461" lat="60.3378555521" lon="6.09550000396">
		<tag k="name" v="Grønevik" />
		<tag k="natural" v="bay" />
		<tag k="ssr:stedsnr" v="772923" />
	</node>
	<node id="-464410" lat="60.3455777799" lon="6.17676666332">
		<tag k="alt_name" v="Kyrkjeelvi" />
		<tag k="name" v="Kyrkjeelva" />
		<tag k="ssr:stedsnr" v="347045" />
		<tag k="waterway" v="river" />
	</node>
	<node id="-466457" lat="60.3842444418" lon="5.91732778034">
		<tag k="name" v="Neset" />
		<tag k="natural" v="cape" />
		<tag k="ssr:stedsnr" v="772887" />
	</node>
	<node id="-464405" lat="60.367552781" lon="6.05227221938">
		<tag k="name" v="Løgjelsbekken" />
		<tag k="ssr:stedsnr" v="346803" />
		<tag k="waterway" v="stream" />
	</node>
	<node id="-464403" lat="60.2788055566" lon="6.04009444719">
		<tag k="name" v="Safossen" />
		<tag k="natural" v="waterfall" />
		<tag k="ssr:stedsnr" v="346653" />
	</node>
	<node id="-464397" lat="60.4705634262" lon="6.17638067125">
		<tag k="name" v="Langhaugetjørna" />
		<tag k="natural" v="water" />
		<tag k="ssr:stedsnr" v="126356" />
	</node>
	<node id="-464392" lat="60.4040555562" lon="6.29187777573">
		<tag k="name" v="Langhammartjørn" />
		<tag k="natural" v="water" />
		<tag k="ssr:stedsnr" v="335358" />
	</node>
	<node id="-466437" lat="60.3767611074" lon="6.01126110628">
		<tag k="name" v="Kvennelvi" />
		<tag k="ssr:stedsnr" v="772497" />
		<tag k="waterway" v="river" />
	</node>
	<node id="-464388" lat="60.2939908082" lon="6.13761978635">
		<tag k="alt_name" v="Tjørnsdalstjørna" />
		<tag k="name" v="Øletjørn" />
		<tag k="natural" v="water" />
		<tag k="ssr:stedsnr" v="334263" />
	</node>
	<node id="-464379" lat="60.2975333338" lon="6.16101944255">
		<tag k="loc_name" v="Tørvikavatnet" />
		<tag k="name" v="Tørvikevatnet" />
		<tag k="natural" v="water" />
		<tag k="ssr:stedsnr" v="309915" />
		<tag k="water" v="lake" />
	</node>
	<node id="-466426" lat="60.4060186373" lon="6.32447233595">
		<tag k="name" v="Lomatjørn" />
		<tag k="natural" v="water" />
		<tag k="ssr:stedsnr" v="772299" />
	</node>
	<node id="-464375" lat="60.2673249962" lon="6.06358333171">
		<tag k="alt_name" v="Litlelings-elva" />
		<tag k="name" v="Litlelingselva" />
		<tag k="ssr:stedsnr" v="309816" />
		<tag k="waterway" v="stream" />
	</node>
	<node id="-464373" lat="60.5176265899" lon="6.1822989037">
		<tag k="alt_name" v="Løkedalstjørnane" />
		<tag k="name" v="Løkjesdalstjørnane" />
		<tag k="natural" v="water" />
		<tag k="ssr:stedsnr" v="309773" />
		<tag k="water" v="lake" />
	</node>
	<node id="-464372" lat="60.4696244248" lon="6.2768689638">
		<tag k="alt_name" v="Goddalsvatnet, nedre" />
		<tag k="name" v="Nedre Goddalsvatnet" />
		<tag k="natural" v="water" />
		<tag k="ssr:stedsnr" v="309774" />
		<tag k="water" v="lake" />
	</node>
	<node id="-464370" lat="60.484568233" lon="6.35353787094">
		<tag k="name" v="Tverrelvvatnet" />
		<tag k="natural" v="water" />
		<tag k="ssr:stedsnr" v="309765" />
	</node>
	<node id="-464362" lat="60.3525277734" lon="5.99629999306">
		<tag k="name" v="Liavatnet" />
		<tag k="natural" v="water" />
		<tag k="ssr:stedsnr" v="309628" />
	</node>
	<node id="-466409" lat="60.5084888871" lon="6.07434167242">
		<tag k="name" v="Kjelafossen" />
		<tag k="natural" v="waterfall" />
		<tag k="ssr:stedsnr" v="772016" />
	</node>
	<node id="-466407" lat="60.5093583303" lon="6.08771389658">
		<tag k="name" v="Hallreifossen" />
		<tag k="natural" v="waterfall" />
		<tag k="ssr:stedsnr" v="772009" />
	</node>
	<node id="-466406" lat="60.3410276819" lon="6.06140463508">
		<tag k="name" v="Toppatjørn" />
		<tag k="natural" v="water" />
		<tag k="ssr:stedsnr" v="771980" />
	</node>
	<node id="-466404" lat="60.2248916627" lon="5.98297499266">
		<tag k="name" v="Kalhagebekken" />
		<tag k="ssr:stedsnr" v="771698" />
		<tag k="waterway" v="stream" />
	</node>
	<node id="-466402" lat="60.2778861153" lon="6.03873333576">
		<tag k="name" v="Skulafossen" />
		<tag k="natural" v="waterfall" />
		<tag k="ssr:stedsnr" v="771655" />
	</node>
	<node id="-464352" lat="60.411216767" lon="6.22568246269">
		<tag k="alt_name" v="Skårsvatnet" />
		<tag k="name" v="Skorsvatnet" />
		<tag k="natural" v="water" />
		<tag k="ssr:stedsnr" v="309162" />
	</node>
	<node id="-464351" lat="60.4122870604" lon="6.27573089469">
		<tag k="name" v="Svortetjørni" />
		<tag k="natural" v="water" />
		<tag k="ssr:stedsnr" v="309157" />
	</node>
	<node id="-464349" lat="60.4089388888" lon="6.31176665829">
		<tag k="alt_name" v="Fagertjørn" />
		<tag k="name" v="Fagertjørni" />
		<tag k="natural" v="water" />
		<tag k="ssr:stedsnr" v="309139" />
	</node>
	<node id="-464347" lat="60.3335403274" lon="6.13166858987">
		<tag k="alt_name" v="Svartavatn" />
		<tag k="name" v="Svartavatnet" />
		<tag k="natural" v="water" />
		<tag k="ssr:stedsnr" v="309586" />
	</node>
	<node id="-464345" lat="60.3332916689" lon="6.0782249967">
		<tag k="alt_name" v="Smørskårtjørnane" />
		<tag k="name" v="Smørskortjørnane" />
		<tag k="natural" v="water" />
		<tag k="ssr:stedsnr" v="309574" />
	</node>
	<node id="-464343" lat="60.3240844036" lon="6.04221923475">
		<tag k="name" v="Paristjørna" />
		<tag k="natural" v="water" />
		<tag k="ssr:stedsnr" v="309566" />
	</node>
	<node id="-466390" lat="60.3652277759" lon="6.00883055184">
		<tag k="name" v="Gåsabotntjørn" />
		<tag k="natural" v="water" />
		<tag k="ssr:stedsnr" v="759397" />
	</node>
	<node id="-464339" lat="60.3165111079" lon="6.03641945098">
		<tag k="name" v="Lauvsetevatnet" />
		<tag k="natural" v="water" />
		<tag k="ssr:stedsnr" v="308970" />
	</node>
	<node id="-464338" lat="60.1104999993" lon="5.87301943846">
		<tag k="alt_name" v="Svidvatnet" />
		<tag k="name" v="Svevatnet" />
		<tag k="natural" v="water" />
		<tag k="ssr:stedsnr" v="308901" />
	</node>
	<node id="-464337" lat="60.2922972236" lon="6.04259167365">
		<tag k="alt_name" v="Torsteintjørni;Torsteinstjønn" />
		<tag k="name" v="Torsteinstjørn" />
		<tag k="natural" v="water" />
		<tag k="ssr:stedsnr" v="308886" />
	</node>
	<node id="-466384" lat="60.2963944471" lon="6.05487500505">
		<tag k="name" v="Kvernelva" />
		<tag k="ssr:stedsnr" v="734912" />
		<tag k="waterway" v="river" />
	</node>
	<node id="-464334" lat="60.4787552981" lon="6.35435785548">
		<tag k="name" v="Djuphølen" />
		<tag k="natural" v="water" />
		<tag k="ssr:stedsnr" v="308765" />
	</node>
	<node id="-466379" lat="60.3630222217" lon="6.01739166297">
		<tag k="name" v="Longvotnebekken" />
		<tag k="ssr:stedsnr" v="734667" />
		<tag k="waterway" v="stream" />
	</node>
	<node id="-466374" lat="60.3232486577" lon="6.01266504194">
		<tag k="name" v="Kvelpatjørn" />
		<tag k="natural" v="water" />
		<tag k="ssr:stedsnr" v="734575" />
	</node>
	<node id="-464322" lat="60.3477444428" lon="6.08955000167">
		<tag k="name" v="Nottatjørnane" />
		<tag k="natural" v="water" />
		<tag k="ssr:stedsnr" v="308542" />
		<tag k="water" v="lake" />
	</node>
	<node id="-466367" lat="60.3070836092" lon="6.02597029292">
		<tag k="name" v="Botnavatnet" />
		<tag k="natural" v="water" />
		<tag k="ssr:stedsnr" v="733944" />
	</node>
	<node id="-466366" lat="60.2797749964" lon="6.00588888652">
		<tag k="name" v="Hjellebekken" />
		<tag k="ssr:stedsnr" v="733888" />
		<tag k="waterway" v="stream" />
	</node>
	<node id="-466363" lat="60.2854553687" lon="6.10584472041">
		<tag k="name" v="Varøyratjørna" />
		<tag k="natural" v="water" />
		<tag k="ssr:stedsnr" v="733846" />
	</node>
	<node id="-466361" lat="60.261655558" lon="6.10696666831">
		<tag k="name" v="Storavatnet" />
		<tag k="natural" v="water" />
		<tag k="ssr:stedsnr" v="733780" />
		<tag k="water" v="lake" />
	</node>
	<node id="-466360" lat="60.2648337357" lon="6.09181769833">
		<tag k="name" v="Lingavatnet" />
		<tag k="natural" v="water" />
		<tag k="ssr:stedsnr" v="733778" />
	</node>
	<node id="-464310" lat="60.4260916683" lon="6.19150278322">
		<tag k="name" v="Lomtjørn" />
		<tag k="natural" v="water" />
		<tag k="ssr:stedsnr" v="308393" />
	</node>
	<node id="-464457" lat="60.3024909292" lon="5.95417923671">
		<tag k="name" v="Bratthustjørna" />
		<tag k="natural" v="water" />
		<tag k="ssr:stedsnr" v="347720" />
	</node>
	<node id="-466356" lat="60.4011833349" lon="6.00750278459">
		<tag k="name" v="Tjørnelvi" />
		<tag k="ssr:stedsnr" v="733700" />
		<tag k="waterway" v="stream" />
	</node>
	<node id="-464307" lat="60.4459717508" lon="6.11248420856">
		<tag k="name" v="Kjetilstjørn" />
		<tag k="natural" v="water" />
		<tag k="ssr:stedsnr" v="308386" />
	</node>
	<node id="-464304" lat="60.4777585333" lon="5.98203655005">
		<tag k="name" v="Trongasmogtjørna" />
		<tag k="natural" v="water" />
		<tag k="ssr:stedsnr" v="308339" />
	</node>
	<node id="-466350" lat="60.3791527789" lon="6.07634167405">
		<tag k="name" v="Svortetjørna" />
		<tag k="natural" v="water" />
		<tag k="ssr:stedsnr" v="733653" />
	</node>
	<node id="-466342" lat="60.3493536237" lon="6.09789341903">
		<tag k="name" v="Leitestjørna" />
		<tag k="natural" v="water" />
		<tag k="ssr:stedsnr" v="733571" />
	</node>
	<node id="-466341" lat="60.3564972267" lon="6.09365000257">
		<tag k="name" v="Hestgjelsbekken" />
		<tag k="ssr:stedsnr" v="733567" />
		<tag k="waterway" v="stream" />
	</node>
	<node id="-466339" lat="60.3480250014" lon="6.12634999921">
		<tag k="name" v="Langneset" />
		<tag k="natural" v="cape" />
		<tag k="ssr:stedsnr" v="733536" />
	</node>
	<node id="-466332" lat="60.4351083292" lon="6.16101388468">
		<tag k="name" v="Kjølo" />
		<tag k="ssr:stedsnr" v="733428" />
		<tag k="waterway" v="stream" />
	</node>
	<node id="-466328" lat="60.4555833373" lon="5.98421388469">
		<tag k="alt_name" v="Holmevatnet" />
		<tag k="name" v="Holmavatnet" />
		<tag k="natural" v="water" />
		<tag k="ssr:stedsnr" v="733372" />
		<tag k="water" v="lake" />
	</node>
	<node id="-464793" lat="60.3418750024" lon="6.11791666453">
		<tag k="name" v="Krokavatnet" />
		<tag k="natural" v="water" />
		<tag k="ssr:stedsnr" v="5568" />
		<tag k="water" v="lake" />
	</node>
	<node id="-466324" lat="60.478200001" lon="6.01546110219">
		<tag k="name" v="Sputtebekken" />
		<tag k="ssr:stedsnr" v="733352" />
		<tag k="waterway" v="stream" />
	</node>
	<node id="-466322" lat="60.4690083356" lon="6.01696389096">
		<tag k="name" v="Nordelva" />
		<tag k="ssr:stedsnr" v="733328" />
		<tag k="waterway" v="stream" />
	</node>
	<node id="-466320" lat="60.4639194461" lon="6.3766805611">
		<tag k="name" v="Bjølsegrotjørni" />
		<tag k="natural" v="water" />
		<tag k="ssr:stedsnr" v="733204" />
	</node>
	<node id="-466319" lat="60.4648722202" lon="6.42018332962">
		<tag k="name" v="Karaldevatnet" />
		<tag k="natural" v="water" />
		<tag k="ssr:stedsnr" v="733203" />
		<tag k="water" v="lake" />
	</node>
	<node id="-466318" lat="60.4577472196" lon="6.34526110733">
		<tag k="name" v="Bjølsegrøvvatnet" />
		<tag k="natural" v="water" />
		<tag k="ssr:stedsnr" v="733195" />
		<tag k="water" v="lake" />
	</node>
	<node id="-464264" lat="60.3364916671" lon="5.98703055297">
		<tag k="name" v="Langavatnet" />
		<tag k="natural" v="water" />
		<tag k="ssr:stedsnr" v="287533" />
		<tag k="water" v="lake" />
	</node>
	<node id="-464260" lat="60.5092916646" lon="6.15561388015">
		<tag k="name" v="Sundagsbeiteelva" />
		<tag k="ssr:stedsnr" v="287512" />
		<tag k="waterway" v="river" />
	</node>
	<node id="-466303" lat="60.4064722223" lon="6.03302222796">
		<tag k="name" v="Goddalsbekken" />
		<tag k="ssr:stedsnr" v="712833" />
		<tag k="waterway" v="stream" />
	</node>
	<node id="-466302" lat="60.4438813845" lon="5.9794882381">
		<tag k="name" v="Rundatjørni" />
		<tag k="natural" v="water" />
		<tag k="ssr:stedsnr" v="712811" />
	</node>
	<node id="-466290" lat="60.2643277757" lon="6.12216389209">
		<tag k="name" v="Øyjordsvatnet" />
		<tag k="natural" v="water" />
		<tag k="ssr:stedsnr" v="712586" />
		<tag k="water" v="lake" />
	</node>
	<node id="-464239" lat="60.4074388916" lon="6.16639721687">
		<tag k="name" v="Soget" />
		<tag k="ssr:stedsnr" v="287190" />
		<tag k="waterway" v="river" />
	</node>
	<node id="-464238" lat="60.4118249966" lon="6.08799999837">
		<tag k="name" v="Hestaneset" />
		<tag k="natural" v="cape" />
		<tag k="ssr:stedsnr" v="287177" />
	</node>
	<node id="-464236" lat="60.4318722228" lon="6.21738610754">
		<tag k="name" v="Sprengsfossen" />
		<tag k="natural" v="waterfall" />
		<tag k="ssr:stedsnr" v="287150" />
	</node>
	<node id="-466280" lat="60.5200155024" lon="6.1545267985">
		<tag k="name" v="Tjørnadalstjørna" />
		<tag k="natural" v="water" />
		<tag k="ssr:stedsnr" v="712465" />
	</node>
	<node id="-464224" lat="60.1724361088" lon="5.95039167566">
		<tag k="name" v="Nybrufjøra" />
		<tag k="natural" v="beach" />
		<tag k="ssr:stedsnr" v="286380" />
	</node>
	<node id="-466271" lat="60.4210194406" lon="6.21936388754">
		<tag k="name" v="Sekkelva" />
		<tag k="ssr:stedsnr" v="712124" />
		<tag k="waterway" v="river" />
	</node>
	<node id="-464221" lat="60.2382944485" lon="5.98373611588">
		<tag k="name" v="Elvakrok" />
		<tag k="ssr:stedsnr" v="286357" />
		<tag k="waterway" v="river" />
	</node>
	<node id="-466263" lat="60.3617361137" lon="6.09648611431">
		<tag k="name" v="Ruflebekken" />
		<tag k="ssr:stedsnr" v="711785" />
		<tag k="waterway" v="stream" />
	</node>
	<node id="-464214" lat="60.5138438017" lon="6.13642361862">
		<tag k="name" v="Orfallstjørn" />
		<tag k="natural" v="water" />
		<tag k="ssr:stedsnr" v="286012" />
	</node>
	<node id="-464211" lat="60.3317273813" lon="6.06079846871">
		<tag k="name" v="Tjønnadalsbekken" />
		<tag k="ssr:stedsnr" v="286815" />
		<tag k="waterway" v="stream" />
	</node>
	<node id="-466254" lat="60.1280194457" lon="5.87351388334">
		<tag k="name" v="Kvitebergselva" />
		<tag k="ssr:stedsnr" v="711301" />
		<tag k="waterway" v="river" />
	</node>
	<node id="-464205" lat="60.2892972259" lon="6.05509167259">
		<tag k="name" v="Oselva" />
		<tag k="ssr:stedsnr" v="275272" />
		<tag k="waterway" v="river" />
	</node>
	<node id="-466249" lat="60.3755250033" lon="6.13968055102">
		<tag k="name" v="Sundsvik" />
		<tag k="natural" v="bay" />
		<tag k="ssr:stedsnr" v="711213" />
	</node>
	<node id="-466248" lat="60.3760166635" lon="6.05958612022">
		<tag k="name" v="Botegotene" />
		<tag k="natural" v="water" />
		<tag k="ssr:stedsnr" v="711196" />
		<tag k="water" v="lake" />
	</node>
	<node id="-464199" lat="60.5190222267" lon="6.13917500755">
		<tag k="name" v="Ambjørgselva" />
		<tag k="ssr:stedsnr" v="274667" />
		<tag k="waterway" v="river" />
	</node>
	<node id="-464195" lat="60.279908056" lon="6.18640292281">
		<tag k="fixme" v="multiple name tags, choose one and add the other to alt_name" />
		<tag k="name" v="Straumasteinstjørna;Tjørni" />
		<tag k="natural" v="water" />
		<tag k="ssr:stedsnr" v="274382" />
	</node>
	<node id="-464778" lat="60.4737888885" lon="6.20728888548">
		<tag k="name" v="Botnaelva" />
		<tag k="ssr:stedsnr" v="5386" />
		<tag k="waterway" v="river" />
	</node>
	<node id="-466231" lat="60.4299083317" lon="6.26933055954">
		<tag k="name" v="Vetlavatnet" />
		<tag k="natural" v="water" />
		<tag k="ssr:stedsnr" v="699354" />
		<tag k="water" v="lake" />
	</node>
	<node id="-466227" lat="60.502327775" lon="6.04798056055">
		<tag k="name" v="Tjørnadalstjørni" />
		<tag k="natural" v="water" />
		<tag k="ssr:stedsnr" v="674975" />
	</node>
	<node id="-466224" lat="60.2728833354" lon="6.1092138916">
		<tag k="name" v="Ivarstegelva" />
		<tag k="ssr:stedsnr" v="673826" />
		<tag k="waterway" v="stream" />
	</node>
	<node id="-466215" lat="60.4093299921" lon="6.09809792306">
		<tag k="name" v="Svartavatnet" />
		<tag k="natural" v="water" />
		<tag k="ssr:stedsnr" v="673737" />
	</node>
	<node id="-466211" lat="60.3907277773" lon="5.97158611344">
		<tag k="name" v="Røyro" />
		<tag k="ssr:stedsnr" v="673702" />
		<tag k="waterway" v="stream" />
	</node>
	<node id="-466210" lat="60.3882999995" lon="6.06488611478">
		<tag k="name" v="Sælesetetjørna" />
		<tag k="natural" v="water" />
		<tag k="ssr:stedsnr" v="673696" />
	</node>
	<node id="-466203" lat="60.3509051447" lon="5.998521908">
		<tag k="name" v="Storavatnet" />
		<tag k="natural" v="water" />
		<tag k="ssr:stedsnr" v="673614" />
	</node>
	<node id="-466197" lat="60.4901365416" lon="6.01660786296">
		<tag k="name" v="Båtvatnet" />
		<tag k="natural" v="water" />
		<tag k="ssr:stedsnr" v="673352" />
	</node>
	<node id="-466194" lat="60.4317627744" lon="6.28374262423">
		<tag k="alt_name" v="Grønhovdetjørn" />
		<tag k="name" v="Grønhovdetjørni" />
		<tag k="natural" v="water" />
		<tag k="ssr:stedsnr" v="673250" />
	</node>
	<node id="-466186" lat="60.3130496112" lon="6.03218451882">
		<tag k="name" v="Oshaugtjørn" />
		<tag k="natural" v="water" />
		<tag k="ssr:stedsnr" v="672978" />
	</node>
	<node id="-466184" lat="60.1179173933" lon="5.89686104736">
		<tag k="alt_name" v="Svartatjørn" />
		<tag k="name" v="Svartatjørna" />
		<tag k="natural" v="water" />
		<tag k="ssr:stedsnr" v="672912" />
	</node>
	<node id="-466183" lat="60.28569358" lon="6.09877525806">
		<tag k="alt_name" v="Snøfannatjørna;Krokavasstjønn" />
		<tag k="name" v="Krokavasstjørna" />
		<tag k="natural" v="water" />
		<tag k="ssr:stedsnr" v="672893" />
	</node>
	<node id="-466177" lat="60.354811113" lon="6.10935000531">
		<tag k="name" v="Liastølselva" />
		<tag k="ssr:stedsnr" v="672581" />
		<tag k="waterway" v="stream" />
	</node>
	<node id="-466175" lat="60.3426405687" lon="5.95261785006">
		<tag k="alt_name" v="Kjelsvatn" />
		<tag k="name" v="Kjelsvatnet" />
		<tag k="natural" v="water" />
		<tag k="ssr:stedsnr" v="672553" />
	</node>
	<node id="-466169" lat="60.2197250024" lon="5.96262500817">
		<tag k="name" v="Gjerdaelva" />
		<tag k="ssr:stedsnr" v="672486" />
		<tag k="waterway" v="stream" />
	</node>
	<node id="-466159" lat="60.4556555513" lon="6.18965833068">
		<tag k="name" v="Oaldstjørn" />
		<tag k="natural" v="water" />
		<tag k="ssr:stedsnr" v="672414" />
	</node>
	<node id="-466158" lat="60.4348805515" lon="6.0173999999">
		<tag k="name" v="Skukkatjørnane" />
		<tag k="natural" v="water" />
		<tag k="ssr:stedsnr" v="672390" />
	</node>
	<node id="-466146" lat="60.1850166657" lon="5.90046388253">
		<tag k="name" v="Tverrelva" />
		<tag k="ssr:stedsnr" v="651911" />
		<tag k="waterway" v="river" />
	</node>
	<node id="-466145" lat="60.2942249986" lon="6.16793888733">
		<tag k="name" v="Dragselv" />
		<tag k="ssr:stedsnr" v="651907" />
		<tag k="waterway" v="river" />
	</node>
	<node id="-466144" lat="60.3816833292" lon="5.92054165975">
		<tag k="name" v="Sevjena" />
		<tag k="ssr:stedsnr" v="651894" />
		<tag k="waterway" v="stream" />
	</node>
	<node id="-466139" lat="60.4398305566" lon="5.96885833642">
		<tag k="name" v="Vadet" />
		<tag k="ssr:stedsnr" v="651825" />
		<tag k="waterway" v="stream" />
	</node>
	<node id="-466100" lat="60.1905055551" lon="5.89879444256">
		<tag k="name" v="Leitefossen" />
		<tag k="natural" v="waterfall" />
		<tag k="ssr:stedsnr" v="650896" />
	</node>
	<node id="-466084" lat="60.5158555526" lon="6.13737777492">
		<tag k="name" v="Vasset" />
		<tag k="natural" v="water" />
		<tag k="ssr:stedsnr" v="650013" />
		<tag k="water" v="lake" />
	</node>
	<node id="-466082" lat="60.3596055584" lon="6.04180000428">
		<tag k="name" v="Dyraskarbekken" />
		<tag k="ssr:stedsnr" v="649820" />
		<tag k="waterway" v="stream" />
	</node>
	<node id="-466076" lat="60.161147219" lon="5.89522777707">
		<tag k="name" v="Kvitelva" />
		<tag k="ssr:stedsnr" v="649338" />
		<tag k="waterway" v="river" />
	</node>
	<node id="-466074" lat="60.4552777758" lon="6.19821944674">
		<tag k="alt_name" v="Kalleråsen;Kattrassen" />
		<tag k="name" v="Kaldrassen" />
		<tag k="ssr:stedsnr" v="648439" />
		<tag k="waterway" v="stream" />
	</node>
	<node id="-466064" lat="60.4987619685" lon="6.28226674556">
		<tag k="name" v="Juklavatnet" />
		<tag k="natural" v="water" />
		<tag k="ssr:stedsnr" v="614518" />
	</node>
	<node id="-466061" lat="60.5186638862" lon="6.15599999356">
		<tag k="name" v="Stølselvi" />
		<tag k="ssr:stedsnr" v="613033" />
		<tag k="waterway" v="stream" />
	</node>
	<node id="-466051" lat="60.4807833343" lon="6.36891111434">
		<tag k="name" v="Kalavatnet" />
		<tag k="natural" v="water" />
		<tag k="ssr:stedsnr" v="612764" />
		<tag k="water" v="lake" />
	</node>
	<node id="-466050" lat="60.4947225191" lon="6.35428796885">
		<tag k="name" v="Djupebottvatnet" />
		<tag k="natural" v="water" />
		<tag k="ssr:stedsnr" v="612756" />
		<tag k="water" v="lake" />
	</node>
	<node id="-466045" lat="60.3852833352" lon="5.99849166351">
		<tag k="name" v="Røyrlitjørn" />
		<tag k="natural" v="water" />
		<tag k="ssr:stedsnr" v="612716" />
	</node>
	<node id="-466044" lat="60.386569449" lon="6.12895834181">
		<tag k="name" v="Vetlavatnet" />
		<tag k="natural" v="water" />
		<tag k="ssr:stedsnr" v="612709" />
	</node>
	<node id="-466029" lat="60.3283086769" lon="6.09084688653">
		<tag k="name" v="Nystølstjørna" />
		<tag k="natural" v="water" />
		<tag k="ssr:stedsnr" v="612536" />
	</node>
	<node id="-466028" lat="60.3287454173" lon="6.14249883823">
		<tag k="name" v="Skoratjørn" />
		<tag k="natural" v="water" />
		<tag k="ssr:stedsnr" v="612533" />
	</node>
	<node id="-466026" lat="60.4037833341" lon="6.01796388429">
		<tag k="name" v="Stølso" />
		<tag k="ssr:stedsnr" v="612499" />
		<tag k="waterway" v="river" />
	</node>
	<node id="-466010" lat="60.4197944412" lon="5.96872500679">
		<tag k="name" v="Fossåna" />
		<tag k="ssr:stedsnr" v="611459" />
		<tag k="waterway" v="stream" />
	</node>
	<node id="-466003" lat="60.4620764427" lon="6.25570476965">
		<tag k="name" v="Krokavatnet" />
		<tag k="natural" v="water" />
		<tag k="ssr:stedsnr" v="611206" />
	</node>
	<node id="-466002" lat="60.4673570564" lon="6.38488007422">
		<tag k="name" v="Langeløken" />
		<tag k="natural" v="water" />
		<tag k="ssr:stedsnr" v="611201" />
	</node>
	<node id="-465999" lat="60.2988777764" lon="6.15490556285">
		<tag k="name" v="Løken" />
		<tag k="natural" v="beach" />
		<tag k="ssr:stedsnr" v="590934" />
	</node>
	<node id="-465998" lat="60.2966924494" lon="6.17216062715">
		<tag k="name" v="Straumen" />
		<tag k="natural" v="bay" />
		<tag k="ssr:stedsnr" v="590903" />
	</node>
	<node id="-465992" lat="60.3714948744" lon="6.03753777044">
		<tag k="name" v="Steindalselvi" />
		<tag k="ssr:stedsnr" v="590819" />
		<tag k="waterway" v="river" />
	</node>
	<node id="-465990" lat="60.426022225" lon="6.04666665884">
		<tag k="name" v="Svartavatnet" />
		<tag k="natural" v="water" />
		<tag k="ssr:stedsnr" v="590798" />
		<tag k="water" v="lake" />
	</node>
	<node id="-465989" lat="60.3571361093" lon="6.07796111857">
		<tag k="name" v="Træbakkelva" />
		<tag k="ssr:stedsnr" v="590763" />
		<tag k="waterway" v="river" />
	</node>
	<node id="-465975" lat="60.2690083339" lon="6.15219721936">
		<tag k="name" v="Langaneset" />
		<tag k="natural" v="cape" />
		<tag k="ssr:stedsnr" v="590545" />
	</node>
	<node id="-465968" lat="60.3362305594" lon="6.14771667007">
		<tag k="name" v="Hestabakken" />
		<tag k="ssr:stedsnr" v="590313" />
		<tag k="waterway" v="stream" />
	</node>
	<node id="-465967" lat="60.3735138921" lon="6.12102221649">
		<tag k="alt_name" v="Steinsdalselvi" />
		<tag k="name" v="Steinsdalselva" />
		<tag k="ssr:stedsnr" v="590310" />
		<tag k="waterway" v="river" />
	</node>
	<node id="-465963" lat="60.514527779" lon="6.10010832549">
		<tag k="name" v="Dyrnes" />
		<tag k="natural" v="cape" />
		<tag k="ssr:stedsnr" v="590240" />
	</node>
	<node id="-465960" lat="60.3860805555" lon="6.14070555609">
		<tag k="name" v="Åsheimselva" />
		<tag k="ssr:stedsnr" v="590215" />
		<tag k="waterway" v="river" />
	</node>
	<node id="-465958" lat="60.4479694491" lon="6.07783889631">
		<tag k="name" v="Øvre Fugladalsvatnet" />
		<tag k="natural" v="water" />
		<tag k="ssr:stedsnr" v="590211" />
		<tag k="water" v="lake" />
	</node>
	<node id="-465956" lat="60.3958444474" lon="6.13160832565">
		<tag k="name" v="Skorabekken" />
		<tag k="ssr:stedsnr" v="590200" />
		<tag k="waterway" v="stream" />
	</node>
	<node id="-465949" lat="60.3844055553" lon="6.18947777838">
		<tag k="name" v="Vikelva" />
		<tag k="ssr:stedsnr" v="590104" />
		<tag k="waterway" v="river" />
	</node>
	<node id="-465938" lat="60.2170361094" lon="5.97548888132">
		<tag k="name" v="Fjellstrand" />
		<tag k="natural" v="beach" />
		<tag k="ssr:stedsnr" v="589674" />
	</node>
	<node id="-465926" lat="60.5114277763" lon="6.12938889787">
		<tag k="name" v="Kyrkjeholmen" />
		<tag k="place" v="islet" />
		<tag k="ssr:stedsnr" v="589011" />
	</node>
	<node id="-465925" lat="60.2512000028" lon="5.97355555315">
		<tag k="name" v="Lonene" />
		<tag k="natural" v="water" />
		<tag k="ssr:stedsnr" v="578817" />
		<tag k="water" v="lake" />
	</node>
	<node id="-465919" lat="60.4154722205" lon="6.14707500378">
		<tag k="name" v="Torelona" />
		<tag k="place" v="locality" />
		<tag k="ssr:stedsnr" v="577718" />
	</node>
	<node id="-465918" lat="60.5124805593" lon="6.15248333505">
		<tag k="name" v="Neselva" />
		<tag k="ssr:stedsnr" v="577710" />
		<tag k="waterway" v="river" />
	</node>
	<node id="-465912" lat="60.362105556" lon="5.9908777833">
		<tag k="name" v="Nystølstjørn" />
		<tag k="natural" v="water" />
		<tag k="ssr:stedsnr" v="576051" />
	</node>
	<node id="-465910" lat="60.5096916636" lon="6.08911110539">
		<tag k="name" v="Haldreifossen" />
		<tag k="natural" v="waterfall" />
		<tag k="ssr:stedsnr" v="552786" />
	</node>
	<node id="-465896" lat="60.5051722192" lon="6.14283332762">
		<tag k="name" v="Svartedalstjørna" />
		<tag k="natural" v="water" />
		<tag k="ssr:stedsnr" v="551799" />
	</node>
	<node id="-464378" lat="60.2726468482" lon="5.96534113866">
		<tag k="name" v="Røyndalsvatnet" />
		<tag k="natural" v="water" />
		<tag k="ssr:stedsnr" v="309868" />
	</node>
	<node id="-465874" lat="60.4183555521" lon="6.07052221894">
		<tag k="name" v="Fugladalsvika" />
		<tag k="natural" v="bay" />
		<tag k="ssr:stedsnr" v="551486" />
	</node>
	<node id="-465871" lat="60.4286638906" lon="6.17855554859">
		<tag k="name" v="Klebansbekken" />
		<tag k="ssr:stedsnr" v="551434" />
		<tag k="waterway" v="stream" />
	</node>
	<node id="-465868" lat="60.4605307076" lon="6.1320359404">
		<tag k="name" v="Steinladetjørn" />
		<tag k="natural" v="water" />
		<tag k="ssr:stedsnr" v="551376" />
	</node>
	<node id="-465865" lat="60.4967581344" lon="6.01726974065">
		<tag k="name" v="Instavatnet" />
		<tag k="natural" v="water" />
		<tag k="ssr:stedsnr" v="551315" />
	</node>
	<node id="-465860" lat="60.1655186371" lon="5.93747141637">
		<tag k="name" v="Nesvatnet" />
		<tag k="natural" v="water" />
		<tag k="ssr:stedsnr" v="550583" />
	</node>
	<node id="-465855" lat="60.3223777787" lon="5.96336666325">
		<tag k="name" v="Sprenå" />
		<tag k="ssr:stedsnr" v="530739" />
		<tag k="waterway" v="stream" />
	</node>
	<node id="-465851" lat="60.2430249964" lon="5.97763055706">
		<tag k="name" v="Træå" />
		<tag k="ssr:stedsnr" v="530724" />
		<tag k="waterway" v="stream" />
	</node>
	<node id="-465842" lat="60.204624997" lon="5.92741944312">
		<tag k="name" v="Kamshovebekken" />
		<tag k="ssr:stedsnr" v="529905" />
		<tag k="waterway" v="stream" />
	</node>
	<node id="-465836" lat="60.4461638928" lon="5.99742499316">
		<tag k="name" v="Viervollo" />
		<tag k="ssr:stedsnr" v="529849" />
		<tag k="waterway" v="river" />
	</node>
	<node id="-465826" lat="60.2599666692" lon="6.10421388802">
		<tag k="name" v="Ystavassvika" />
		<tag k="natural" v="bay" />
		<tag k="ssr:stedsnr" v="529595" />
	</node>
	<node id="-465813" lat="60.4747845399" lon="6.07869518809">
		<tag k="name" v="Vendingstjørn" />
		<tag k="natural" v="water" />
		<tag k="ssr:stedsnr" v="529211" />
	</node>
	<node id="-465807" lat="60.3626111117" lon="6.11268334129">
		<tag k="name" v="Mylleshaugelva" />
		<tag k="ssr:stedsnr" v="529150" />
		<tag k="waterway" v="river" />
	</node>
	<node id="-465801" lat="60.3582138914" lon="6.00035832413">
		<tag k="name" v="Krokavassbekken" />
		<tag k="ssr:stedsnr" v="528803" />
		<tag k="waterway" v="stream" />
	</node>
	<node id="-465797" lat="60.2207722201" lon="5.95349444">
		<tag k="name" v="Gjerdeelva" />
		<tag k="ssr:stedsnr" v="528673" />
		<tag k="waterway" v="river" />
	</node>
	<node id="-465786" lat="60.5154111117" lon="6.16046111241">
		<tag k="name" v="Fossane" />
		<tag k="natural" v="waterfall" />
		<tag k="ssr:stedsnr" v="529012" />
	</node>
	<node id="-464361" lat="60.352263488" lon="6.00020037405">
		<tag k="name" v="Skarvavatnet" />
		<tag k="natural" v="water" />
		<tag k="ssr:stedsnr" v="309629" />
	</node>
	<node id="-465779" lat="60.3704892332" lon="6.04174083687">
		<tag k="name" v="Tokagjelselva" />
		<tag k="ssr:stedsnr" v="517383" />
		<tag k="waterway" v="river" />
	</node>
	<node id="-465771" lat="60.5066916655" lon="6.07562500153">
		<tag k="name" v="Stølselvi" />
		<tag k="ssr:stedsnr" v="492758" />
		<tag k="waterway" v="stream" />
	</node>
	<node id="-465769" lat="60.40291111" lon="6.02125833812">
		<tag k="name" v="Sandåni" />
		<tag k="ssr:stedsnr" v="492584" />
		<tag k="waterway" v="stream" />
	</node>
	<node id="-465760" lat="60.2690916633" lon="6.1199305528">
		<tag k="name" v="Sagbekken" />
		<tag k="ssr:stedsnr" v="491813" />
		<tag k="waterway" v="stream" />
	</node>
	<node id="-465750" lat="60.3313222177" lon="6.0609527724">
		<tag k="name" v="Tjørndalsbekken" />
		<tag k="ssr:stedsnr" v="491561" />
		<tag k="waterway" v="stream" />
	</node>
	<node id="-465749" lat="60.3362623539" lon="6.12316709536">
		<tag k="name" v="Torsteinsvatnet" />
		<tag k="natural" v="water" />
		<tag k="ssr:stedsnr" v="491552" />
	</node>
	<node id="-465745" lat="60.4963452007" lon="6.1582088802">
		<tag k="name" v="Gråurvatnet" />
		<tag k="natural" v="water" />
		<tag k="ssr:stedsnr" v="491335" />
	</node>
	<node id="-464354" lat="60.4245361071" lon="6.35984999261">
		<tag k="name" v="Bjølvo" />
		<tag k="ssr:stedsnr" v="309178" />
		<tag k="waterway" v="river" />
	</node>
	<node id="-465728" lat="60.404088888" lon="6.16515833111">
		<tag k="name" v="Nystølelva" />
		<tag k="ssr:stedsnr" v="490737" />
		<tag k="waterway" v="stream" />
	</node>
	<node id="-465720" lat="60.3725014981" lon="5.95658937504">
		<tag k="name" v="Heiavatnet" />
		<tag k="natural" v="water" />
		<tag k="ssr:stedsnr" v="490690" />
	</node>
	<node id="-465717" lat="60.3772166676" lon="6.10226111476">
		<tag k="name" v="Fosselva" />
		<tag k="ssr:stedsnr" v="490679" />
		<tag k="waterway" v="river" />
	</node>
	<node id="-465713" lat="60.3652608673" lon="5.96245165458">
		<tag k="name" v="Fossdalsvatnet" />
		<tag k="natural" v="water" />
		<tag k="ssr:stedsnr" v="490663" />
	</node>
	<node id="-465700" lat="60.4575861076" lon="6.01629999897">
		<tag k="name" v="Frostadvatnet" />
		<tag k="natural" v="water" />
		<tag k="ssr:stedsnr" v="490375" />
		<tag k="water" v="lake" />
	</node>
	<node id="-465699" lat="60.4500080969" lon="6.0048520519">
		<tag k="name" v="Dragatjørna" />
		<tag k="natural" v="water" />
		<tag k="ssr:stedsnr" v="490366" />
	</node>
	<node id="-465698" lat="60.4493496806" lon="6.09420474387">
		<tag k="name" v="Vossadalsvatnet" />
		<tag k="natural" v="water" />
		<tag k="ssr:stedsnr" v="490363" />
		<tag k="water" v="lake" />
	</node>
	<node id="-465695" lat="60.3422555555" lon="6.18627221895">
		<tag k="name" v="Hestadbekken" />
		<tag k="ssr:stedsnr" v="490291" />
		<tag k="waterway" v="stream" />
	</node>
	<node id="-465693" lat="60.4064229915" lon="6.31298795651">
		<tag k="alt_name" v="Eitertjørn" />
		<tag k="name" v="Eitertjørni" />
		<tag k="natural" v="water" />
		<tag k="ssr:stedsnr" v="490182" />
	</node>
	<node id="-465689" lat="60.1984888929" lon="5.91976943615">
		<tag k="name" v="Grovvatnet" />
		<tag k="natural" v="water" />
		<tag k="ssr:stedsnr" v="490495" />
	</node>
	<node id="-465671" lat="60.3251630718" lon="5.99659329363">
		<tag k="alt_name" v="Bjornspet" />
		<tag k="name" v="Bjørnspet" />
		<tag k="natural" v="water" />
		<tag k="ssr:stedsnr" v="469900" />
	</node>
	<node id="-465665" lat="60.393666665" lon="6.0128777763">
		<tag k="name" v="Smørsund" />
		<tag k="natural" v="strait" />
		<tag k="ssr:stedsnr" v="469836" />
	</node>
	<node id="-465654" lat="60.3172972196" lon="6.04103889534">
		<tag k="name" v="Furenes" />
		<tag k="natural" v="cape" />
		<tag k="ssr:stedsnr" v="469711" />
	</node>
	<node id="-465652" lat="60.2578916669" lon="6.11142776888">
		<tag k="name" v="Røyrvikelva" />
		<tag k="ssr:stedsnr" v="469636" />
		<tag k="waterway" v="river" />
	</node>
	<node id="-465650" lat="60.3234361135" lon="6.11201945024">
		<tag k="name" v="Orfallet" />
		<tag k="ssr:stedsnr" v="469611" />
		<tag k="waterway" v="rapids" />
	</node>
	<node id="-465635" lat="60.4329583304" lon="6.27214444327">
		<tag k="name" v="Mødalsvatn" />
		<tag k="natural" v="water" />
		<tag k="ssr:stedsnr" v="469441" />
		<tag k="water" v="lake" />
	</node>
	<node id="-465625" lat="60.4055475739" lon="6.21406841795">
		<tag k="name" v="Myratjønn" />
		<tag k="natural" v="water" />
		<tag k="ssr:stedsnr" v="469080" />
	</node>
	<node id="-465623" lat="60.2533083348" lon="6.01063333344">
		<tag k="fixme" v="multiple name tags, choose one and add the other to alt_name" />
		<tag k="name" v="Osen;Risosen" />
		<tag k="natural" v="bay" />
		<tag k="ssr:stedsnr" v="468771" />
	</node>
	<node id="-465610" lat="60.5038500025" lon="6.15223054935">
		<tag k="name" v="Vassenden" />
		<tag k="natural" v="shoal" />
		<tag k="place" v="locality" />
		<tag k="ssr:stedsnr" v="468019" />
	</node>
	<node id="-465606" lat="60.3594472196" lon="6.01125555926">
		<tag k="name" v="Langvotnebekken" />
		<tag k="ssr:stedsnr" v="467825" />
		<tag k="waterway" v="stream" />
	</node>
	<node id="-464436" lat="60.4236361147" lon="6.27082222868">
		<tag k="alt_name" v="Vetleelvi" />
		<tag k="name" v="Vetle-elv" />
		<tag k="ssr:stedsnr" v="347408" />
		<tag k="waterway" v="river" />
	</node>
	<node id="-465599" lat="60.3482833342" lon="6.12056665848">
		<tag k="name" v="Mosvika" />
		<tag k="natural" v="bay" />
		<tag k="ssr:stedsnr" v="457222" />
	</node>
	<node id="-465585" lat="60.4766710722" lon="6.29700842367">
		<tag k="name" v="Svartedalsvatnet" />
		<tag k="natural" v="water" />
		<tag k="ssr:stedsnr" v="431795" />
	</node>
	<node id="-465582" lat="60.4982735716" lon="6.14434959591">
		<tag k="name" v="Breisetevatnet" />
		<tag k="natural" v="water" />
		<tag k="ssr:stedsnr" v="431343" />
	</node>
	<node id="-465580" lat="60.3071671443" lon="6.04358338947">
		<tag k="name" v="Svartetjørn" />
		<tag k="natural" v="water" />
		<tag k="ssr:stedsnr" v="430950" />
	</node>
	<node id="-465578" lat="60.2740195983" lon="5.97895671561">
		<tag k="name" v="Hestabergtjørna" />
		<tag k="natural" v="water" />
		<tag k="ssr:stedsnr" v="430894" />
	</node>
	<node id="-465572" lat="60.1265455297" lon="5.87240080983">
		<tag k="name" v="Dyratjørna" />
		<tag k="natural" v="water" />
		<tag k="ssr:stedsnr" v="430878" />
	</node>
	<node id="-465571" lat="60.2821472232" lon="6.08683332452">
		<tag k="name" v="Veghamretjørna" />
		<tag k="natural" v="water" />
		<tag k="ssr:stedsnr" v="430844" />
	</node>
	<node id="-465570" lat="60.284269233" lon="6.09147356814">
		<tag k="name" v="Ljosavatnet" />
		<tag k="natural" v="water" />
		<tag k="ssr:stedsnr" v="430843" />
	</node>
	<node id="-465569" lat="60.2599223684" lon="5.96295455225">
		<tag k="name" v="Bukkatjørn" />
		<tag k="natural" v="water" />
		<tag k="ssr:stedsnr" v="430838" />
	</node>
	<node id="-465567" lat="60.272130555" lon="6.15846110514">
		<tag k="name" v="Eidesvatnet" />
		<tag k="natural" v="water" />
		<tag k="ssr:stedsnr" v="430824" />
		<tag k="water" v="lake" />
	</node>
	<node id="-465566" lat="60.270944441" lon="6.15838611854">
		<tag k="name" v="Halvgjengeneset" />
		<tag k="natural" v="cape" />
		<tag k="ssr:stedsnr" v="430821" />
	</node>
	<node id="-465565" lat="60.2754676342" lon="6.1170557578">
		<tag k="name" v="Svartavatnet" />
		<tag k="natural" v="water" />
		<tag k="ssr:stedsnr" v="430814" />
	</node>
	<node id="-465562" lat="60.2507051621" lon="5.95605483929">
		<tag k="name" v="Rishaugtjørna" />
		<tag k="natural" v="water" />
		<tag k="ssr:stedsnr" v="430796" />
	</node>
	<node id="-465557" lat="60.4072013091" lon="6.10339154322">
		<tag k="name" v="Øvra Jørstavatnet" />
		<tag k="natural" v="water" />
		<tag k="ssr:stedsnr" v="430731" />
	</node>
	<node id="-465556" lat="60.3971805549" lon="6.01467778349">
		<tag k="alt_name" v="Kvanndalsvatnet" />
		<tag k="name" v="Steinskvanndalsvatnet" />
		<tag k="natural" v="water" />
		<tag k="ssr:stedsnr" v="430723" />
	</node>
	<node id="-465542" lat="60.3399200961" lon="6.0435296681">
		<tag k="name" v="Stiksvatnet" />
		<tag k="natural" v="water" />
		<tag k="ssr:stedsnr" v="430572" />
	</node>
	<node id="-465541" lat="60.342489777" lon="6.05159323342">
		<tag k="name" v="Holmadalsvatnet" />
		<tag k="natural" v="water" />
		<tag k="ssr:stedsnr" v="430569" />
	</node>
	<node id="-465525" lat="60.406769441" lon="5.91778055003">
		<tag k="name" v="Teigaelva" />
		<tag k="ssr:stedsnr" v="430457" />
		<tag k="waterway" v="stream" />
	</node>
	<node id="-464659" lat="60.3658607402" lon="6.01153175396">
		<tag k="name" v="Tverrbekken" />
		<tag k="ssr:stedsnr" v="893829" />
		<tag k="waterway" v="stream" />
	</node>
	<node id="-465519" lat="60.4309524576" lon="6.0349265205">
		<tag k="fixme" v="multiple name tags, choose one and add the other to alt_name" />
		<tag k="name" v="Kvitebekkstjørna;Kvitebekken" />
		<tag k="natural" v="water" />
		<tag k="ssr:stedsnr" v="430394" />
	</node>
	<node id="-465518" lat="60.4562055586" lon="5.96470556302">
		<tag k="name" v="Svartavatnet" />
		<tag k="natural" v="water" />
		<tag k="ssr:stedsnr" v="430384" />
		<tag k="water" v="lake" />
	</node>
	<node id="-465517" lat="60.4561278491" lon="6.07998317558">
		<tag k="name" v="Fossavatnet" />
		<tag k="natural" v="water" />
		<tag k="ssr:stedsnr" v="430380" />
	</node>
	<node id="-465511" lat="60.4428361127" lon="6.35843611246">
		<tag k="name" v="Orfallet" />
		<tag k="natural" v="water" />
		<tag k="ssr:stedsnr" v="430232" />
		<tag k="water" v="lake" />
	</node>
	<node id="-464315" lat="60.4151722219" lon="6.09301110861">
		<tag k="name" v="Gråursvika" />
		<tag k="natural" v="bay" />
		<tag k="ssr:stedsnr" v="308448" />
	</node>
	<node id="-465504" lat="60.4663833312" lon="6.50786389755">
		<tag k="name" v="Bleiesonen" />
		<tag k="ssr:stedsnr" v="430193" />
		<tag k="waterway" v="stream" />
	</node>
	<node id="-465501" lat="60.4149529245" lon="6.27887299018">
		<tag k="name" v="Lomatjørni" />
		<tag k="natural" v="water" />
		<tag k="ssr:stedsnr" v="430125" />
	</node>
	<node id="-465493" lat="60.3621000008" lon="6.13695556446">
		<tag k="name" v="Sandveelvi" />
		<tag k="ssr:stedsnr" v="430617" />
		<tag k="waterway" v="stream" />
	</node>
	<node id="-465491" lat="60.3461611068" lon="5.95808333557">
		<tag k="name" v="Kjelsbekken" />
		<tag k="ssr:stedsnr" v="430606" />
		<tag k="waterway" v="stream" />
	</node>
	<node id="-465489" lat="60.1813555537" lon="5.88817222375">
		<tag k="name" v="Gjelbekken" />
		<tag k="ssr:stedsnr" v="268314" />
		<tag k="waterway" v="stream" />
	</node>
	<node id="-465484" lat="60.3015027762" lon="6.01524999194">
		<tag k="name" v="Tverrelva" />
		<tag k="ssr:stedsnr" v="248967" />
		<tag k="waterway" v="stream" />
	</node>
	<node id="-465482" lat="60.3020166688" lon="6.05876666116">
		<tag k="name" v="Fagersetelva" />
		<tag k="ssr:stedsnr" v="248930" />
		<tag k="waterway" v="stream" />
	</node>
	<node id="-465480" lat="60.2961226347" lon="6.15426439581">
		<tag k="name" v="Vetlavatnet" />
		<tag k="natural" v="water" />
		<tag k="ssr:stedsnr" v="248888" />
	</node>
	<node id="-465475" lat="60.264113889" lon="6.12331388365">
		<tag k="name" v="Øyjordsvatnet" />
		<tag k="natural" v="water" />
		<tag k="ssr:stedsnr" v="248798" />
		<tag k="water" v="lake" />
	</node>
	<node id="-465473" lat="60.4736210194" lon="6.35167525693">
		<tag k="name" v="Kulo" />
		<tag k="natural" v="water" />
		<tag k="ssr:stedsnr" v="248787" />
	</node>
	<node id="-464309" lat="60.4508166636" lon="6.20755000355">
		<tag k="name" v="Fossabekken" />
		<tag k="ssr:stedsnr" v="308390" />
		<tag k="waterway" v="stream" />
	</node>
	<node id="-465467" lat="60.3858767589" lon="5.96455855726">
		<tag k="name" v="Vetlavatnet" />
		<tag k="natural" v="water" />
		<tag k="ssr:stedsnr" v="248717" />
	</node>
	<node id="-465458" lat="60.3604250027" lon="5.97879444496">
		<tag k="name" v="Mødalselva" />
		<tag k="ssr:stedsnr" v="248653" />
		<tag k="waterway" v="stream" />
	</node>
	<node id="-465457" lat="60.3613416676" lon="6.00383056239">
		<tag k="name" v="Krokvassbekken" />
		<tag k="ssr:stedsnr" v="248647" />
		<tag k="waterway" v="stream" />
	</node>
	<node id="-465441" lat="60.431975002" lon="6.17074166578">
		<tag k="name" v="Kjellarbekken" />
		<tag k="ssr:stedsnr" v="248455" />
		<tag k="waterway" v="stream" />
	</node>
	<node id="-465440" lat="60.4282999987" lon="6.1282638803">
		<tag k="name" v="Bytesåna" />
		<tag k="ssr:stedsnr" v="248452" />
		<tag k="waterway" v="river" />
	</node>
	<node id="-465430" lat="60.4784997266" lon="6.01979376549">
		<tag k="name" v="Kjerringadalsvatnet" />
		<tag k="natural" v="water" />
		<tag k="ssr:stedsnr" v="248349" />
	</node>
	<node id="-465425" lat="60.4448527823" lon="6.29654722361">
		<tag k="alt_name" v="Svartaputten;Pytten" />
		<tag k="name" v="Svartepytten" />
		<tag k="natural" v="water" />
		<tag k="ssr:stedsnr" v="248244" />
		<tag k="water" v="pond" />
	</node>
	<node id="-465420" lat="60.4739613214" lon="6.3863456244">
		<tag k="name" v="Rundatjørni" />
		<tag k="natural" v="water" />
		<tag k="ssr:stedsnr" v="248220" />
	</node>
	<node id="-465419" lat="60.467899999" lon="6.27597499109">
		<tag k="name" v="Bufarvatnet" />
		<tag k="natural" v="water" />
		<tag k="ssr:stedsnr" v="248207" />
	</node>
	<node id="-465418" lat="60.4630499992" lon="6.34706111392">
		<tag k="name" v="Øvstavatnet" />
		<tag k="natural" v="water" />
		<tag k="ssr:stedsnr" v="248204" />
		<tag k="water" v="lake" />
	</node>
	<node id="-465417" lat="60.468569449" lon="6.50846111392">
		<tag k="name" v="Bleia" />
		<tag k="ssr:stedsnr" v="248198" />
		<tag k="waterway" v="stream" />
	</node>
	<node id="-465415" lat="60.3947638933" lon="6.23337777637">
		<tag k="alt_name" v="Laupsaelva" />
		<tag k="name" v="Laupsaelvi" />
		<tag k="ssr:stedsnr" v="248168" />
		<tag k="waterway" v="river" />
	</node>
	<node id="-465409" lat="60.2256527806" lon="5.9588249947">
		<tag k="name" v="Omaelva" />
		<tag k="ssr:stedsnr" v="247725" />
		<tag k="waterway" v="stream" />
	</node>
	<node id="-465408" lat="60.2099149528" lon="5.91412582955">
		<tag k="name" v="Vindfatetjørna" />
		<tag k="natural" v="water" />
		<tag k="ssr:stedsnr" v="247713" />
	</node>
	<node id="-465406" lat="60.2472583343" lon="5.94953332734">
		<tag k="name" v="Banktjørn" />
		<tag k="natural" v="water" />
		<tag k="ssr:stedsnr" v="247665" />
	</node>
	<node id="-465405" lat="60.1353651046" lon="5.87796789316">
		<tag k="alt_name" v="Annevatnet" />
		<tag k="name" v="Ådnevatnet" />
		<tag k="natural" v="water" />
		<tag k="ssr:stedsnr" v="247576" />
	</node>
	<node id="-465398" lat="60.2651722229" lon="6.17559165825">
		<tag k="name" v="Bjørgjena" />
		<tag k="natural" v="bay" />
		<tag k="ssr:stedsnr" v="226924" />
	</node>
	<node id="-465395" lat="60.3639861093" lon="5.93719444793">
		<tag k="name" v="Kvanngrø" />
		<tag k="ssr:stedsnr" v="226911" />
		<tag k="waterway" v="stream" />
	</node>
	<node id="-465392" lat="60.353311462" lon="5.98378038319">
		<tag k="name" v="Husaleitetjørna" />
		<tag k="natural" v="water" />
		<tag k="ssr:stedsnr" v="226903" />
	</node>
	<node id="-465388" lat="60.4231983358" lon="5.96598966594">
		<tag k="name" v="Raudåni" />
		<tag k="ssr:stedsnr" v="226879" />
		<tag k="waterway" v="river" />
	</node>
	<node id="-464294" lat="60.3410608854" lon="6.07700206343">
		<tag k="name" v="Vetlavatnet" />
		<tag k="natural" v="water" />
		<tag k="ssr:stedsnr" v="298258" />
	</node>
	<node id="-465364" lat="60.1809027781" lon="5.89710000884">
		<tag k="name" v="Apalbekken" />
		<tag k="ssr:stedsnr" v="226391" />
		<tag k="waterway" v="stream" />
	</node>
	<node id="-465359" lat="60.1408916663" lon="5.881052785">
		<tag k="alt_name" v="Sakresvatnet;Sakrisvatnet" />
		<tag k="name" v="Sakresvatn" />
		<tag k="natural" v="water" />
		<tag k="ssr:stedsnr" v="226323" />
		<tag k="water" v="lake" />
	</node>
	<node id="-465355" lat="60.4870861107" lon="6.05873332657">
		<tag k="name" v="Smørlaupen" />
		<tag k="ssr:stedsnr" v="226245" />
		<tag k="waterway" v="stream" />
	</node>
	<node id="-465344" lat="60.5047361082" lon="6.09261945018">
		<tag k="name" v="Krossfossen" />
		<tag k="natural" v="waterfall" />
		<tag k="ssr:stedsnr" v="226005" />
	</node>
	<node id="-465342" lat="60.52266944" lon="6.0797888848">
		<tag k="name" v="Osen" />
		<tag k="natural" v="bay" />
		<tag k="ssr:stedsnr" v="225909" />
	</node>
	<node id="-465325" lat="60.5069027816" lon="6.01937778597">
		<tag k="alt_name" v="Moagjeltjørni" />
		<tag k="name" v="Moagjelsvatnet" />
		<tag k="natural" v="water" />
		<tag k="ssr:stedsnr" v="188982" />
	</node>
	<node id="-465319" lat="60.3250655186" lon="6.10966697622">
		<tag k="name" v="Finnhellersvatnet" />
		<tag k="natural" v="water" />
		<tag k="ssr:stedsnr" v="188562" />
		<tag k="water" v="lake" />
	</node>
	<node id="-465309" lat="60.3113325562" lon="6.03445339602">
		<tag k="name" v="Eikhaugtjørn" />
		<tag k="natural" v="water" />
		<tag k="ssr:stedsnr" v="187936" />
	</node>
	<node id="-465307" lat="60.2903222262" lon="6.01091666891">
		<tag k="name" v="Svartavatnet" />
		<tag k="natural" v="water" />
		<tag k="ssr:stedsnr" v="187910" />
	</node>
	<node id="-465306" lat="60.2893277744" lon="5.98791389113">
		<tag k="name" v="Strandadalselva" />
		<tag k="ssr:stedsnr" v="187907" />
		<tag k="waterway" v="river" />
	</node>
	<node id="-465298" lat="60.4028750029" lon="6.09661110688">
		<tag k="name" v="Kalderassen" />
		<tag k="natural" v="water" />
		<tag k="ssr:stedsnr" v="187719" />
	</node>
	<node id="-465296" lat="60.3979666632" lon="6.04943611069">
		<tag k="name" v="Sunnvoredalsvatnet" />
		<tag k="natural" v="water" />
		<tag k="ssr:stedsnr" v="187703" />
	</node>
	<node id="-464280" lat="60.3669861134" lon="6.06806666358">
		<tag k="name" v="Steinsbekken" />
		<tag k="ssr:stedsnr" v="287799" />
		<tag k="waterway" v="stream" />
	</node>
	<node id="-465293" lat="60.2691731804" lon="5.97440410123">
		<tag k="name" v="Skarsdemma" />
		<tag k="natural" v="water" />
		<tag k="ssr:stedsnr" v="187860" />
	</node>
	<node id="-465291" lat="60.2833191136" lon="6.10059999178">
		<tag k="alt_name" v="Krokavatn" />
		<tag k="name" v="Sneldevatnet" />
		<tag k="natural" v="water" />
		<tag k="ssr:stedsnr" v="187841" />
	</node>
	<node id="-465280" lat="60.3351388865" lon="6.03756943795">
		<tag k="name" v="Smørlaupen" />
		<tag k="place" v="locality" />
		<tag k="ssr:stedsnr" v="187522" />
	</node>
	<node id="-465277" lat="60.1827353278" lon="5.91782644556">
		<tag k="name" v="Vatnadalsvatnet" />
		<tag k="natural" v="water" />
		<tag k="ssr:stedsnr" v="187504" />
	</node>
	<node id="-465276" lat="60.4182519647" lon="6.04036241577">
		<tag k="name" v="Fotasperrtjørna" />
		<tag k="natural" v="water" />
		<tag k="ssr:stedsnr" v="187464" />
	</node>
	<node id="-465275" lat="60.4118611175" lon="6.01666588463">
		<tag k="fixme" v="multiple name tags, choose one and add the other to alt_name" />
		<tag k="name" v="Øvra Kvanndalsvatnet;Øvra Steinskvanndalsvatnet" />
		<tag k="natural" v="water" />
		<tag k="ssr:stedsnr" v="187463" />
	</node>
	<node id="-465263" lat="60.430630555" lon="6.14937499203">
		<tag k="name" v="Storaelvi" />
		<tag k="ssr:stedsnr" v="187421" />
		<tag k="waterway" v="stream" />
	</node>
	<node id="-465260" lat="60.4315990365" lon="6.11203318584">
		<tag k="name" v="Vetlavatn" />
		<tag k="natural" v="water" />
		<tag k="ssr:stedsnr" v="187378" />
	</node>
	<node id="-465255" lat="60.4406138885" lon="6.44429722571">
		<tag k="name" v="Båsgjelselva" />
		<tag k="ssr:stedsnr" v="187226" />
		<tag k="waterway" v="river" />
	</node>
	<node id="-465243" lat="60.3933555528" lon="5.91706944484">
		<tag k="name" v="Eikedalsvatnet" />
		<tag k="natural" v="water" />
		<tag k="ssr:stedsnr" v="165896" />
		<tag k="water" v="lake" />
	</node>
	<node id="-465237" lat="60.430088891" lon="5.98081388061">
		<tag k="name" v="Stegafossen" />
		<tag k="natural" v="waterfall" />
		<tag k="ssr:stedsnr" v="165849" />
	</node>
	<node id="-465236" lat="60.475968294" lon="5.98344707762">
		<tag k="name" v="Øystra Trongasmogtjørni" />
		<tag k="natural" v="water" />
		<tag k="ssr:stedsnr" v="165823" />
	</node>
	<node id="-465220" lat="60.3057333339" lon="6.02293054901">
		<tag k="name" v="Krokholm" />
		<tag k="natural" v="cape" />
		<tag k="ssr:stedsnr" v="165541" />
	</node>
	<node id="-465218" lat="60.2753166707" lon="6.16321944586">
		<tag k="alt_name" v="Kalvhageneset" />
		<tag k="name" v="Kalhageneset" />
		<tag k="natural" v="cape" />
		<tag k="ssr:stedsnr" v="165519" />
	</node>
	<node id="-465168" lat="60.2415194437" lon="5.96675832582">
		<tag k="name" v="Lomatjørn" />
		<tag k="natural" v="water" />
		<tag k="ssr:stedsnr" v="152716" />
	</node>
	<node id="-465164" lat="60.5226234331" lon="6.22622250932">
		<tag k="alt_name" v="Sangrevatn" />
		<tag k="name" v="Songrøvatnet" />
		<tag k="natural" v="water" />
		<tag k="ssr:stedsnr" v="128489" />
	</node>
	<node id="-465160" lat="60.511688888" lon="6.12774443886">
		<tag k="alt_name" v="Kyrkjevik" />
		<tag k="name" v="Kyrkjeviki" />
		<tag k="natural" v="bay" />
		<tag k="ssr:stedsnr" v="127801" />
	</node>
	<node id="-465159" lat="60.4771941017" lon="6.27018353171">
		<tag k="name" v="Varlivatnet" />
		<tag k="natural" v="water" />
		<tag k="ssr:stedsnr" v="127797" />
	</node>
	<node id="-465158" lat="60.4821102259" lon="6.30798396289">
		<tag k="name" v="Jaradalsvatnet" />
		<tag k="natural" v="water" />
		<tag k="ssr:stedsnr" v="127796" />
	</node>
	<node id="-465157" lat="60.5146333312" lon="6.1031749936">
		<tag k="name" v="Dyraneset" />
		<tag k="natural" v="cape" />
		<tag k="ssr:stedsnr" v="127794" />
	</node>
	<node id="-465156" lat="60.4912762617" lon="6.27851000257">
		<tag k="alt_name" v="Torfinnsvatnet, vetla" />
		<tag k="name" v="Vetla Torfinnsvatnet" />
		<tag k="natural" v="water" />
		<tag k="ssr:stedsnr" v="127786" />
	</node>
	<node id="-465146" lat="60.3104111126" lon="5.9517361042">
		<tag k="name" v="Vetlavatnet" />
		<tag k="natural" v="water" />
		<tag k="ssr:stedsnr" v="126978" />
	</node>
	<node id="-465143" lat="60.3086604611" lon="6.16018527235">
		<tag k="name" v="Bergsvatnet" />
		<tag k="natural" v="water" />
		<tag k="ssr:stedsnr" v="126959" />
	</node>
	<node id="-465140" lat="60.2857388869" lon="6.04964167492">
		<tag k="name" v="Eidesvatnet" />
		<tag k="natural" v="water" />
		<tag k="ssr:stedsnr" v="126880" />
	</node>
	<node id="-465139" lat="60.2886416647" lon="6.1349305632">
		<tag k="name" v="Kvanndalselva" />
		<tag k="ssr:stedsnr" v="126874" />
		<tag k="waterway" v="stream" />
	</node>
	<node id="-465131" lat="60.4065161967" lon="6.10715101107">
		<tag k="name" v="Nedra Jørstavatnet" />
		<tag k="natural" v="water" />
		<tag k="ssr:stedsnr" v="126725" />
	</node>
	<node id="-465126" lat="60.2569833353" lon="5.98661666404">
		<tag k="name" v="Risaelva" />
		<tag k="ssr:stedsnr" v="126834" />
		<tag k="waterway" v="stream" />
	</node>
	<node id="-464593" lat="60.5138561893" lon="6.0696873015">
		<tag k="alt_name" v="Haugatjørni" />
		<tag k="name" v="Haugatjørn" />
		<tag k="natural" v="water" />
		<tag k="ssr:stedsnr" v="408250" />
	</node>
	<node id="-465124" lat="60.2649749994" lon="6.10660278418">
		<tag k="name" v="Knutsteinelva" />
		<tag k="ssr:stedsnr" v="126811" />
		<tag k="waterway" v="stream" />
	</node>
	<node id="-465115" lat="60.3761972214" lon="6.06758055574">
		<tag k="name" v="Teigatjørna" />
		<tag k="natural" v="water" />
		<tag k="ssr:stedsnr" v="126667" />
	</node>
	<node id="-465107" lat="60.3734775808" lon="6.13367572487">
		<tag k="name" v="Movatnet" />
		<tag k="natural" v="water" />
		<tag k="old_name" v="Movatn" />
		<tag k="ssr:stedsnr" v="126632" />
	</node>
	<node id="-465098" lat="60.44851944" lon="6.34024444024">
		<tag k="name" v="Dyranes" />
		<tag k="natural" v="cape" />
		<tag k="ssr:stedsnr" v="126235" />
	</node>
	<node id="-465097" lat="60.452150001" lon="6.43917500153">
		<tag k="name" v="Dalselvi" />
		<tag k="ssr:stedsnr" v="126234" />
		<tag k="waterway" v="river" />
	</node>
	<node id="-465095" lat="60.4703112723" lon="6.34627636125">
		<tag k="name" v="Vikavatnet" />
		<tag k="natural" v="water" />
		<tag k="ssr:stedsnr" v="126199" />
	</node>
	<node id="-465094" lat="60.4549277821" lon="6.34901666593">
		<tag k="name" v="Dyranes" />
		<tag k="place" v="islet" />
		<tag k="ssr:stedsnr" v="126188" />
	</node>
	<node id="-465093" lat="60.4602359802" lon="6.09222542523">
		<tag k="name" v="Fugladalsvatnet" />
		<tag k="natural" v="water" />
		<tag k="ssr:stedsnr" v="126384" />
		<tag k="water" v="lake" />
	</node>
	<node id="-465091" lat="60.474368322" lon="6.03634669188">
		<tag k="name" v="Søyevatnet" />
		<tag k="natural" v="water" />
		<tag k="ssr:stedsnr" v="126374" />
	</node>
	<node id="-465078" lat="60.452550003" lon="6.00879166997">
		<tag k="name" v="Blankelvi" />
		<tag k="ssr:stedsnr" v="105833" />
		<tag k="waterway" v="river" />
	</node>
	<node id="-465070" lat="60.3600944453" lon="6.09190833202">
		<tag k="name" v="Hessgjelsbekken" />
		<tag k="ssr:stedsnr" v="105761" />
		<tag k="waterway" v="stream" />
	</node>
	<node id="-465064" lat="60.315216664" lon="6.02448055569">
		<tag k="name" v="Seglet" />
		<tag k="ssr:stedsnr" v="105735" />
		<tag k="waterway" v="stream" />
	</node>
	<node id="-465060" lat="60.2598944419" lon="6.10733333424">
		<tag k="name" v="Instavassvika" />
		<tag k="natural" v="bay" />
		<tag k="ssr:stedsnr" v="105624" />
	</node>
	<node id="-465041" lat="60.3730833311" lon="6.14509722556">
		<tag k="name" v="Straumen" />
		<tag k="place" v="locality" />
		<tag k="ssr:stedsnr" v="105217" />
	</node>
	<node id="-465038" lat="60.3467249984" lon="6.12613055429">
		<tag k="name" v="Langaneset" />
		<tag k="natural" v="cape" />
		<tag k="ssr:stedsnr" v="105172" />
	</node>
	<node id="-465021" lat="60.3654444441" lon="6.02107499497">
		<tag k="name" v="Klubben" />
		<tag k="natural" v="cape" />
		<tag k="ssr:stedsnr" v="104797" />
	</node>
	<node id="-465006" lat="60.430752778" lon="6.38331387979">
		<tag k="name" v="Gåsatjørn" />
		<tag k="natural" v="water" />
		<tag k="ssr:stedsnr" v="92357" />
	</node>
	<node id="-465000" lat="60.5173967785" lon="6.07512505015">
		<tag k="alt_name" v="Kjerringatjørn" />
		<tag k="name" v="Kjerringtjørni" />
		<tag k="natural" v="water" />
		<tag k="ssr:stedsnr" v="67982" />
	</node>
	<node id="-464994" lat="60.4543750005" lon="6.37456111143">
		<tag k="name" v="Storavatnet" />
		<tag k="natural" v="water" />
		<tag k="ssr:stedsnr" v="67589" />
		<tag k="water" v="lake" />
	</node>
	<node id="-464992" lat="60.3030083353" lon="6.03877777772">
		<tag k="name" v="Dalatjørna" />
		<tag k="natural" v="water" />
		<tag k="ssr:stedsnr" v="66941" />
	</node>
	<node id="-464989" lat="60.1080611066" lon="5.88354999794">
		<tag k="alt_name" v="Træstjørn" />
		<tag k="name" v="Trædstjørna" />
		<tag k="natural" v="water" />
		<tag k="ssr:stedsnr" v="66880" />
	</node>
	<node id="-464987" lat="60.2627236885" lon="6.11521722389">
		<tag k="name" v="Vetlavatnet" />
		<tag k="natural" v="water" />
		<tag k="ssr:stedsnr" v="66792" />
	</node>
	<node id="-464986" lat="60.510338885" lon="6.15029444952">
		<tag k="name" v="Blåkollvatnet" />
		<tag k="natural" v="water" />
		<tag k="ssr:stedsnr" v="66768" />
		<tag k="water" v="lake" />
	</node>
	<node id="-464985" lat="60.5148499981" lon="6.12423610423">
		<tag k="name" v="Hestaneset" />
		<tag k="natural" v="cape" />
		<tag k="ssr:stedsnr" v="66765" />
	</node>
	<node id="-464982" lat="60.3942000026" lon="5.98956666736">
		<tag k="name" v="Tryglakleivtjørnane" />
		<tag k="natural" v="water" />
		<tag k="ssr:stedsnr" v="66717" />
		<tag k="water" v="lake" />
	</node>
	<node id="-464981" lat="60.3993416689" lon="6.17806111165">
		<tag k="name" v="Øysteseelva" />
		<tag k="ssr:stedsnr" v="66714" />
		<tag k="waterway" v="stream" />
	</node>
	<node id="-464980" lat="60.3902444456" lon="6.13236666725">
		<tag k="name" v="Sjusetevatnet" />
		<tag k="natural" v="water" />
		<tag k="ssr:stedsnr" v="66693" />
		<tag k="water" v="lake" />
	</node>
	<node id="-464979" lat="60.3870861128" lon="6.0134305495">
		<tag k="name" v="Fljoto" />
		<tag k="ssr:stedsnr" v="66676" />
		<tag k="waterway" v="stream" />
	</node>
	<node id="-464978" lat="60.3630805575" lon="5.98734165813">
		<tag k="name" v="Hjeltelibekken" />
		<tag k="ssr:stedsnr" v="66649" />
		<tag k="waterway" v="stream" />
	</node>
	<node id="-464977" lat="60.3747472259" lon="6.03424721375">
		<tag k="name" v="Hjartåna" />
		<tag k="ssr:stedsnr" v="66647" />
		<tag k="waterway" v="river" />
	</node>
	<node id="-464964" lat="60.3451250043" lon="6.11846387981">
		<tag k="name" v="Mosholmen" />
		<tag k="place" v="islet" />
		<tag k="ssr:stedsnr" v="66546" />
	</node>
	<node id="-464958" lat="60.3379083353" lon="6.07388055076">
		<tag k="name" v="Gullvotnevatnet" />
		<tag k="natural" v="water" />
		<tag k="ssr:stedsnr" v="66508" />
	</node>
	<node id="-464947" lat="60.4292833306" lon="6.0777694472">
		<tag k="alt_name" v="Fugladalstjørn" />
		<tag k="name" v="Fugladalstjørnane" />
		<tag k="natural" v="water" />
		<tag k="ssr:stedsnr" v="66389" />
		<tag k="water" v="lake" />
	</node>
	<node id="-464946" lat="60.4615150126" lon="6.15820477643">
		<tag k="name" v="Håstabbetjørn" />
		<tag k="natural" v="water" />
		<tag k="ssr:stedsnr" v="66371" />
	</node>
	<node id="-464924" lat="60.3184472183" lon="6.00383610667">
		<tag k="name" v="Holsetevatnet" />
		<tag k="natural" v="water" />
		<tag k="ssr:stedsnr" v="66961" />
	</node>
	<node id="-464912" lat="60.3555331507" lon="5.99531752258">
		<tag k="name" v="Krokavatnet" />
		<tag k="natural" v="water" />
		<tag k="ssr:stedsnr" v="44865" />
		<tag k="water" v="lake" />
	</node>
</osm>
